longitude,latitude,OBJECTID,ADDRESSBLO,ADDRESSBUI,ADDRESSPOS,ADDRESSSTR,ADDRESSTYP,DESCRIPTIO,HYPERLINK,LANDXADDRE,LANDYADDRE,NAME,PHOTOURL,ADDRESSFLO,ADDRESSUNI,INC_CRC,FMEL_UPD_D,X_ADDR,Y_ADDR
103.83098211578064,1.289496817572519,1,570,,169640,Havelock Road,A,Community Centre/Club,http://one.pa.gov.sg/CRMSPortal/CRMSPortal.portal?_nfpb=true&_st=&_windowLabel=CRMSPortal_1&_urlType=render&_mode=view&wlpCRMSPortal_1_action=CMFPAOrgSelection&wlpCRMSPortal_1_ProgramType=1&_pageLabel=CRMSPortal_page_1,0.00000000000,0.00000000000,Kim Seng CC,http://one.pa.gov.sg/CRMSPortal/photos/Common/Photos_of_BU/BU_4910.jpg,,,C8A35712879157F7,2013/06/12,27739.97150000000,30211.52590000000
103.86983819843161,1.324120798498895,2,3188,,339717,Geylang Bahru,A,Community Centre/Club,http://one.pa.gov.sg/CRMSPortal/CRMSPortal.portal?_nfpb=true&_st=&_windowLabel=CRMSPortal_1&_urlType=render&_mode=view&wlpCRMSPortal_1_action=CMFPAOrgSelection&wlpCRMSPortal_1_ProgramType=1&_pageLabel=CRMSPortal_page_1,0.00000000000,0.00000000000,Kolam Ayer CC,http://one.pa.gov.sg/CRMSPortal/photos/Common/Photos_of_BU/BU_4930.jpg,,,4240362C726504DB,2013/06/12,32064.26740000000,34040.09730000000
103.84301284553112,1.281192581643019,3,28A,,88995,Kreta Ayer Road,A,Community Centre/Club,http://one.pa.gov.sg/CRMSPortal/CRMSPortal.portal?_nfpb=true&_st=&_windowLabel=CRMSPortal_1&_urlType=render&_mode=view&wlpCRMSPortal_1_action=CMFPAOrgSelection&wlpCRMSPortal_1_ProgramType=1&_pageLabel=CRMSPortal_page_1,0.00000000000,0.00000000000,Kreta Ayer CC,http://one.pa.gov.sg/CRMSPortal/photos/Common/Photos_of_BU/BU_4950.jpg,,,69BC87DD887A33A9,2013/06/12,29078.89270000000,29293.28830000000
103.7407475013473,1.381794602831061,4,421,,680421,Choa Chu Kang Avenue 4,A,Community Centre/Club,http://one.pa.gov.sg/CRMSPortal/CRMSPortal.portal?_nfpb=true&_st=&_windowLabel=CRMSPortal_1&_urlType=render&_mode=view&wlpCRMSPortal_1_action=CMFPAOrgSelection&wlpCRMSPortal_1_ProgramType=1&_pageLabel=CRMSPortal_page_1,0.00000000000,0.00000000000,Lam Soon CC,http://one.pa.gov.sg/CRMSPortal/photos/Common/Photos_of_BU/BU_4970.jpg,1,218,97984CFA1D93D040,2013/06/12,17698.00690000000,40417.54290000000
103.81444834456541,1.289787121630801,5,400,,159049,Lengkok Bahru,A,Community Centre/Club,http://one.pa.gov.sg/CRMSPortal/CRMSPortal.portal?_nfpb=true&_st=&_windowLabel=CRMSPortal_1&_urlType=render&_mode=view&wlpCRMSPortal_1_action=CMFPAOrgSelection&wlpCRMSPortal_1_ProgramType=1&_pageLabel=CRMSPortal_page_1,0.00000000000,0.00000000000,Leng Kee CC,http://one.pa.gov.sg/CRMSPortal/photos/Common/Photos_of_BU/BU_4990.jpg,,,1E8EDC6C947FD5D7,2013/06/12,25899.90360000000,30243.63380000000
103.88467308460639,1.324138801260553,6,808,(Temporary Office),379496,Circuit Road,A,Community Centre/Club,http://one.pa.gov.sg/CRMSPortal/CRMSPortal.portal?_nfpb=true&_st=&_windowLabel=CRMSPortal_1&_urlType=render&_mode=view&wlpCRMSPortal_1_action=CMFPAOrgSelection&wlpCRMSPortal_1_ProgramType=1&_pageLabel=CRMSPortal_page_1,0.00000000000,0.00000000000,MacPherson CC,http://one.pa.gov.sg/CRMSPortal/photos/Common/Photos_of_BU/BU_5010.jpg,,,6E9DB43BEEFCDB95,2013/06/12,33715.24180000000,34042.11720000000
103.77361517757861,1.440656779254855,7,100,,739980,Admiralty Road,A,Community Centre/Club,http://one.pa.gov.sg/CRMSPortal/CRMSPortal.portal?_nfpb=true&_st=&_windowLabel=CRMSPortal_1&_urlType=render&_mode=view&wlpCRMSPortal_1_action=CMFPAOrgSelection&wlpCRMSPortal_1_ProgramType=1&_pageLabel=CRMSPortal_page_1,0.00000000000,0.00000000000,Marsiling CC,http://one.pa.gov.sg/CRMSPortal/photos/Common/Photos_of_BU/BU_5030.jpg,,,609359F36D830695,2013/06/12,21355.93340000000,46926.11150000000
103.71149494198751,1.348225531935356,8,10,,649882,Boon Lay Place,A,Community Centre/Club,http://one.pa.gov.sg/CRMSPortal/CRMSPortal.portal?_nfpb=true&_st=&_windowLabel=CRMSPortal_1&_urlType=render&_mode=view&wlpCRMSPortal_1_action=CMFPAOrgSelection&wlpCRMSPortal_1_ProgramType=1&_pageLabel=CRMSPortal_page_1,0.00000000000,0.00000000000,Boon Lay CC,http://one.pa.gov.sg/CRMSPortal/photos/1390244/boon_lay_cc.jpg,,,2768F4FD03785823,2013/10/30,14442.37370000000,36705.78460000000
103.69882197056765,1.348722827584051,9,1,,649149,Jurong West Street 74,A,Community Centre/Club,http://one.pa.gov.sg/CRMSPortal/CRMSPortal.portal?_nfpb=true&_st=&_windowLabel=CRMSPortal_1&_urlType=render&_mode=view&wlpCRMSPortal_1_action=CMFPAOrgSelection&wlpCRMSPortal_1_ProgramType=1&_pageLabel=CRMSPortal_page_1,0.00000000000,0.00000000000,Gek Poh Ville CC,http://one.pa.gov.sg/CRMSPortal/photos/Common/Photos_of_BU/BU_4550.jpg,,,CAE20D588EF45C39,2013/06/12,13032.01240000000,36760.84740000000
103.87036787300481,1.35161225457136,10,50,,556129,Serangoon Avenue 2,A,Community Centre/Club,http://one.pa.gov.sg/CRMSPortal/CRMSPortal.portal?_nfpb=true&_st=&_windowLabel=CRMSPortal_1&_urlType=render&_mode=view&wlpCRMSPortal_1_action=CMFPAOrgSelection&wlpCRMSPortal_1_ProgramType=1&_pageLabel=CRMSPortal_page_1,0.00000000000,0.00000000000,Braddell Heights CC,http://one.pa.gov.sg/CRMSPortal/photos/Common/Photos_of_BU/BU_4190.jpg,1,1,89A165FA1EEEE791,2013/10/30,32123.16890000000,37079.96330000000
103.75255621677647,1.363937413293195,11,386,,650386,Bukit Batok West Avenue 5,A,Community Centre/Club,http://one.pa.gov.sg/CRMSPortal/CRMSPortal.portal?_nfpb=true&_st=&_windowLabel=CRMSPortal_1&_urlType=render&_mode=view&wlpCRMSPortal_1_action=CMFPAOrgSelection&wlpCRMSPortal_1_ProgramType=1&_pageLabel=CRMSPortal_page_1,0.00000000000,0.00000000000,Bukit Gombak CC,http://one.pa.gov.sg/CRMSPortal/photos/Common/Photos_of_BU/BU_4230.jpg,1,348,2BB9123429FDD1CF,2013/10/30,19012.10210000000,38442.93590000000
103.77065180539358,1.37635335173788,12,8,,678295,Pending Road,A,Community Centre/Club,http://one.pa.gov.sg/CRMSPortal/CRMSPortal.portal?_nfpb=true&_st=&_windowLabel=CRMSPortal_1&_urlType=render&_mode=view&wlpCRMSPortal_1_action=CMFPAOrgSelection&wlpCRMSPortal_1_ProgramType=1&_pageLabel=CRMSPortal_page_1,0.00000000000,0.00000000000,Bukit Panjang CC,http://one.pa.gov.sg/CRMSPortal/photos/Common/Photos_of_BU/BU_4290.jpg,,,68849C9C5EF9BB30,2013/10/30,21025.96440000000,39815.76790000000
103.83901685249361,1.310414590101567,13,1,,229944,Anthony Road,A,Community Centre/Club,http://one.pa.gov.sg/CRMSPortal/CRMSPortal.portal?_nfpb=true&_st=&_windowLabel=CRMSPortal_1&_urlType=render&_mode=view&wlpCRMSPortal_1_action=CMFPAOrgSelection&wlpCRMSPortal_1_ProgramType=1&_pageLabel=CRMSPortal_page_1,0.00000000000,0.00000000000,Cairnhill CC,http://one.pa.gov.sg/CRMSPortal/photos/Common/Photos_of_BU/BU_4350.jpg,,,1F49CC069D8DED31,2013/10/30,28634.16400000000,32524.50590000000
103.94768782745426,1.345813349791709,14,13,,529453,Tampines Street 11,A,Community Centre/Club,http://one.pa.gov.sg/CRMSPortal/CRMSPortal.portal?_nfpb=true&_st=&_windowLabel=CRMSPortal_1&_urlType=render&_mode=view&wlpCRMSPortal_1_action=CMFPAOrgSelection&wlpCRMSPortal_1_ProgramType=1&_pageLabel=CRMSPortal_page_1,0.00000000000,0.00000000000,Tampines Changkat CC,http://one.pa.gov.sg/CRMSPortal/photos/Common/Photos_of_BU/BU_4390.jpg,1,5,075D2432F88D7F7A,2013/06/12,40728.04650000000,36439.01680000000
103.89783617054103,1.311004808974709,15,99,,438748,Haig Road,A,Community Centre/Club,http://one.pa.gov.sg/CRMSPortal/CRMSPortal.portal?_nfpb=true&_st=&_windowLabel=CRMSPortal_1&_urlType=render&_mode=view&wlpCRMSPortal_1_action=CMFPAOrgSelection&wlpCRMSPortal_1_ProgramType=1&_pageLabel=CRMSPortal_page_1,0.00000000000,0.00000000000,Geylang Serai CC,http://one.pa.gov.sg/CRMSPortal/photos/1391619/123G/4570.jpg,,,4CEE6A27037BCD19,2013/06/12,35180.19950000000,32589.86100000000
103.9551302070502,1.344774667950661,16,10,,529915,Simei Street 2,A,Community Centre/Club,http://one.pa.gov.sg/CRMSPortal/CRMSPortal.portal?_nfpb=true&_st=&_windowLabel=CRMSPortal_1&_urlType=render&_mode=view&wlpCRMSPortal_1_action=CMFPAOrgSelection&wlpCRMSPortal_1_ProgramType=1&_pageLabel=CRMSPortal_page_1,0.00000000000,0.00000000000,Changi Simei CC,http://one.pa.gov.sg/CRMSPortal/photos/Common/Photos_of_BU/BU_4370.jpg,,,C869B12BDE4561D5,2013/10/30,41556.30880000000,36324.20460000000
103.88254911776849,1.374446781228588,17,662,,530662,Hougang Avenue 4,A,Community Centre/Club,http://one.pa.gov.sg/CRMSPortal/CRMSPortal.portal?_nfpb=true&_st=&_windowLabel=CRMSPortal_1&_urlType=render&_mode=view&wlpCRMSPortal_1_action=CMFPAOrgSelection&wlpCRMSPortal_1_ProgramType=1&_pageLabel=CRMSPortal_page_1,0.00000000000,0.00000000000,Ci Yuan CC,http://one.pa.gov.sg/CRMSPortal/photos/Common/Photos_of_BU/BU_5390.jpg,1,413,B89216EFFC1CF508,2013/10/30,33478.75290000000,39604.91380000000
103.91366459032797,1.393443165379632,18,80,,828815,Punggol Field,A,Community Centre/Club,http://one.pa.gov.sg/CRMSPortal/CRMSPortal.portal?_nfpb=true&_st=&_windowLabel=CRMSPortal_1&_urlType=render&_mode=view&wlpCRMSPortal_1_action=CMFPAOrgSelection&wlpCRMSPortal_1_ProgramType=1&_pageLabel=CRMSPortal_page_1,0.00000000000,0.00000000000,Punggol 21 CC,http://one.pa.gov.sg/CRMSPortal/photos/1389755/P1040117.JPG,1,1,8DF3D0529443D98C,2013/06/12,36941.45280000000,41705.53360000000
103.89191193003023,1.374369987988359,19,3,,538808,Hougang Avenue 6,A,Community Centre/Club,http://one.pa.gov.sg/CRMSPortal/CRMSPortal.portal?_nfpb=true&_st=&_windowLabel=CRMSPortal_1&_urlType=render&_mode=view&wlpCRMSPortal_1_action=CMFPAOrgSelection&wlpCRMSPortal_1_ProgramType=1&_pageLabel=CRMSPortal_page_1,0.00000000000,0.00000000000,Punggol CC,http://one.pa.gov.sg/CRMSPortal/photos/Common/Photos_of_BU/BU_5350.jpg,,,7171DE3C58EACB11,2013/06/12,34520.71930000000,39596.44600000000
103.89625288075503,1.377734450761785,20,458,,530458,Hougang Avenue 10,A,Community Centre/Club,http://one.pa.gov.sg/CRMSPortal/CRMSPortal.portal?_nfpb=true&_st=&_windowLabel=CRMSPortal_1&_urlType=render&_mode=view&wlpCRMSPortal_1_action=CMFPAOrgSelection&wlpCRMSPortal_1_ProgramType=1&_pageLabel=CRMSPortal_page_1,0.00000000000,0.00000000000,Punggol Park CC,http://one.pa.gov.sg/CRMSPortal/photos/Common/Photos_of_BU/BU_5370.jpg,1,405,BF691D2B8D02933C,2013/06/12,35003.80410000000,39968.48360000000
103.94662069544619,1.357278167060873,21,2,,529204,Tampines Street 41,A,Community Centre/Club,http://one.pa.gov.sg/CRMSPortal/CRMSPortal.portal?_nfpb=true&_st=&_windowLabel=CRMSPortal_1&_urlType=render&_mode=view&wlpCRMSPortal_1_action=CMFPAOrgSelection&wlpCRMSPortal_1_ProgramType=1&_pageLabel=CRMSPortal_page_1,0.00000000000,0.00000000000,Tampines North CC,http://one.pa.gov.sg/CRMSPortal/photos/Common/Photos_of_BU/BU_5250.jpg,,,D649EED1F1469B91,2013/10/30,40609.22700000000,37706.73470000000
103.7716245102521,1.386786556990505,22,1,,677738,Segar Road,A,Community Centre/Club,http://one.pa.gov.sg/CRMSPortal/CRMSPortal.portal?_nfpb=true&_st=&_windowLabel=CRMSPortal_1&_urlType=render&_mode=view&wlpCRMSPortal_1_action=CMFPAOrgSelection&wlpCRMSPortal_1_ProgramType=1&_pageLabel=CRMSPortal_page_1,0.00000000000,0.00000000000,Zhenghua CC,http://one.pa.gov.sg/CRMSPortal/photos/Common/Photos_of_BU/BU_5990.jpg,,,36BC5A0C85700024,2013/06/12,21134.24450000000,40969.41660000000
103.90736697985757,1.403193687353206,23,602,,820602,Punggol Central,A,Community Centre/Club,http://one.pa.gov.sg/CRMSPortal/CRMSPortal.portal?_nfpb=true&_st=&_windowLabel=CRMSPortal_1&_urlType=render&_mode=view&wlpCRMSPortal_1_action=CMFPAOrgSelection&wlpCRMSPortal_1_ProgramType=1&_pageLabel=CRMSPortal_page_1,0.00000000000,0.00000000000,Punggol Vista CC,,1,2,4F1037EE3A1C0A95,2013/06/12,36240.57730000000,42783.67490000000
103.93570710119023,1.348738798861139,24,5,,529705,Tampines Avenue 3,A,Community Centre/Club,http://one.pa.gov.sg/CRMSPortal/CRMSPortal.portal?_nfpb=true&_st=&_windowLabel=CRMSPortal_1&_urlType=render&_mode=view&wlpCRMSPortal_1_action=CMFPAOrgSelection&wlpCRMSPortal_1_ProgramType=1&_pageLabel=CRMSPortal_page_1,0.00000000000,0.00000000000,Tampines West CC,http://one.pa.gov.sg/CRMSPortal/photos/Common/Photos_of_BU/BU_5630.jpg,,,98FA402F7AEC7B8B,2013/10/30,39394.70760000000,36762.43940000000
103.70457822871498,1.340750794861165,25,60,,648346,Jurong West Central 3,A,Community Centre/Club,http://one.pa.gov.sg/CRMSPortal/CRMSPortal.portal?_nfpb=true&_st=&_windowLabel=CRMSPortal_1&_urlType=render&_mode=view&wlpCRMSPortal_1_action=CMFPAOrgSelection&wlpCRMSPortal_1_ProgramType=1&_pageLabel=CRMSPortal_page_1,0.00000000000,0.00000000000,The Frontier CC,http://one.pa.gov.sg/CRMSPortal/photos/Common/Photos_of_BU/BU_5900.jpg,1,1,1EA9CA3033E6B92B,2013/10/30,13672.57500000000,35879.30380000000
103.8196299637773,1.444964630598507,26,2,,757632,Sembawang Crescent,A,Community Centre/Club,http://one.pa.gov.sg/CRMSPortal/CRMSPortal.portal?_nfpb=true&_st=&_windowLabel=CRMSPortal_1&_urlType=render&_mode=view&wlpCRMSPortal_1_action=CMFPAOrgSelection&wlpCRMSPortal_1_ProgramType=1&_pageLabel=CRMSPortal_page_1,0.00000000000,0.00000000000,Canberra CC,http://one.pa.gov.sg/CRMSPortal/photos/Common/Photos_of_BU/BU_4360.jpg,,,3F47A830BE2B02C7,2013/10/30,26476.67160000000,47402.36950000000
103.74948137927882,1.359039558485082,27,30,,659440,Bukit Batok Street 31,A,Community Centre/Club,http://one.pa.gov.sg/CRMSPortal/CRMSPortal.portal?_nfpb=true&_st=&_windowLabel=CRMSPortal_1&_urlType=render&_mode=view&wlpCRMSPortal_1_action=CMFPAOrgSelection&wlpCRMSPortal_1_ProgramType=1&_pageLabel=CRMSPortal_page_1,0.00000000000,0.00000000000,Hong Kah North CC,http://one.pa.gov.sg/CRMSPortal/photos/Common/Photos_of_BU/BU_4640.jpg,,,384F44DBB6722FF0,2013/06/12,18669.88990000000,37901.36720000000
103.89262223748848,1.364757440469754,28,35,,538840,Hougang Avenue 3,A,Community Centre/Club,http://one.pa.gov.sg/CRMSPortal/CRMSPortal.portal?_nfpb=true&_st=&_windowLabel=CRMSPortal_1&_urlType=render&_mode=view&wlpCRMSPortal_1_action=CMFPAOrgSelection&wlpCRMSPortal_1_ProgramType=1&_pageLabel=CRMSPortal_page_1,0.00000000000,0.00000000000,Hougang CC,http://one.pa.gov.sg/CRMSPortal/photos/Common/Photos_of_BU/BU_4670.jpg,,,5528801A0D916B17,2013/06/12,34599.79400000000,38533.54070000000
103.8738909768438,1.37360010302226,29,535,,550535,Serangoon North Avenue 4,A,Community Centre/Club,http://one.pa.gov.sg/CRMSPortal/CRMSPortal.portal?_nfpb=true&_st=&_windowLabel=CRMSPortal_1&_urlType=render&_mode=view&wlpCRMSPortal_1_action=CMFPAOrgSelection&wlpCRMSPortal_1_ProgramType=1&_pageLabel=CRMSPortal_page_1,0.00000000000,0.00000000000,Hwi Yoh CC,http://one.pa.gov.sg/CRMSPortal/photos/Common/Photos_of_BU/BU_4690.jpg,1,179,9C27C118C4D95FB0,2013/06/12,32515.20990000000,39511.27430000000
103.86173248174597,1.307782663896415,30,69,,208737,Jellicoe Road,A,Community Centre/Club,http://one.pa.gov.sg/CRMSPortal/CRMSPortal.portal?_nfpb=true&_st=&_windowLabel=CRMSPortal_1&_urlType=render&_mode=view&wlpCRMSPortal_1_action=CMFPAOrgSelection&wlpCRMSPortal_1_ProgramType=1&_pageLabel=CRMSPortal_page_1,0.00000000000,0.00000000000,Jalan Besar CC,http://one.pa.gov.sg/CRMSPortal/photos/Common/Photos_of_BU/BU_4700.jpg,,,9116C363A83B3560,2013/06/12,31162.20280000000,32233.49820000000
103.9042081463719,1.307410682983637,31,405,,427633,Joo Chiat Road,A,Community Centre/Club,http://one.pa.gov.sg/CRMSPortal/CRMSPortal.portal?_nfpb=true&_st=&_windowLabel=CRMSPortal_1&_urlType=render&_mode=view&wlpCRMSPortal_1_action=CMFPAOrgSelection&wlpCRMSPortal_1_ProgramType=1&_pageLabel=CRMSPortal_page_1,0.00000000000,0.00000000000,Joo Chiat CC,http://one.pa.gov.sg/CRMSPortal/photos/Common/Photos_of_BU/BU_4730.jpg,,,E47FF030A301A478,2013/06/12,35889.35190000000,32192.46000000000
103.725397681327,1.350547171457038,32,6,,649520,Jurong West Avenue 1,A,Community Centre/Club,http://one.pa.gov.sg/CRMSPortal/CRMSPortal.portal?_nfpb=true&_st=&_windowLabel=CRMSPortal_1&_urlType=render&_mode=view&wlpCRMSPortal_1_action=CMFPAOrgSelection&wlpCRMSPortal_1_ProgramType=1&_pageLabel=CRMSPortal_page_1,0.00000000000,0.00000000000,Jurong Green CC,http://one.pa.gov.sg/CRMSPortal/photos/1391770/P1140500.JPG,,,84A969BB1F8CA8C7,2013/06/12,15989.60850000000,36962.42710000000
103.71815044668735,1.348330168018728,33,8,,649296,Jurong West Street 52,A,Community Centre/Club,http://one.pa.gov.sg/CRMSPortal/CRMSPortal.portal?_nfpb=true&_st=&_windowLabel=CRMSPortal_1&_urlType=render&_mode=view&wlpCRMSPortal_1_action=CMFPAOrgSelection&wlpCRMSPortal_1_ProgramType=1&_pageLabel=CRMSPortal_page_1,0.00000000000,0.00000000000,Jurong Spring CC,http://one.pa.gov.sg/CRMSPortal/photos/Common/Photos_of_BU/BU_4650.jpg,,,45B0060F863839ED,2013/06/12,15183.05950000000,36717.31870000000
103.92693692884122,1.333344360590356,34,670,,469627,Bedok North Street 3,A,Community Centre/Club,http://one.pa.gov.sg/CRMSPortal/CRMSPortal.portal?_nfpb=true&_st=&_windowLabel=CRMSPortal_1&_urlType=render&_mode=view&wlpCRMSPortal_1_action=CMFPAOrgSelection&wlpCRMSPortal_1_ProgramType=1&_pageLabel=CRMSPortal_page_1,0.00000000000,0.00000000000,Kaki Bukit CC,http://one.pa.gov.sg/CRMSPortal/photos/Common/Photos_of_BU/BU_4790.jpg,,,B18543E29119009D,2013/06/12,38418.74880000000,35060.15960000000
103.92718200826945,1.327450720984078,35,200,,469752,Bedok North Avenue 1,A,Community Centre/Club,http://one.pa.gov.sg/CRMSPortal/CRMSPortal.portal?_nfpb=true&_st=&_windowLabel=CRMSPortal_1&_urlType=render&_mode=view&wlpCRMSPortal_1_action=CMFPAOrgSelection&wlpCRMSPortal_1_ProgramType=1&_pageLabel=CRMSPortal_page_1,0.00000000000,0.00000000000,Kampong Chai Chee CC,http://one.pa.gov.sg/CRMSPortal/photos/Common/Photos_of_BU/BU_4830.jpg,,,EB0DD854F43C87FA,2013/06/12,38446.04830000000,34408.47130000000
103.8635987755378,1.302782987755611,36,385,,199581,Beach Road,A,Community Centre/Club,http://one.pa.gov.sg/CRMSPortal/CRMSPortal.portal?_nfpb=true&_st=&_windowLabel=CRMSPortal_1&_urlType=render&_mode=view&wlpCRMSPortal_1_action=CMFPAOrgSelection&wlpCRMSPortal_1_ProgramType=1&_pageLabel=CRMSPortal_page_1,0.00000000000,0.00000000000,Kampong Glam CC,http://one.pa.gov.sg/CRMSPortal/photos/Common/Photos_of_BU/BU_4840.jpg,,,F94790C690AD1281,2013/06/12,31369.91060000000,31680.66220000000
103.91272654672834,1.323133678636686,37,5,,417408,Lengkong Tiga,A,Community Centre/Club,http://one.pa.gov.sg/CRMSPortal/CRMSPortal.portal?_nfpb=true&_st=&_windowLabel=CRMSPortal_1&_urlType=render&_mode=view&wlpCRMSPortal_1_action=CMFPAOrgSelection&wlpCRMSPortal_1_ProgramType=1&_pageLabel=CRMSPortal_page_1,0.00000000000,0.00000000000,Kampong Kembangan CC,http://one.pa.gov.sg/CRMSPortal/photos/Common/Photos_of_BU/BU_4850.jpg,,,46B0CC079C83BB0E,2013/06/12,36837.31620000000,33931.05810000000
103.90075429293643,1.317856773496389,38,10,,409075,Jalan Ubi,A,Community Centre/Club,http://one.pa.gov.sg/CRMSPortal/CRMSPortal.portal?_nfpb=true&_st=&_windowLabel=CRMSPortal_1&_urlType=render&_mode=view&wlpCRMSPortal_1_action=CMFPAOrgSelection&wlpCRMSPortal_1_ProgramType=1&_pageLabel=CRMSPortal_page_1,0.00000000000,0.00000000000,Kampong Ubi CC,http://one.pa.gov.sg/CRMSPortal/photos/Common/Photos_of_BU/BU_4870.jpg,,,567F1320A2E9972C,2013/06/12,35504.93860000000,33347.52520000000
103.83769412098452,1.373099523403887,39,216,,569897,Ang Mo Kio Avenue 4,A,Community Centre/Club,http://one.pa.gov.sg/CRMSPortal/CRMSPortal.portal?_nfpb=true&_st=&_windowLabel=CRMSPortal_1&_urlType=render&_mode=view&wlpCRMSPortal_1_action=CMFPAOrgSelection&wlpCRMSPortal_1_ProgramType=1&_pageLabel=CRMSPortal_page_1,0.00000000000,0.00000000000,Kebun Baru CC,http://one.pa.gov.sg/CRMSPortal/photos/Common/Photos_of_BU/BU_4900.jpg,,,D982A081ABA12B53,2013/06/12,28486.94410000000,39455.88490000000
103.87417421768806,1.369961705975028,40,10,,555877,Serangoon North Avenue 2,A,Community Centre/Club,http://one.pa.gov.sg/CRMSPortal/CRMSPortal.portal?_nfpb=true&_st=&_windowLabel=CRMSPortal_1&_urlType=render&_mode=view&wlpCRMSPortal_1_action=CMFPAOrgSelection&wlpCRMSPortal_1_ProgramType=1&_pageLabel=CRMSPortal_page_1,0.00000000000,0.00000000000,The Serangoon CC,http://one.pa.gov.sg/CRMSPortal/photos/Common/Photos_of_BU/BU_5490.jpg,,,FE03A14C93F72713,2013/10/30,32546.73790000000,39108.95940000000
103.8363365938996,1.351175220581198,41,194,,574339,Upper Thomson Road,A,Community Centre/Club,http://one.pa.gov.sg/CRMSPortal/CRMSPortal.portal?_nfpb=true&_st=&_windowLabel=CRMSPortal_1&_urlType=render&_mode=view&wlpCRMSPortal_1_action=CMFPAOrgSelection&wlpCRMSPortal_1_ProgramType=1&_pageLabel=CRMSPortal_page_1,0.00000000000,0.00000000000,Thomson CC,http://one.pa.gov.sg/CRMSPortal/photos/Common/Photos_of_BU/BU_5750.jpg,,,60AA8DB3F043260C,2013/10/30,28335.87110000000,37031.60710000000
103.82689093590002,1.32335524909997,42,245,,297829,Whitley Road,A,Community Centre/Club,http://one.pa.gov.sg/CRMSPortal/CRMSPortal.portal?_nfpb=true&_st=&_windowLabel=CRMSPortal_1&_urlType=render&_mode=view&wlpCRMSPortal_1_action=CMFPAOrgSelection&wlpCRMSPortal_1_ProgramType=1&_pageLabel=CRMSPortal_page_1,0.00000000000,0.00000000000,Tanglin CC,http://one.pa.gov.sg/CRMSPortal/photos/Common/Photos_of_BU/BU_5650.jpg,,,F2FB585CF20F6F3A,2013/06/12,27284.66760000000,33955.41770000000
103.84159633280235,1.276076683668815,43,101,,89774,Cantonment Road,A,Community Centre/Club,http://one.pa.gov.sg/CRMSPortal/CRMSPortal.portal?_nfpb=true&_st=&_windowLabel=CRMSPortal_1&_urlType=render&_mode=view&wlpCRMSPortal_1_action=CMFPAOrgSelection&wlpCRMSPortal_1_ProgramType=1&_pageLabel=CRMSPortal_page_1,0.00000000000,0.00000000000,Tanjong Pagar CC,http://one.pa.gov.sg/CRMSPortal/photos/Common/Photos_of_BU/BU_5670.jpg,,,BC8FB086EA0DD120,2013/06/12,28921.24830000000,28727.59820000000
103.85355509678904,1.363105435080671,44,861,,569734,Ang Mo Kio Avenue 10,A,Community Centre/Club,http://one.pa.gov.sg/CRMSPortal/CRMSPortal.portal?_nfpb=true&_st=&_windowLabel=CRMSPortal_1&_urlType=render&_mode=view&wlpCRMSPortal_1_action=CMFPAOrgSelection&wlpCRMSPortal_1_ProgramType=1&_pageLabel=CRMSPortal_page_1,0.00000000000,0.00000000000,Teck Ghee CC,http://one.pa.gov.sg/CRMSPortal/photos/Common/Photos_of_BU/BU_5690.jpg,,,3F095A1546705AF4,2013/06/12,30252.08560000000,38350.79850000000
103.84650783933752,1.285977671858412,45,20,Hong Lim Park,58284,Upper Pickering Street,A,Community Centre/Club,http://one.pa.gov.sg/CRMSPortal/CRMSPortal.portal?_nfpb=true&_st=&_windowLabel=CRMSPortal_1&_urlType=render&_mode=view&wlpCRMSPortal_1_action=CMFPAOrgSelection&wlpCRMSPortal_1_ProgramType=1&_pageLabel=CRMSPortal_page_1,0.00000000000,0.00000000000,Telok Ayer Hong Lim Green CC,http://one.pa.gov.sg/CRMSPortal/photos/1394620/CC_Day.JPG,,,822F62D2FEE6242D,2013/06/12,29467.85430000000,29822.40050000000
103.8078885795755,1.27484428097928,46,450,,108943,Telok Blangah Street 31,A,Community Centre/Club,http://one.pa.gov.sg/CRMSPortal/CRMSPortal.portal?_nfpb=true&_st=&_windowLabel=CRMSPortal_1&_urlType=render&_mode=view&wlpCRMSPortal_1_action=CMFPAOrgSelection&wlpCRMSPortal_1_ProgramType=1&_pageLabel=CRMSPortal_page_1,0.00000000000,0.00000000000,Telok Blangah CC,http://one.pa.gov.sg/CRMSPortal/photos/Common/Photos_of_BU/BU_5730.jpg,,,7E43533C9C3CC2D5,2013/06/12,25169.84130000000,28591.33790000000
103.78921117701509,1.312009414016169,47,170,Ulu Pandan Community Building,279621,Ghim Moh Road,A,Community Centre/Club,http://one.pa.gov.sg/CRMSPortal/CRMSPortal.portal?_nfpb=true&_st=&_windowLabel=CRMSPortal_1&_urlType=render&_mode=view&wlpCRMSPortal_1_action=CMFPAOrgSelection&wlpCRMSPortal_1_ProgramType=1&_pageLabel=CRMSPortal_page_1,0.00000000000,0.00000000000,Ulu Pandan CC,http://one.pa.gov.sg/CRMSPortal/photos/Common/Photos_of_BU/BU_5870.jpg,1,1,6990BC03D7D473AA,2013/10/30,23091.26460000000,32700.89590000000
103.87262029659188,1.315573131635437,48,1205,,387311,Upper Boon Keng Road,A,Community Centre/Club,http://one.pa.gov.sg/CRMSPortal/CRMSPortal.portal?_nfpb=true&_st=&_windowLabel=CRMSPortal_1&_urlType=render&_mode=view&wlpCRMSPortal_1_action=CMFPAOrgSelection&wlpCRMSPortal_1_ProgramType=1&_pageLabel=CRMSPortal_page_1,0.00000000000,0.00000000000,Geylang West CC,http://one.pa.gov.sg/CRMSPortal/photos/Common/Photos_of_BU/BU_4590.jpg,,,EF3C364834C5AE35,2013/10/30,32373.90190000000,33094.94470000000
103.82338821693335,1.285572434337633,49,500,,159682,Bukit Merah View,A,Community Centre/Club,http://one.pa.gov.sg/CRMSPortal/CRMSPortal.portal?_nfpb=true&_st=&_windowLabel=CRMSPortal_1&_urlType=render&_mode=view&wlpCRMSPortal_1_action=CMFPAOrgSelection&wlpCRMSPortal_1_ProgramType=1&_pageLabel=CRMSPortal_page_1,0.00000000000,0.00000000000,Henderson CC,http://one.pa.gov.sg/CRMSPortal/photos/Common/Photos_of_BU/BU_4610.jpg,,,95EA02454DFF44A6,2013/10/30,26894.83340000000,29777.58990000000
103.86236996701521,1.317817444485158,50,45,,339771,Boon Keng Road,A,Community Centre/Club,http://one.pa.gov.sg/CRMSPortal/CRMSPortal.portal?_nfpb=true&_st=&_windowLabel=CRMSPortal_1&_urlType=render&_mode=view&wlpCRMSPortal_1_action=CMFPAOrgSelection&wlpCRMSPortal_1_ProgramType=1&_pageLabel=CRMSPortal_page_1,0.00000000000,0.00000000000,Kallang CC,,,,FD43BA7B09115937,2013/10/30,31233.13610000000,33343.09360000000
103.83191361173323,1.283471662572922,51,67A,,169715,Eu Chin Street,A,Community Centre/Club,http://one.pa.gov.sg/CRMSPortal/CRMSPortal.portal?_nfpb=true&_st=&_windowLabel=CRMSPortal_1&_urlType=render&_mode=view&wlpCRMSPortal_1_action=CMFPAOrgSelection&wlpCRMSPortal_1_ProgramType=1&_pageLabel=CRMSPortal_page_1,0.00000000000,0.00000000000,Tiong Bahru CC,http://one.pa.gov.sg/CRMSPortal/photos/Common/Photos_of_BU/BU_5770.jpg,,,65CC2B0F42A1299D,2013/06/12,27843.63870000000,29545.29520000000
103.85044875421548,1.33469421399019,52,93,,319194,Toa Payoh Central,A,Community Centre/Club,http://one.pa.gov.sg/CRMSPortal/CRMSPortal.portal?_nfpb=true&_st=&_windowLabel=CRMSPortal_1&_urlType=render&_mode=view&wlpCRMSPortal_1_action=CMFPAOrgSelection&wlpCRMSPortal_1_ProgramType=1&_pageLabel=CRMSPortal_page_1,0.00000000000,0.00000000000,Toa Payoh Central CC,http://one.pa.gov.sg/CRMSPortal/photos/Common/Photos_of_BU/BU_5790.jpg,,,AACBB5291D891F67,2013/06/12,29906.40840000000,35209.22800000000
103.85470024902975,1.336274897490697,53,160,,319380,Lorong 6 Toa Payoh,A,Community Centre/Club,http://one.pa.gov.sg/CRMSPortal/CRMSPortal.portal?_nfpb=true&_st=&_windowLabel=CRMSPortal_1&_urlType=render&_mode=view&wlpCRMSPortal_1_action=CMFPAOrgSelection&wlpCRMSPortal_1_ProgramType=1&_pageLabel=CRMSPortal_page_1,0.00000000000,0.00000000000,Toa Payoh East CC,,,,D5AE33851337750D,2013/06/12,30379.55370000000,35384.01560000000
103.85940947011368,1.334847803515707,54,1999,,319258,Lorong 8 Toa Payoh,A,Community Centre/Club,http://one.pa.gov.sg/CRMSPortal/CRMSPortal.portal?_nfpb=true&_st=&_windowLabel=CRMSPortal_1&_urlType=render&_mode=view&wlpCRMSPortal_1_action=CMFPAOrgSelection&wlpCRMSPortal_1_ProgramType=1&_pageLabel=CRMSPortal_page_1,0.00000000000,0.00000000000,Toa Payoh South CC,http://one.pa.gov.sg/CRMSPortal/photos/Common/Photos_of_BU/BU_5830.jpg,,,3B86C9060E5A0707,2013/06/12,30903.64190000000,35226.22000000000
103.84498836792564,1.335403653179079,55,200,,319642,Lorong 2 Toa Payoh,A,Community Centre/Club,http://one.pa.gov.sg/CRMSPortal/CRMSPortal.portal?_nfpb=true&_st=&_windowLabel=CRMSPortal_1&_urlType=render&_mode=view&wlpCRMSPortal_1_action=CMFPAOrgSelection&wlpCRMSPortal_1_ProgramType=1&_pageLabel=CRMSPortal_page_1,0.00000000000,0.00000000000,Toa Payoh West CC,http://one.pa.gov.sg/CRMSPortal/photos/Common/Photos_of_BU/BU_5850.jpg,,,6D14BC61EF22AC22,2013/06/12,29298.72440000000,35287.67070000000
103.77499492452013,1.429419909369268,56,1,,738581,Woodlands Street 31,A,Community Centre/Club,http://one.pa.gov.sg/CRMSPortal/CRMSPortal.portal?_nfpb=true&_st=&_windowLabel=CRMSPortal_1&_urlType=render&_mode=view&wlpCRMSPortal_1_action=CMFPAOrgSelection&wlpCRMSPortal_1_ProgramType=1&_pageLabel=CRMSPortal_page_1,0.00000000000,0.00000000000,Fuchun CC,http://one.pa.gov.sg/CRMSPortal/photos/Common/Photos_of_BU/BU_4530.jpg,1,2,4C3950FAD8FB99A4,2013/10/30,21509.44630000000,45683.59020000000
103.88475072758645,1.300592991069637,57,51,,438178,Kampong Arang Road,A,Community Centre/Club,http://one.pa.gov.sg/CRMSPortal/CRMSPortal.portal?_nfpb=true&_st=&_windowLabel=CRMSPortal_1&_urlType=render&_mode=view&wlpCRMSPortal_1_action=CMFPAOrgSelection&wlpCRMSPortal_1_ProgramType=1&_pageLabel=CRMSPortal_page_1,0.00000000000,0.00000000000,Katong CC,http://one.pa.gov.sg/CRMSPortal/photos/Common/Photos_of_BU/BU_4890.jpg,,,3A56958942749D36,2013/10/30,33723.93620000000,31438.54160000000
103.7649842355284,1.3028052312465,58,2,,129605,Clementi West Street 2,A,Community Centre/Club,http://one.pa.gov.sg/CRMSPortal/CRMSPortal.portal?_nfpb=true&_st=&_windowLabel=CRMSPortal_1&_urlType=render&_mode=view&wlpCRMSPortal_1_action=CMFPAOrgSelection&wlpCRMSPortal_1_ProgramType=1&_pageLabel=CRMSPortal_page_1,0.00000000000,0.00000000000,West Coast CC,http://one.pa.gov.sg/CRMSPortal/photos/Common/Photos_of_BU/BU_5890.jpg,,,0560BC03C0CA0E0F,2013/06/12,20395.00710000000,31683.20470000000
103.90954527271597,1.304828599132246,59,278,,449282,Marine Parade Road,A,Community Centre/Club,http://one.pa.gov.sg/CRMSPortal/CRMSPortal.portal?_nfpb=true&_st=&_windowLabel=CRMSPortal_1&_urlType=render&_mode=view&wlpCRMSPortal_1_action=CMFPAOrgSelection&wlpCRMSPortal_1_ProgramType=1&_pageLabel=CRMSPortal_page_1,0.00000000000,0.00000000000,Marine Parade CC,http://one.pa.gov.sg/CRMSPortal/photos/Common/Photos_of_BU/BU_5020.jpg,,,657BF8F55EBE5A9D,2013/10/30,36483.33350000000,31906.96360000000
103.78823540301951,1.439730348567429,60,1,,738526,Woodlands Street 81,A,Community Centre/Club,http://one.pa.gov.sg/CRMSPortal/CRMSPortal.portal?_nfpb=true&_st=&_windowLabel=CRMSPortal_1&_urlType=render&_mode=view&wlpCRMSPortal_1_action=CMFPAOrgSelection&wlpCRMSPortal_1_ProgramType=1&_pageLabel=CRMSPortal_page_1,0.00000000000,0.00000000000,Woodlands CC,http://one.pa.gov.sg/CRMSPortal/photos/Common/Photos_of_BU/BU_5930.jpg,1,1,F33157EEFDB977E7,2013/06/12,22982.93700000000,46823.63390000000
103.95943751624418,1.368467661786633,61,1,,519457,Pasir Ris Drive 4,A,Community Centre/Club,http://one.pa.gov.sg/CRMSPortal/CRMSPortal.portal?_nfpb=true&_st=&_windowLabel=CRMSPortal_1&_urlType=render&_mode=view&wlpCRMSPortal_1_action=CMFPAOrgSelection&wlpCRMSPortal_1_ProgramType=1&_pageLabel=CRMSPortal_page_1,0.00000000000,0.00000000000,Pasir Ris East CC,http://one.pa.gov.sg/CRMSPortal/photos/Common/Photos_of_BU/BU_5190.jpg,1,8,B390260CF3E4C1A6,2013/10/30,42035.52970000000,38944.08560000000
103.84142811504969,1.381517276099532,62,50,,569163,Ang Mo Kio Street 61,A,Community Centre/Club,http://one.pa.gov.sg/CRMSPortal/CRMSPortal.portal?_nfpb=true&_st=&_windowLabel=CRMSPortal_1&_urlType=render&_mode=view&wlpCRMSPortal_1_action=CMFPAOrgSelection&wlpCRMSPortal_1_ProgramType=1&_pageLabel=CRMSPortal_page_1,0.00000000000,0.00000000000,Yio Chu Kang CC,http://one.pa.gov.sg/CRMSPortal/photos/Common/Photos_of_BU/BU_5970.jpg,,,C0B39357349B1E1C,2013/06/12,28902.48880000000,40386.67840000000
103.73711583252191,1.339958513370672,63,90,,609958,Boon Lay Way,A,Community Centre/Club,http://one.pa.gov.sg/CRMSPortal/CRMSPortal.portal?_nfpb=true&_st=&_windowLabel=CRMSPortal_1&_urlType=render&_mode=view&wlpCRMSPortal_1_action=CMFPAOrgSelection&wlpCRMSPortal_1_ProgramType=1&_pageLabel=CRMSPortal_page_1,0.00000000000,0.00000000000,Yuhua CC,http://one.pa.gov.sg/CRMSPortal/photos/Common/Photos_of_BU/BU_5980.jpg,,,C848AB129EC43FE0,2013/06/12,17293.66300000000,35791.53090000000
103.74751837052938,1.350206460719961,64,21,,659959,Bukit Batok Central,A,Community Centre/Club,http://one.pa.gov.sg/CRMSPortal/CRMSPortal.portal?_nfpb=true&_st=&_windowLabel=CRMSPortal_1&_urlType=render&_mode=view&wlpCRMSPortal_1_action=CMFPAOrgSelection&wlpCRMSPortal_1_ProgramType=1&_pageLabel=CRMSPortal_page_1,0.00000000000,0.00000000000,Bukit Batok CC,http://one.pa.gov.sg/CRMSPortal/photos/Common/Photos_of_BU/BU_4210.jpg,,,DA14529DB81FC83F,2013/06/12,18451.39510000000,36924.65480000000
103.84956997445929,1.371780453978203,65,6,,569205,Ang Mo Kio Street 53,A,Community Centre/Club,http://one.pa.gov.sg/CRMSPortal/CRMSPortal.portal?_nfpb=true&_st=&_windowLabel=CRMSPortal_1&_urlType=render&_mode=view&wlpCRMSPortal_1_action=CMFPAOrgSelection&wlpCRMSPortal_1_ProgramType=1&_pageLabel=CRMSPortal_page_1,0.00000000000,0.00000000000,Cheng San CC,http://one.pa.gov.sg/CRMSPortal/photos/Common/Photos_of_BU/BU_4410.jpg,,,B0CA76097FA1859C,2013/06/12,29808.58210000000,39310.03470000000
103.82929300293388,1.430949389838561,66,21,,768677,Yishun Ring Road,A,Community Centre/Club,http://one.pa.gov.sg/CRMSPortal/CRMSPortal.portal?_nfpb=true&_st=&_windowLabel=CRMSPortal_1&_urlType=render&_mode=view&wlpCRMSPortal_1_action=CMFPAOrgSelection&wlpCRMSPortal_1_ProgramType=1&_pageLabel=CRMSPortal_page_1,0.00000000000,0.00000000000,Chong Pang CC,http://one.pa.gov.sg/CRMSPortal/photos/Common/Photos_of_BU/BU_4420.jpg,,,D561274E75328EA0,2013/06/12,27552.01370000000,45852.63050000000
103.75190388019125,1.381155290934712,67,35,,688892,Teck Whye Avenue,A,Community Centre/Club,http://one.pa.gov.sg/CRMSPortal/CRMSPortal.portal?_nfpb=true&_st=&_windowLabel=CRMSPortal_1&_urlType=render&_mode=view&wlpCRMSPortal_1_action=CMFPAOrgSelection&wlpCRMSPortal_1_ProgramType=1&_pageLabel=CRMSPortal_page_1,0.00000000000,0.00000000000,Chua Chu Kang CC,http://one.pa.gov.sg/CRMSPortal/photos/Common/Photos_of_BU/BU_4430.jpg,,,32A4F9CA9407B41C,2013/06/12,18939.56960000000,40346.80560000000
103.86715167350046,1.332633815546093,68,6,,358361,Potong Pasir Avenue 2,A,Community Centre/Club,http://one.pa.gov.sg/CRMSPortal/CRMSPortal.portal?_nfpb=true&_st=&_windowLabel=CRMSPortal_1&_urlType=render&_mode=view&wlpCRMSPortal_1_action=CMFPAOrgSelection&wlpCRMSPortal_1_ProgramType=1&_pageLabel=CRMSPortal_page_1,0.00000000000,0.00000000000,Potong Pasir CC,http://one.pa.gov.sg/CRMSPortal/photos/Common/Photos_of_BU/BU_5310.jpg,,,245A3BDB9C3ACA2E,2013/10/30,31765.27120000000,34981.41890000000
103.76815368215213,1.318815194478857,69,220,,129880,Clementi Avenue 4,A,Community Centre/Club,http://one.pa.gov.sg/CRMSPortal/CRMSPortal.portal?_nfpb=true&_st=&_windowLabel=CRMSPortal_1&_urlType=render&_mode=view&wlpCRMSPortal_1_action=CMFPAOrgSelection&wlpCRMSPortal_1_ProgramType=1&_pageLabel=CRMSPortal_page_1,0.00000000000,0.00000000000,Clementi CC,http://one.pa.gov.sg/CRMSPortal/photos/Common/Photos_of_BU/BU_4450.jpg,,,B974837F4C39488E,2013/06/12,20747.78400000000,33453.49580000000
103.78327166222394,1.302529947376027,70,1,,130001,Dover Road,A,Community Centre/Club,http://one.pa.gov.sg/CRMSPortal/CRMSPortal.portal?_nfpb=true&_st=&_windowLabel=CRMSPortal_1&_urlType=render&_mode=view&wlpCRMSPortal_1_action=CMFPAOrgSelection&wlpCRMSPortal_1_ProgramType=1&_pageLabel=CRMSPortal_page_1,0.00000000000,0.00000000000,Dover CC,http://one.pa.gov.sg/CRMSPortal/photos/Common/Photos_of_BU/BU_4470.jpg,1,300,39C11BE12EE9A95E,2013/06/12,22430.23190000000,31652.71730000000
103.91525528284453,1.33264371695669,71,180,,479220,Bedok Reservoir Road,A,Community Centre/Club,http://one.pa.gov.sg/CRMSPortal/CRMSPortal.portal?_nfpb=true&_st=&_windowLabel=CRMSPortal_1&_urlType=render&_mode=view&wlpCRMSPortal_1_action=CMFPAOrgSelection&wlpCRMSPortal_1_ProgramType=1&_pageLabel=CRMSPortal_page_1,0.00000000000,0.00000000000,Eunos CC,http://one.pa.gov.sg/CRMSPortal/photos/Common/Photos_of_BU/BU_4490.jpg,,,6F9C53CF2759C1D1,2013/06/12,37118.70460000000,34982.63950000000
103.93664019086869,1.330859164678698,72,20,,469644,Bedok North Street 2,A,Community Centre/Club,http://one.pa.gov.sg/CRMSPortal/CRMSPortal.portal?_nfpb=true&_st=&_windowLabel=CRMSPortal_1&_urlType=render&_mode=view&wlpCRMSPortal_1_action=CMFPAOrgSelection&wlpCRMSPortal_1_ProgramType=1&_pageLabel=CRMSPortal_page_1,0.00000000000,0.00000000000,Fengshan CC,http://one.pa.gov.sg/CRMSPortal/photos/Common/Photos_of_BU/BU_4510.jpg,,,65E2DAE12EA69A10,2013/06/12,39498.63360000000,34785.40210000000
103.85136696124233,1.313051131409079,73,21,,219458,Gloucester Road,A,Community Centre/Club,http://one.pa.gov.sg/CRMSPortal/CRMSPortal.portal?_nfpb=true&_st=&_windowLabel=CRMSPortal_1&_urlType=render&_mode=view&wlpCRMSPortal_1_action=CMFPAOrgSelection&wlpCRMSPortal_1_ProgramType=1&_pageLabel=CRMSPortal_page_1,0.00000000000,0.00000000000,Pek Kio CC,https://one.pa.gov.sg/CRMSPortal/photos/1393643/NewpkCC.jpg,1,1,57F8DC6250945560,2013/10/30,30008.61270000000,32816.04770000000
103.75833461154278,1.348868679914574,74,23,,659841,Bukit Batok East Avenue 4,A,Community Centre/Club,http://one.pa.gov.sg/CRMSPortal/CRMSPortal.portal?_nfpb=true&_st=&_windowLabel=CRMSPortal_1&_urlType=render&_mode=view&wlpCRMSPortal_1_action=CMFPAOrgSelection&wlpCRMSPortal_1_ProgramType=1&_pageLabel=CRMSPortal_page_1,0.00000000000,0.00000000000,Bukit Batok East CC,http://one.pa.gov.sg/CRMSPortal/photos/Common/Photos_of_BU/BU_4220.jpg,,,5F1908F2820AE240,2013/06/12,19655.11800000000,36776.68990000000
103.7646595778802,1.38158679913244,75,101,Opposite Bukit Panjang Plaza,679910,Bukit Panjang Road,A,Community Centre/Club,http://one.pa.gov.sg/CRMSPortal/CRMSPortal.portal?_nfpb=true&_st=&_windowLabel=CRMSPortal_1&_urlType=render&_mode=view&wlpCRMSPortal_1_action=CMFPAOrgSelection&wlpCRMSPortal_1_ProgramType=1&_pageLabel=CRMSPortal_page_1,0.00000000000,0.00000000000,Senja-Cashew CC,,,,A453D059187BD0C3,2013/10/30,20359.12010000000,40394.47480000000
103.81582854042068,1.285254271348044,76,4000,,159465,Jalan Bukit Merah,A,Community Centre/Club,http://one.pa.gov.sg/CRMSPortal/CRMSPortal.portal?_nfpb=true&_st=&_windowLabel=CRMSPortal_1&_urlType=render&_mode=view&wlpCRMSPortal_1_action=CMFPAOrgSelection&wlpCRMSPortal_1_ProgramType=1&_pageLabel=CRMSPortal_page_1,0.00000000000,0.00000000000,Bukit Merah CC,http://one.pa.gov.sg/CRMSPortal/photos/Common/Photos_of_BU/BU_4270.jpg,,,99E0CC51F4FBDE04,2013/06/12,26053.50430000000,29742.41350000000
103.94333655550044,1.321631874401174,77,300,,469299,Bedok South Avenue 3,A,Community Centre/Club,http://one.pa.gov.sg/CRMSPortal/CRMSPortal.portal?_nfpb=true&_st=&_windowLabel=CRMSPortal_1&_urlType=render&_mode=view&wlpCRMSPortal_1_action=CMFPAOrgSelection&wlpCRMSPortal_1_ProgramType=1&_pageLabel=CRMSPortal_page_1,0.00000000000,0.00000000000,Siglap CC,http://one.pa.gov.sg/CRMSPortal/photos/Common/Photos_of_BU/BU_5530.jpg,,,05D000E990E0B869,2013/10/30,40243.91640000000,33765.12600000000
103.77177302775154,1.340418749494538,78,20,,596569,Toh Yi Drive,A,Community Centre/Club,http://one.pa.gov.sg/CRMSPortal/CRMSPortal.portal?_nfpb=true&_st=&_windowLabel=CRMSPortal_1&_urlType=render&_mode=view&wlpCRMSPortal_1_action=CMFPAOrgSelection&wlpCRMSPortal_1_ProgramType=1&_pageLabel=CRMSPortal_page_1,0.00000000000,0.00000000000,Bukit Timah CC,http://one.pa.gov.sg/CRMSPortal/photos/Common/Photos_of_BU/BU_4310.jpg,,,91DE2485F5780726,2013/06/12,21150.64140000000,35842.29730000000
103.79254748498302,1.309182111043804,79,36,,270036,Holland Drive,A,Community Centre/Club,http://one.pa.gov.sg/CRMSPortal/CRMSPortal.portal?_nfpb=true&_st=&_windowLabel=CRMSPortal_1&_urlType=render&_mode=view&wlpCRMSPortal_1_action=CMFPAOrgSelection&wlpCRMSPortal_1_ProgramType=1&_pageLabel=CRMSPortal_page_1,0.00000000000,0.00000000000,Buona Vista CC,http://one.pa.gov.sg/CRMSPortal/photos/Common/Photos_of_BU/BU_4330.jpg,1,1,C3E297F3D190FEC3,2013/06/12,23462.55900000000,32388.26090000000
103.9306902028014,1.313493613781883,80,6,,456441,Palm Road,A,Community Centre/Club,http://one.pa.gov.sg/CRMSPortal/CRMSPortal.portal?_nfpb=true&_st=&_windowLabel=CRMSPortal_1&_urlType=render&_mode=view&wlpCRMSPortal_1_action=CMFPAOrgSelection&wlpCRMSPortal_1_ProgramType=1&_pageLabel=CRMSPortal_page_1,0.00000000000,0.00000000000,Siglap South CC,http://one.pa.gov.sg/CRMSPortal/photos/Common/Photos_of_BU/BU_5550.jpg,,,AA89896496CC2170,2013/10/30,38836.53560000000,32865.17880000000
103.72172296328883,1.335277800522687,81,1,,618495,Yung Sheng Road,A,Community Centre/Club,http://one.pa.gov.sg/CRMSPortal/CRMSPortal.portal?_nfpb=true&_st=&_windowLabel=CRMSPortal_1&_urlType=render&_mode=view&wlpCRMSPortal_1_action=CMFPAOrgSelection&wlpCRMSPortal_1_ProgramType=1&_pageLabel=CRMSPortal_page_1,0.00000000000,0.00000000000,Taman Jurong CC,http://one.pa.gov.sg/CRMSPortal/photos/Common/Photos_of_BU/BU_4770.jpg,,,0B1019B9C1ABDA67,2013/10/30,15580.57570000000,35274.03330000000
103.80130510316761,1.299150232493349,82,365,,149732,Commonwealth Avenue,A,Community Centre/Club,http://one.pa.gov.sg/CRMSPortal/CRMSPortal.portal?_nfpb=true&_st=&_windowLabel=CRMSPortal_1&_urlType=render&_mode=view&wlpCRMSPortal_1_action=CMFPAOrgSelection&wlpCRMSPortal_1_ProgramType=1&_pageLabel=CRMSPortal_page_1,0.00000000000,0.00000000000,Queenstown CC,https://one.pa.gov.sg/CRMSPortal/photos/Common/Photos_of_BU/BU_4030.jpg,,,F2E25FCD29A31946,2013/10/30,24437.18580000000,31278.97320000000
103.88694810072487,1.310081695156197,83,35,,399479,Jalan Satu,A,Community Centre/Club,http://one.pa.gov.sg/CRMSPortal/CRMSPortal.portal?_nfpb=true&_st=&_windowLabel=CRMSPortal_1&_urlType=render&_mode=view&wlpCRMSPortal_1_action=CMFPAOrgSelection&wlpCRMSPortal_1_ProgramType=1&_pageLabel=CRMSPortal_page_1,0.00000000000,0.00000000000,Mountbatten CC,http://one.pa.gov.sg/CRMSPortal/photos/Common/Photos_of_BU/BU_5070.jpg,,,C21DA62BA9BE122E,2013/06/12,33968.46170000000,32487.75920000000
103.69132969183762,1.34301751854993,84,952,(Temporary office),640952,Jurong West Street 91,A,Community Centre/Club,http://one.pa.gov.sg/CRMSPortal/CRMSPortal.portal?_nfpb=true&_st=&_windowLabel=CRMSPortal_1&_urlType=render&_mode=view&wlpCRMSPortal_1_action=CMFPAOrgSelection&wlpCRMSPortal_1_ProgramType=1&_pageLabel=CRMSPortal_page_1,0.00000000000,0.00000000000,Nanyang CC,http://one.pa.gov.sg/CRMSPortal/photos/Common/Photos_of_BU/BU_5090.jpg,1,713,DE2347F219C24280,2013/06/12,12198.16610000000,36130.02880000000
103.83436026027545,1.428374344714266,85,749,,760749,Yishun Street 72,A,Community Centre/Club,http://one.pa.gov.sg/CRMSPortal/CRMSPortal.portal?_nfpb=true&_st=&_windowLabel=CRMSPortal_1&_urlType=render&_mode=view&wlpCRMSPortal_1_action=CMFPAOrgSelection&wlpCRMSPortal_1_ProgramType=1&_pageLabel=CRMSPortal_page_1,0.00000000000,0.00000000000,Nee Soon Central CC,http://one.pa.gov.sg/CRMSPortal/photos/Common/Photos_of_BU/BU_5110.jpg,1,138,51D6A608F1510AC0,2013/06/12,28115.92370000000,45567.89460000000
103.83859761100594,1.43087914088187,86,1,,768893,Yishun Avenue 9,A,Community Centre/Club,http://one.pa.gov.sg/CRMSPortal/CRMSPortal.portal?_nfpb=true&_st=&_windowLabel=CRMSPortal_1&_urlType=render&_mode=view&wlpCRMSPortal_1_action=CMFPAOrgSelection&wlpCRMSPortal_1_ProgramType=1&_pageLabel=CRMSPortal_page_1,0.00000000000,0.00000000000,Nee Soon East CC,http://one.pa.gov.sg/CRMSPortal/photos/Common/Photos_of_BU/BU_5130.jpg,,,AAE359519FD28229,2013/06/12,28587.47710000000,45844.86290000000
103.83487980863579,1.414973677500262,87,30,,768455,Yishun Street 81,A,Community Centre/Club,http://one.pa.gov.sg/CRMSPortal/CRMSPortal.portal?_nfpb=true&_st=&_windowLabel=CRMSPortal_1&_urlType=render&_mode=view&wlpCRMSPortal_1_action=CMFPAOrgSelection&wlpCRMSPortal_1_ProgramType=1&_pageLabel=CRMSPortal_page_1,0.00000000000,0.00000000000,Nee Soon South CC,http://one.pa.gov.sg/CRMSPortal/photos/Common/Photos_of_BU/BU_5150.jpg,,,F60F2F19CA90848C,2013/06/12,28173.74270000000,44086.11630000000
103.94268456327099,1.378232283578583,88,93,,519498,Pasir Ris Drive 3,A,Community Centre/Club,http://one.pa.gov.sg/CRMSPortal/CRMSPortal.portal?_nfpb=true&_st=&_windowLabel=CRMSPortal_1&_urlType=render&_mode=view&wlpCRMSPortal_1_action=CMFPAOrgSelection&wlpCRMSPortal_1_ProgramType=1&_pageLabel=CRMSPortal_page_1,0.00000000000,0.00000000000,Pasir Ris Elias CC,http://one.pa.gov.sg/CRMSPortal/photos/1393491/IMG_5283.JPG,,,30C33D9EA0D3697B,2013/06/12,40171.07450000000,40023.71830000000
103.8863135315445,1.357598305260888,89,207,,530207,Hougang Street 21,A,Community Centre/Club,http://one.pa.gov.sg/CRMSPortal/CRMSPortal.portal?_nfpb=true&_st=&_windowLabel=CRMSPortal_1&_urlType=render&_mode=view&wlpCRMSPortal_1_action=CMFPAOrgSelection&wlpCRMSPortal_1_ProgramType=1&_pageLabel=CRMSPortal_page_1,0.00000000000,0.00000000000,Paya Lebar Kovan CC,http://one.pa.gov.sg/CRMSPortal/photos/Common/Photos_of_BU/BU_5270.jpg,,,686662C6A191AC67,2013/06/12,33897.72700000000,37741.90340000000
103.90177502317725,1.393628323613834,90,193,,540193,Rivervale Drive,A,Community Centre/Club,http://one.pa.gov.sg/CRMSPortal/CRMSPortal.portal?_nfpb=true&_st=&_windowLabel=CRMSPortal_1&_urlType=render&_mode=view&wlpCRMSPortal_1_action=CMFPAOrgSelection&wlpCRMSPortal_1_ProgramType=1&_pageLabel=CRMSPortal_page_1,0.00000000000,0.00000000000,Rivervale CC,http://one.pa.gov.sg/CRMSPortal/photos/Common/Photos_of_BU/BU_5440.jpg,1,787,32115F0FBC88E914,2013/06/12,35618.29930000000,41725.96570000000
103.82881414639373,1.45170784919329,91,2125,,758528,Sembawang Road,A,Community Centre/Club,http://one.pa.gov.sg/CRMSPortal/CRMSPortal.portal?_nfpb=true&_st=&_windowLabel=CRMSPortal_1&_urlType=render&_mode=view&wlpCRMSPortal_1_action=CMFPAOrgSelection&wlpCRMSPortal_1_ProgramType=1&_pageLabel=CRMSPortal_page_1,0.00000000000,0.00000000000,Sembawang CC,http://one.pa.gov.sg/CRMSPortal/photos/Common/Photos_of_BU/BU_5470.jpg,,,F39DFCFF9BBB7D63,2013/06/12,27498.72870000000,48147.99670000000
103.89432805304578,1.392691742674559,92,2,Sengkang Community Hub,545025,Sengkang Square,A,Community Centre/Club,http://one.pa.gov.sg/CRMSPortal/CRMSPortal.portal?_nfpb=true&_st=&_windowLabel=CRMSPortal_1&_urlType=render&_mode=view&wlpCRMSPortal_1_action=CMFPAOrgSelection&wlpCRMSPortal_1_ProgramType=1&_pageLabel=CRMSPortal_page_1,0.00000000000,0.00000000000,Sengkang CC,http://one.pa.gov.sg/CRMSPortal/photos/Common/Photos_of_BU/BU_4460.jpg,1,1,D27AD5AA60213A7F,2013/06/12,34789.55210000000,41622.38050000000
103.80261098338468,1.439041615039522,93,31,,738991,Woodlands Avenue 6,A,Community Centre/Club,http://one.pa.gov.sg/CRMSPortal/CRMSPortal.portal?_nfpb=true&_st=&_windowLabel=CRMSPortal_1&_urlType=render&_mode=view&wlpCRMSPortal_1_action=CMFPAOrgSelection&wlpCRMSPortal_1_ProgramType=1&_pageLabel=CRMSPortal_page_1,0.00000000000,0.00000000000,Woodlands Galaxy CC,,,,AF2BCFBE66DF1921,2013/06/12,24582.71690000000,46747.45060000000
103.88944637883509,1.354626980735169,94,110,,530110,Hougang Avenue 1,A,Community Centre/Club,http://one.pa.gov.sg/CRMSPortal/CRMSPortal.portal?_nfpb=true&_st=&_windowLabel=CRMSPortal_1&_urlType=render&_mode=view&wlpCRMSPortal_1_action=CMFPAOrgSelection&wlpCRMSPortal_1_ProgramType=1&_pageLabel=CRMSPortal_page_1,0.00000000000,0.00000000000,Aljunied CC,http://one.pa.gov.sg/CRMSPortal/photos/Common/Photos_of_BU/BU_4050.jpg,1,1048,4EEE8B0188A6D20F,2013/06/12,34246.38460000000,37413.35720000000
103.8866958283063,1.397040172063266,95,59,,544965,Anchorvale Road,A,Community Centre/Club,http://one.pa.gov.sg/CRMSPortal/CRMSPortal.portal?_nfpb=true&_st=&_windowLabel=CRMSPortal_1&_urlType=render&_mode=view&wlpCRMSPortal_1_action=CMFPAOrgSelection&wlpCRMSPortal_1_ProgramType=1&_pageLabel=CRMSPortal_page_1,0.00000000000,0.00000000000,Anchorvale CC,http://one.pa.gov.sg/CRMSPortal/photos/Common/Photos_of_BU/BU_4060.jpg,,,714A56B368B64069,2013/06/12,33940.17470000000,42103.18740000000
103.81975312199211,1.275931022019355,96,1,,98915,Telok Blangah Crescent,A,Community Centre/Club,http://one.pa.gov.sg/CRMSPortal/CRMSPortal.portal?_nfpb=true&_st=&_windowLabel=CRMSPortal_1&_urlType=render&_mode=view&wlpCRMSPortal_1_action=CMFPAOrgSelection&wlpCRMSPortal_1_ProgramType=1&_pageLabel=CRMSPortal_page_1,0.00000000000,0.00000000000,Radin Mas CC,http://one.pa.gov.sg/CRMSPortal/photos/Common/Photos_of_BU/BU_5430.jpg,,,F4CE7C4D691D7FF8,2013/06/12,26490.27200000000,28711.49420000000
103.95462390804154,1.353293060978962,97,10,,529341,Tampines Street 23,A,Community Centre/Club,http://one.pa.gov.sg/CRMSPortal/CRMSPortal.portal?_nfpb=true&_st=&_windowLabel=CRMSPortal_1&_urlType=render&_mode=view&wlpCRMSPortal_1_action=CMFPAOrgSelection&wlpCRMSPortal_1_ProgramType=1&_pageLabel=CRMSPortal_page_1,0.00000000000,0.00000000000,Tampines East CC,http://one.pa.gov.sg/CRMSPortal/photos/Common/Photos_of_BU/BU_5610.jpg,,,BB0E136F3FA3A23F,2013/10/30,41499.91620000000,37266.12420000000
103.85073881765402,1.349582424792807,98,51,,579799,Bishan Street 13,A,Community Centre/Club,http://one.pa.gov.sg/CRMSPortal/CRMSPortal.portal?_nfpb=true&_st=&_windowLabel=CRMSPortal_1&_urlType=render&_mode=view&wlpCRMSPortal_1_action=CMFPAOrgSelection&wlpCRMSPortal_1_ProgramType=1&_pageLabel=CRMSPortal_page_1,0.00000000000,0.00000000000,Bishan CC,http://one.pa.gov.sg/CRMSPortal/photos/Common/Photos_of_BU/BU_4130.jpg,,,6BDAFBCFA46E5A66,2013/06/12,29938.67770000000,36855.49050000000
103.84562949901084,1.358587853559495,99,233,,570233,Bishan Street 22,A,Community Centre/Club,http://one.pa.gov.sg/CRMSPortal/CRMSPortal.portal?_nfpb=true&_st=&_windowLabel=CRMSPortal_1&_urlType=render&_mode=view&wlpCRMSPortal_1_action=CMFPAOrgSelection&wlpCRMSPortal_1_ProgramType=1&_pageLabel=CRMSPortal_page_1,0.00000000000,0.00000000000,Bishan North CC,http://one.pa.gov.sg/CRMSPortal/photos/Common/Photos_of_BU/BU_4150.jpg,1,126,0789350C20004BAF,2013/06/12,29370.06260000000,37851.26140000000
103.79225179349606,1.427344175720346,100,120,,739069,Woodlands Avenue 1,A,Community Centre/Club,http://one.pa.gov.sg/CRMSPortal/CRMSPortal.portal?_nfpb=true&_st=&_windowLabel=CRMSPortal_1&_urlType=render&_mode=view&wlpCRMSPortal_1_action=CMFPAOrgSelection&wlpCRMSPortal_1_ProgramType=1&_pageLabel=CRMSPortal_page_1,0.00000000000,0.00000000000,ACE The Place CC,https://one.pa.gov.sg/CRMSPortal/photos/1389675/new/newcclowres.jpg,,,EC025A924E304C59,2013/10/30,23429.87500000000,45454.02440000000
103.93604782891927,1.324246606566328,101,850,,467352,New Upper Changi Road,A,Community Centre/Club,http://one.pa.gov.sg/CRMSPortal/CRMSPortal.portal?_nfpb=true&_st=&_windowLabel=CRMSPortal_1&_urlType=render&_mode=view&wlpCRMSPortal_1_action=CMFPAOrgSelection&wlpCRMSPortal_1_ProgramType=1&_pageLabel=CRMSPortal_page_1,0.00000000000,0.00000000000,Bedok CC,https://one.pa.gov.sg/CRMSPortal/photos/1390013/Bedok_Community_Centre.jpg,,,8C719ADEBCD787FE,2013/10/30,39432.74010000000,34054.21530000000
103.8406847683319,1.366862204230235,102,795,,569976,Ang Mo Kio Avenue 1,A,Community Centre/Club,http://one.pa.gov.sg/CRMSPortal/CRMSPortal.portal?_nfpb=true&_st=&_windowLabel=CRMSPortal_1&_urlType=render&_mode=view&wlpCRMSPortal_1_action=CMFPAOrgSelection&wlpCRMSPortal_1_ProgramType=1&_pageLabel=CRMSPortal_page_1,0.00000000000,0.00000000000,Ang Mo Kio CC,http://one.pa.gov.sg/CRMSPortal/photos/Common/Photos_of_BU/BU_4070.jpg,,,F38B0A8A02FD8DC4,2013/06/12,28819.76860000000,38766.19480000000
103.74748483122124,1.320827433640738,103,150,,609335,Pandan Gardens,A,Community Centre/Club,http://one.pa.gov.sg/CRMSPortal/CRMSPortal.portal?_nfpb=true&_st=&_windowLabel=CRMSPortal_1&_urlType=render&_mode=view&wlpCRMSPortal_1_action=CMFPAOrgSelection&wlpCRMSPortal_1_ProgramType=1&_pageLabel=CRMSPortal_page_1,0.00000000000,0.00000000000,Ayer Rajah CC,http://one.pa.gov.sg/CRMSPortal/photos/Common/Photos_of_BU/BU_4090.jpg,,,6056C19DFDF6EFCA,2013/06/12,18447.54910000000,33676.06900000000
103.93459686743536,1.3553443039138,104,866A,,521866,Tampines Street 83,A,Community Centre/Club,http://one.pa.gov.sg/CRMSPortal/CRMSPortal.portal?_nfpb=true&_st=&_windowLabel=CRMSPortal_1&_urlType=render&_mode=view&wlpCRMSPortal_1_action=CMFPAOrgSelection&wlpCRMSPortal_1_ProgramType=1&_pageLabel=CRMSPortal_page_1,0.00000000000,0.00000000000,Tampines Central CC,http://one.pa.gov.sg/CRMSPortal/photos/Common/Photos_of_BU/BU_5590.jpg,2,1,0E789D2161D18673,2013/10/30,39271.12020000000,37492.83840000000
103.85694350002545,1.32466831252245,105,300,,327737,Whampoa Drive,A,Community Centre/Club,http://one.pa.gov.sg/CRMSPortal/CRMSPortal.portal?_nfpb=true&_st=&_windowLabel=CRMSPortal_1&_urlType=render&_mode=view&wlpCRMSPortal_1_action=CMFPAOrgSelection&wlpCRMSPortal_1_ProgramType=1&_pageLabel=CRMSPortal_page_1,0.00000000000,0.00000000000,Whampoa CC,http://one.pa.gov.sg/CRMSPortal/photos/Common/Photos_of_BU/BU_5910.jpg,,,29CB8FF0917251E3,2013/10/30,30629.21600000000,34100.62120000000
103.74497129509683,1.394805646201118,106,20,Yew Tee Community Building,689286,Choa Chu Kang Street 52,A,Community Centre/Club,http://one.pa.gov.sg/CRMSPortal/CRMSPortal.portal?_nfpb=true&_st=&_windowLabel=CRMSPortal_1&_urlType=render&_mode=view&wlpCRMSPortal_1_action=CMFPAOrgSelection&wlpCRMSPortal_1_ProgramType=1&_pageLabel=CRMSPortal_page_1,0.00000000000,0.00000000000,Yew Tee CC,http://one.pa.gov.sg/CRMSPortal/photos/Common/Photos_of_BU/BU_5950.jpg,1,1,D0D88142E09B6D05,2013/10/30,18168.11600000000,41856.22190000000
103.78516279278755,1.431815233976315,107,353,,730353,Woodlands Ave 1,A,Community Centre/Club,http://one.pa.gov.sg/CRMSPortal/CRMSPortal.portal?_nfpb=true&_st=&_windowLabel=CRMSPortal_1&_urlType=render&_mode=view&wlpCRMSPortal_1_action=CMFPAOrgSelection&wlpCRMSPortal_1_ProgramType=1&_pageLabel=CRMSPortal_page_2,0.00000000000,0.00000000000,Woodgrove CC,,1,753,34391FDE425C9348,2013/10/30,22640.98440000000,45948.42710000000
