longitude,latitude,OBJECTID,ADDRESSBLO,ADDRESSBUI,ADDRESSFLO,ADDRESSPOS,ADDRESSSTR,ADDRESSTYP,ADDRESSUNI,DESCRIPTIO,HYPERLINK,LANDXADDRE,LANDYADDRE,NAME,PHOTOURL,INC_CRC,FMEL_UPD_D,X_ADDR,Y_ADDR
103.89140764907096,1.355986522409616,1,2,Bethesda Ground,,538728,Hougang Street 22,,,MOE-registered Kindergarten,http://preschool.gov.sg/klink/klink/pview/kgt/kgtChildCareView.action?usraction=view&schoolCategory=FAQCAT-002&viewId=1114,0.00000000000,0.00000000000,Living Sanctuary Kindergarten,,837DC576CE275E85,2012/08/26,34464.64810000000,37563.69360000000
103.76051715296239,1.344621403279587,2,289G,,1,650289,Bukit Batok Street 25,A,94,MOE-registered Kindergarten,http://preschool.gov.sg/klink/klink/pview/kgt/kgtChildCareView.action?usraction=view&schoolCategory=FAQCAT-002&viewId=656,0.00000000000,0.00000000000,PCF Bukit Batok East Blk 289G,,64FA2EA6960ACBAD,2012/09/06,19897.99680000000,36307.04010000000
103.77236935020603,1.375244426849251,3,226,,1,670226,Pending Road,A,179,MOE-registered Kindergarten,http://preschool.gov.sg/klink/klink/pview/kgt/kgtChildCareView.action?usraction=view&schoolCategory=FAQCAT-002&viewId=661,0.00000000000,0.00000000000,PCF Bukit Panjang Blk 226,,72F5F9E0522C9A12,2012/09/06,21217.10290000000,39693.14370000000
103.95354845640233,1.36111329100573,4,476,,1,520476,Tampines Street 44,A,179,MOE-registered Kindergarten,http://preschool.gov.sg/klink/klink/pview/kgt/kgtChildCareView.action?usraction=view&schoolCategory=FAQCAT-002&viewId=1117,0.00000000000,0.00000000000,Mahad Al - Nasry Kindergarten,,D27A726F8AA47859,2012/08/26,41380.18750000000,38130.84140000000
103.90112284921244,1.391711761251381,5,415,,,546646,Punggol Road,,,MOE-registered Kindergarten,http://preschool.gov.sg/klink/klink/pview/kgt/kgtChildCareView.action?usraction=view&schoolCategory=FAQCAT-002&viewId=1118,0.00000000000,0.00000000000,Mahad Al-Nasry @ Sengkang Kindergarten,,D39B432F0947CC1F,2012/08/26,35545.72700000000,41514.03970000000
103.96010393345796,1.354358870082084,6,9,,2,529287,Tampines Street 32,A,1,MOE-registered Kindergarten,http://preschool.gov.sg/klink/klink/pview/kgt/kgtChildCareView.action?usraction=view&schoolCategory=FAQCAT-002&viewId=943,0.00000000000,0.00000000000,Al - Amin Pre-School,,20C5F51D516862CD,2012/08/26,42109.77620000000,37384.00750000000
103.76481119230927,1.317407673161345,7,319,,1,120319,Clementi Avenue 4,A,55,MOE-registered Kindergarten,http://preschool.gov.sg/klink/klink/pview/kgt/kgtChildCareView.action?usraction=view&schoolCategory=FAQCAT-002&viewId=669,0.00000000000,0.00000000000,PCF Bukit Timah Blk 319,,55287C1DA154D7CD,2012/09/06,20375.79310000000,33297.86930000000
103.81783228836436,1.451720776083371,8,413,,1,750413,Sembawang Drive,A,712,MOE-registered Kindergarten,http://preschool.gov.sg/klink/klink/pview/kgt/kgtChildCareView.action?usraction=view&schoolCategory=FAQCAT-002&viewId=689,0.00000000000,0.00000000000,PCF Canberra Blk 413,,4FB24734374F0C84,2012/09/06,26276.62370000000,48149.43160000000
103.87564329304833,1.36920952889092,9,2,,,555876,Serangoon North Avenue 2,,,MOE-registered Kindergarten,http://preschool.gov.sg/klink/klink/pview/kgt/kgtChildCareView.action?usraction=view&schoolCategory=FAQCAT-002&viewId=948,0.00000000000,0.00000000000,Al - Istiqamah Mosque Kindergarten,,E75EAD6D6ED8FD2C,2012/08/26,32710.22980000000,39025.79030000000
103.74145712901529,1.339210514854424,10,271,,,609603,Jurong East Street 21,,,MOE-registered Kindergarten,http://preschool.gov.sg/klink/klink/pview/kgt/kgtChildCareView.action?usraction=view&schoolCategory=FAQCAT-002&viewId=950,0.00000000000,0.00000000000,Al - Mukminin Mosque Kindergarten,,FFB1F33BD8D00E61,2012/08/26,17776.80030000000,35708.80250000000
103.83191361173323,1.283471662572922,11,67A,Tiong Bahru Community Centre Level 2,,169715,Eu Chin Street,,,MOE-registered Kindergarten,http://preschool.gov.sg/klink/klink/pview/kgt/kgtChildCareView.action?usraction=view&schoolCategory=FAQCAT-002&viewId=958,0.00000000000,0.00000000000,Artskidz Preschool,,65CC2B0F110B3FDD,2012/08/26,27843.63870000000,29545.29530000000
103.83175097951208,1.359084506268852,12,441,,1,570441,Sin Ming Avenue,A,417,MOE-registered Kindergarten,http://preschool.gov.sg/klink/klink/pview/kgt/kgtChildCareView.action?usraction=view&schoolCategory=FAQCAT-002&viewId=894,0.00000000000,0.00000000000,PCF Bishan North Blk 441,,745F5A7632ED3002,2012/09/10,27825.54440000000,37906.17540000000
103.82042736432156,1.445940490730436,13,317,,1,750317,Sembawang Vista,A,211,MOE-registered Kindergarten,http://preschool.gov.sg/klink/klink/pview/kgt/kgtChildCareView.action?usraction=view&schoolCategory=FAQCAT-002&viewId=687,0.00000000000,0.00000000000,PCF Chong Pang Blk 317-315,,BE10581A3A830B99,2012/09/06,26565.41050000000,47510.27480000000
103.88186343944098,1.344257396361996,14,301,,,534934,Upper Paya Lebar Road,,,MOE-registered Kindergarten,http://preschool.gov.sg/klink/klink/pview/kgt/kgtChildCareView.action?usraction=view&schoolCategory=FAQCAT-002&viewId=964,0.00000000000,0.00000000000,Bethany Kindergarten,,B921289BE766D29E,2012/08/26,33402.51250000000,36266.72290000000
103.93892377361627,1.328168583694147,15,126,,1,460126,Bedok North Street 2,A,88,MOE-registered Kindergarten,http://preschool.gov.sg/klink/klink/pview/kgt/kgtChildCareView.action?usraction=view&schoolCategory=FAQCAT-002&viewId=704,0.00000000000,0.00000000000,PCF Fengshan Blk 126,,809A5C7430AE5445,2012/09/06,39752.78590000000,34487.90170000000
103.74656096253314,1.360103935533352,16,315,,1,650315,Bukit Batok Street 32,A,111,MOE-registered Kindergarten,http://preschool.gov.sg/klink/klink/pview/kgt/kgtChildCareView.action?usraction=view&schoolCategory=FAQCAT-002&viewId=710,0.00000000000,0.00000000000,PCF Hong Kah North Blk 315-319,,86B8C49256B4E44C,2012/09/06,18344.88540000000,38019.07220000000
103.96444423823425,1.367946985642137,17,11,,,518458,Pasir Ris Drive 2,,,MOE-registered Kindergarten,http://preschool.gov.sg/klink/klink/pview/kgt/kgtChildCareView.action?usraction=view&schoolCategory=FAQCAT-002&viewId=971,0.00000000000,0.00000000000,Bethesda (Pasir Ris) Kindergarten,,2BFF0E07A816F6F5,2012/08/26,42592.72220000000,38886.54170000000
103.89653451172428,1.368748250458747,18,328,,1,530328,Hougang Avenue 5,A,196,MOE-registered Kindergarten,http://preschool.gov.sg/klink/klink/pview/kgt/kgtChildCareView.action?usraction=view&schoolCategory=FAQCAT-002&viewId=714,0.00000000000,0.00000000000,PCF Hougang Blk 328-708,,E7315095C3842C1E,2012/09/06,35035.17240000000,38974.83560000000
103.81072126369655,1.323210284548604,19,559,,B1,269695,Bukit Timah Road,,1,MOE-registered Kindergarten,http://preschool.gov.sg/klink/klink/pview/kgt/kgtChildCareView.action?usraction=view&schoolCategory=FAQCAT-002&viewId=2025,0.00000000000,0.00000000000,Bibinogs Preschool (King's Arcade),,C19E2FD8F2BA9AD3,2012/08/26,25485.14460000000,33939.39890000000
103.93293890715645,1.328109062532502,20,409,,1,460409,Bedok North Avenue 2,A,26,MOE-registered Kindergarten,http://preschool.gov.sg/klink/klink/pview/kgt/kgtChildCareView.action?usraction=view&schoolCategory=FAQCAT-002&viewId=736,0.00000000000,0.00000000000,PCF Kampong Chai Chee Blk 409,,2BE7771723F4C7D5,2012/09/06,39086.73060000000,34481.29250000000
103.76754396793868,1.360872963007526,21,488,,,678091,Upper Bukit Timah Road,,,MOE-registered Kindergarten,http://preschool.gov.sg/klink/klink/pview/kgt/kgtChildCareView.action?usraction=view&schoolCategory=FAQCAT-002&viewId=976,0.00000000000,0.00000000000,Bukit Panjang Methodist Church Kindergarten,,72325E25CCC247FE,2012/08/26,20680.05360000000,38104.03360000000
103.7711430424998,1.291557247928065,22,396,,1,118733,Pasir Panjang Road,,2,MOE-registered Kindergarten,http://preschool.gov.sg/klink/klink/pview/kgt/kgtChildCareView.action?usraction=view&schoolCategory=FAQCAT-002&viewId=1252,0.00000000000,0.00000000000,Buttercups Kindergarten (Pasir Panjang),,73018CE5C238AA1B,2012/08/26,21080.39620000000,30439.44220000000
103.85525340136221,1.302401488883216,23,2,,4,180002,Rochor Road,A,582,MOE-registered Kindergarten,http://preschool.gov.sg/klink/klink/pview/kgt/kgtChildCareView.action?usraction=view&schoolCategory=FAQCAT-002&viewId=737,0.00000000000,0.00000000000,PCF Kampong Glam Blk 2,,DD92C2115B37E7B0,2012/09/06,30441.14670000000,31638.46840000000
103.88556357057077,1.329661502469434,24,31,,1,370031,Balam Road,A,103,MOE-registered Kindergarten,http://preschool.gov.sg/klink/klink/pview/kgt/kgtChildCareView.action?usraction=view&schoolCategory=FAQCAT-002&viewId=707,0.00000000000,0.00000000000,PCF MacPherson Blk 31,,34098916C5FEF6E1,2012/09/06,33814.33110000000,34652.79150000000
103.74670746649392,1.377307634914051,25,172,,,689457,Choa Chu Kang Avenue 1,,,MOE-registered Kindergarten,http://preschool.gov.sg/klink/klink/pview/kgt/kgtChildCareView.action?usraction=view&schoolCategory=FAQCAT-002&viewId=998,0.00000000000,0.00000000000,CGM Kindergarten,,A8AB1234BBF4A933,2012/08/26,18361.25830000000,39921.37130000000
103.91291182305504,1.319639163122634,26,8B,Kingston Terrace,1,418929,Jalan Masjid,,3,MOE-registered kindergarten,http://preschool.gov.sg/klink/klink/pview/kgt/kgtChildCareView.action?usraction=view&schoolCategory=FAQCAT-002&viewId=1490,0.00000000000,0.00000000000,Charis Montessori Preschool,,4C64255CA3D486D3,2012/08/26,36857.94800000000,33544.65280000000
103.79835908107894,1.331676421062918,27,3,,,287775,Vanda Road,A,,MOE-registered Kindergarten,http://preschool.gov.sg/klink/klink/pview/kgt/kgtChildCareView.action?usraction=view&schoolCategory=FAQCAT-002&viewId=993,0.00000000000,0.00000000000,Cherrybrook Kindergarten,,68A1A4C7C099EFC2,2012/08/26,24109.37030000000,34875.55700000000
103.89494613121332,1.395559948135611,28,262A,,1,541262,Compassvale Street,A,117,MOE-registered Kindergarten,http://preschool.gov.sg/klink/klink/pview/kgt/kgtChildCareView.action?usraction=view&schoolCategory=FAQCAT-002&viewId=819,0.00000000000,0.00000000000,PCF Punggol Central Blk 262A,,BD225DC1C909F467,2012/09/06,34858.32780000000,41939.53410000000
103.83776654970875,1.422118090757382,29,646,,1,760646,Yishun Street 61,A,354,MOE-registered Kindergarten,http://preschool.gov.sg/klink/klink/pview/kgt/kgtChildCareView.action?usraction=view&schoolCategory=FAQCAT-002&viewId=781,0.00000000000,0.00000000000,PCF Nee Soon Central Blk 646-644,,5AF908521D8D3A2C,2012/09/06,28494.99440000000,44876.11000000000
103.8456058934953,1.31530202261696,30,2,,,309458,Derbyshire Road,,,MOE-registered Kindergarten,http://preschool.gov.sg/klink/klink/pview/kgt/kgtChildCareView.action?usraction=view&schoolCategory=FAQCAT-002&viewId=1248,0.00000000000,0.00000000000,Derbyshire Kindergarten,,2AEA8C1398ADD7EC,2012/08/26,29367.45960000000,33064.93580000000
103.91323350938623,1.312625526588654,31,107,,,425542,Lorong L Telok Kurau,,,MOE-registered Kindergarten,http://preschool.gov.sg/klink/klink/pview/kgt/kgtChildCareView.action?usraction=view&schoolCategory=FAQCAT-002&viewId=1102,0.00000000000,0.00000000000,Kits4Kids Kindergarten,,6A5ADE1AF19208FB,2012/09/10,36893.77340000000,32769.12130000000
103.86424921465014,1.323894123667328,32,1079,,,328182,Serangoon Road,,,MOE-registered Kindergarten,http://preschool.gov.sg/klink/klink/pview/kgt/kgtChildCareView.action?usraction=view&schoolCategory=FAQCAT-002&viewId=1019,0.00000000000,0.00000000000,Elim Kindergarten,,65B1DE2C6CE06823,2012/08/26,31442.26980000000,34015.02430000000
103.79249581717545,1.440110142657283,33,851,,1,730851,Woodlands Street 83,A,18,MOE-registered Kindergarten,http://preschool.gov.sg/klink/klink/pview/kgt/kgtChildCareView.action?usraction=view&schoolCategory=FAQCAT-002&viewId=1021,0.00000000000,0.00000000000,Elite Learning Kindergarten (Woodlands),,6961B974B309FDAD,2012/08/26,23457.05640000000,46865.62080000000
103.8925510717545,1.360929320683128,34,120,,,535136,Tampines Road,,,MOE-registered Kindergarten,http://preschool.gov.sg/klink/klink/pview/kgt/kgtChildCareView.action?usraction=view&schoolCategory=FAQCAT-002&viewId=1023,0.00000000000,0.00000000000,En-Naeem Mosque Kindergarten,,B9237191212F9691,2012/08/26,34591.88460000000,38110.24640000000
103.79176136364151,1.439496591913469,35,1,,,738488,Woodlands Street 83,,,MOE-registered Kindergarten,http://preschool.gov.sg/klink/klink/pview/kgt/kgtChildCareView.action?usraction=view&schoolCategory=FAQCAT-002&viewId=1024,0.00000000000,0.00000000000,Evangel Kindergarten,,A90DA5FE810662C4,2012/08/26,23375.32180000000,46797.77890000000
103.84428186664287,1.279935241564555,36,1,,,88437,Tanjong Pagar Road,,,MOE-registered Kindergarten,http://preschool.gov.sg/klink/klink/pview/kgt/kgtChildCareView.action?usraction=view&schoolCategory=FAQCAT-002&viewId=1025,0.00000000000,0.00000000000,Fairfield Methodist Church Kindergarten,,4BF08703CCE6EDB1,2012/08/26,29220.12510000000,29154.25870000000
103.85170538359762,1.308835059484903,37,90,,,218577,Race Course Road,,,MOE-registered Kindergarten,http://preschool.gov.sg/klink/klink/pview/kgt/kgtChildCareView.action?usraction=view&schoolCategory=FAQCAT-002&viewId=1029,0.00000000000,0.00000000000,Foochow Methodist Church Kindergarten,,2718B89A58B670B4,2012/08/26,30046.27930000000,32349.85640000000
103.91379113922237,1.331286905291923,38,606,,1,470606,Bedok Reservoir Road,A,736,MOE-registered Kindergarten,http://preschool.gov.sg/klink/klink/pview/kgt/kgtChildCareView.action?usraction=view&schoolCategory=FAQCAT-002&viewId=1119,0.00000000000,0.00000000000,Malay Youth Literary Association Kindergarten,,6E5DDD4251E86843,2012/09/10,36955.76550000000,34832.60480000000
103.77553267246238,1.338307997212044,39,11,,,597611,Pei Wah Avenue,,,MOE-registered Kindergarten,http://preschool.gov.sg/klink/klink/pview/kgt/kgtChildCareView.action?usraction=view&schoolCategory=FAQCAT-002&viewId=1032,0.00000000000,0.00000000000,Glory Kindergarten,,F1DD5519DF1CAAA5,2012/08/26,21569.04420000000,35608.89090000000
103.73901728320429,1.377899085766909,40,475,,2,680475,Choa Chu Kang Avenue 3,A,15,MOE-registered Kindergarten,http://preschool.gov.sg/klink/klink/pview/kgt/kgtChildCareView.action?usraction=view&schoolCategory=FAQCAT-002&viewId=1093,0.00000000000,0.00000000000,Kinderland (Choa Chu Kang) Kindergarten,,C028840611C4EFA5,2012/09/06,17505.43820000000,39986.80350000000
103.89912935609243,1.314311840232049,41,81,,4,427725,Joo Chiat Road,,1,MOE-registered Kindergarten,http://preschool.gov.sg/klink/klink/pview/kgt/kgtChildCareView.action?usraction=view&schoolCategory=FAQCAT-002&viewId=1039,0.00000000000,0.00000000000,Great Beginnings Montessori Pre-school,,8B944CA0F1AD27A4,2012/08/26,35324.10930000000,32955.53960000000
103.8459647040455,1.357610268319067,42,229,,B1,570229,Bishan Street 23,A,53,MOE-registered Kindergarten,http://preschool.gov.sg/klink/klink/pview/kgt/kgtChildCareView.action?usraction=view&schoolCategory=FAQCAT-002&viewId=1103,0.00000000000,0.00000000000,Knowledge Frontier Centre,,C6B7A25C3219BA6C,2012/09/06,29407.36770000000,37743.16530000000
103.87854794241436,1.354976862517903,43,777,,1,534645,Upper Serangoon Road,D,1,MOE-registered Kindergarten,http://preschool.gov.sg/klink/klink/pview/kgt/kgtChildCareView.action?usraction=view&schoolCategory=FAQCAT-002&viewId=1044,0.00000000000,0.00000000000,Hanis Montessori Kindergarten (Kovan),,A1D009B264F47C99,2012/08/26,33033.51180000000,37452.02000000000
103.82909185866762,1.301530566688115,44,2A,,,238565,Paterson Hill,,,MOE-registered Kindergarten,http://preschool.gov.sg/klink/klink/pview/kgt/kgtChildCareView.action?usraction=view&schoolCategory=FAQCAT-002&viewId=1107,0.00000000000,0.00000000000,Little Hands Montessori Kindergarten,,64CB575FEFEFF154,2012/09/06,27529.60420000000,31542.15610000000
103.82909185866762,1.301530566688115,45,2A,,,238565,Paterson Hill,,,MOE-registered Kindergarten,http://preschool.gov.sg/klink/klink/pview/kgt/kgtChildCareView.action?usraction=view&schoolCategory=FAQCAT-002&viewId=1110,0.00000000000,0.00000000000,Little Raindrops Montessori Pre-School,,64CB575F9256144D,2012/09/06,27529.60420000000,31542.15610000000
103.74025336153858,1.377766283759513,46,21,,,689907,Choa Chu Kang Avenue 2,,,MOE-registered Kindergarten,http://preschool.gov.sg/klink/klink/pview/kgt/kgtChildCareView.action?usraction=view&schoolCategory=FAQCAT-002&viewId=1054,0.00000000000,0.00000000000,Hope Community Kindergarten (Choa Chu Kang),,C7A5D86661EDE278,2012/08/26,17642.99790000000,39972.11350000000
103.9452007206753,1.344680738864179,47,136,,1,521136,Tampines Street 11,A,156,MOE-registered Kindergarten,http://preschool.gov.sg/klink/klink/pview/kgt/kgtChildCareView.action?usraction=view&schoolCategory=FAQCAT-002&viewId=1068,0.00000000000,0.00000000000,Iman Kindergarten (Tampines),,67480D349A8E6658,2012/08/26,40451.26410000000,36313.76550000000
103.83660157033633,1.425735436043226,48,934,,1,760934,Yishun Central 1,A,57,MOE-registered Kindergarten,http://preschool.gov.sg/klink/klink/pview/kgt/kgtChildCareView.action?usraction=view&schoolCategory=FAQCAT-002&viewId=1070,0.00000000000,0.00000000000,Iman Kindergarten (Yishun),,13FD108CBCD66022,2012/08/26,28365.34860000000,45276.09760000000
103.88285910553125,1.365094083391735,49,54,,,549783,Da Silva Lane,,,MOE-registered Kindergarten,http://preschool.gov.sg/klink/klink/pview/kgt/kgtChildCareView.action?usraction=view&schoolCategory=FAQCAT-002&viewId=1073,0.00000000000,0.00000000000,JENIUS Kindergarten,,7CEDCFB45E7133BF,2012/08/26,33513.27220000000,38570.74050000000
103.91397408084426,1.309769825586719,50,511,,,429064,East Coast Road,,,MOE-registered Kindergarten,http://preschool.gov.sg/klink/klink/pview/kgt/kgtChildCareView.action?usraction=view&schoolCategory=FAQCAT-002&viewId=1138,0.00000000000,0.00000000000,NAFA (SYT) Arts Kindergarten,,DC54B2ABEE18B32C,2012/09/06,36976.20220000000,32453.35490000000
103.8270759331991,1.293072252669366,51,491B,Valley Point Tower,2,248373,River Valley Road,,1,MOE-registered Kindergarten,http://preschool.gov.sg/klink/klink/pview/kgt/kgtChildCareView.action?usraction=view&schoolCategory=FAQCAT-002&viewId=1075,0.00000000000,0.00000000000,JHS Montessori Kindergarten,,82A406A352B46075,2012/08/26,27305.24760000000,30606.87980000000
103.7221752118455,1.336318541087307,52,2,,,618744,Tah Ching Road,,,MOE-registered Kindergarten,http://preschool.gov.sg/klink/klink/pview/kgt/kgtChildCareView.action?usraction=view&schoolCategory=FAQCAT-002&viewId=1079,0.00000000000,0.00000000000,Jurong Christian Church Kindergarten,,B67F3987E8189D6E,2012/08/26,15630.91160000000,35389.11110000000
103.85394161996611,1.307177473564451,53,1,,,208673,Kampong Kapor Road,,,MOE-registered Kindergarten,http://preschool.gov.sg/klink/klink/pview/kgt/kgtChildCareView.action?usraction=view&schoolCategory=FAQCAT-002&viewId=1081,0.00000000000,0.00000000000,Kampong Kapor Methodist Church Kindergarten,,7192FF8D7E7F4F8B,2012/08/26,30295.15300000000,32166.57100000000
103.86590280395521,1.324403170939219,54,11,,,339843,Beng Wan Road,,,MOE-registered Kindergarten,http://preschool.gov.sg/klink/klink/pview/kgt/kgtChildCareView.action?usraction=view&schoolCategory=FAQCAT-002&viewId=1091,0.00000000000,0.00000000000,Kim Keat Christian Church Kindergarten,,8AC032F61F4BEE64,2012/08/26,31626.29700000000,34071.31450000000
103.79200626211905,1.432925929559305,55,501,,1,730501,Woodlands Drive 14,A,52,MOE-registered Kindergarten,http://preschool.gov.sg/klink/klink/pview/kgt/kgtChildCareView.action?usraction=view&schoolCategory=FAQCAT-002&viewId=619,0.00000000000,0.00000000000,PCF Admiralty Blk 501,,DE3CE1943FF35272,2012/09/06,23402.56210000000,46071.22740000000
103.77954841425537,1.319942403142542,56,3,,2,597627,Pandan Valley,A,316,MOE-registered Kindergarten,http://preschool.gov.sg/klink/klink/pview/kgt/kgtChildCareView.action?usraction=view&schoolCategory=FAQCAT-002&viewId=1098,0.00000000000,0.00000000000,Kinderland Preschool (Pandan Valley),,C89BCF89D8F8C0D3,2012/08/26,22015.90940000000,33578.10660000000
103.8798796108309,1.374571979158514,57,936,,1,530936,Hougang Street 92,A,67,MOE-registered Kindergarten,http://preschool.gov.sg/klink/klink/pview/kgt/kgtChildCareView.action?usraction=view&schoolCategory=FAQCAT-002&viewId=626,0.00000000000,0.00000000000,PCF Ang Mo Kio-Hougang Blk 936-937,,07BECAD274FE0B46,2012/09/10,33181.66940000000,39618.75170000000
103.71358004727421,1.346597212034238,58,207,,1,640207,Boon Lay Place,A,215,MOE-registered Kindergarten,http://preschool.gov.sg/klink/klink/pview/kgt/kgtChildCareView.action?usraction=view&schoolCategory=FAQCAT-002&viewId=644,0.00000000000,0.00000000000,PCF Boon Lay Blk 207,,607FF621AC498CAA,2012/09/06,14674.41440000000,36525.72140000000
103.88036199307923,1.378797994460326,59,970,,1,530970,Hougang Street 91,A,152,MOE-registered Kindergarten,http://preschool.gov.sg/klink/klink/pview/kgt/kgtChildCareView.action?usraction=view&schoolCategory=FAQCAT-002&viewId=834,0.00000000000,0.00000000000,PCF Ang Mo Kio-Hougang Blk 970,,1EE4F6A07F1B0FB2,2012/09/10,33235.34340000000,40086.04420000000
103.87535046428795,1.35086198931504,60,1,,1,531001,Lor Liew Lian,A,359,MOE-registered Kindergarten,http://preschool.gov.sg/klink/klink/pview/kgt/kgtChildCareView.action?usraction=view&schoolCategory=FAQCAT-002&viewId=648,0.00000000000,0.00000000000,PCF Braddell Heights Blk 1,,EB1B821F56391234,2012/09/06,32677.67680000000,36997.01180000000
103.91546567865197,1.323029406207019,61,66,,,419006,Jalan Lapang,,,MOE-registered Kindergarten,http://preschool.gov.sg/klink/klink/pview/kgt/kgtChildCareView.action?usraction=view&schoolCategory=FAQCAT-002&viewId=1135,0.00000000000,0.00000000000,Muhammadiyah Kindergarten,,0262CC481B85D248,2012/08/26,37142.15490000000,33919.53810000000
103.90545658522772,1.320615575888491,62,38,,,419500,Jalan Eunos,,,MOE-registered Kindergarten,http://preschool.gov.sg/klink/klink/pview/kgt/kgtChildCareView.action?usraction=view&schoolCategory=FAQCAT-002&viewId=1335,0.00000000000,0.00000000000,My Little Gems Kindergarten,,5AF426C0880601F0,2012/08/26,36028.24950000000,33652.59430000000
103.74611049425022,1.321030787710027,63,201,,,609337,Pandan Gardens,,,MOE-registered Kindergarten,http://preschool.gov.sg/klink/klink/pview/kgt/kgtChildCareView.action?usraction=view&schoolCategory=FAQCAT-002&viewId=980,0.00000000000,0.00000000000,Calvary Pandan Kindergarten,,9981030C541F274A,2012/09/06,18294.59960000000,33698.56020000000
103.80556725743814,1.318057475610557,64,118,,,268155,King's Road,,,MOE-registered Kindergarten,http://preschool.gov.sg/klink/klink/pview/kgt/kgtChildCareView.action?usraction=view&schoolCategory=FAQCAT-002&viewId=1140,0.00000000000,0.00000000000,Nanyang Kindergarten,,B394DD836E5805AD,2012/08/26,24911.54880000000,33369.63350000000
103.73822312251319,1.321697184157061,65,492,,,608878,Teban Gardens Road,,,MOE-registered Kindergarten,http://preschool.gov.sg/klink/klink/pview/kgt/kgtChildCareView.action?usraction=view&schoolCategory=FAQCAT-002&viewId=1048,0.00000000000,0.00000000000,Hasanah Mosque Kindergarten,,C65924864B2A4C2A,2012/09/06,17416.81490000000,33772.27920000000
103.88359409883259,1.377477539566586,66,915,,1,530915,Hougang Street 91,A,10,MOE-registered Kindergarten,http://preschool.gov.sg/klink/klink/pview/kgt/kgtChildCareView.action?usraction=view&schoolCategory=FAQCAT-002&viewId=1074,0.00000000000,0.00000000000,Jenius Kindergarten (Hougang),,69F250DFA4E2976D,2012/09/06,33595.03950000000,39940.04230000000
103.89072840085194,1.364857400815884,67,23,,1,530023,Hougang Avenue 3,A,303,MOE-registered Kindergarten,http://preschool.gov.sg/klink/klink/pview/kgt/kgtChildCareView.action?usraction=view&schoolCategory=FAQCAT-002&viewId=808,0.00000000000,0.00000000000,PCF Paya Lebar Blk 23,,4B205225A65196A4,2012/08/26,34389.03220000000,38544.58880000000
103.69781568144829,1.336119611325759,68,654B,,1,642654,Jurong West Street 61,A,490,MOE-registered Kindergarten,http://preschool.gov.sg/klink/klink/pview/kgt/kgtChildCareView.action?usraction=view&schoolCategory=FAQCAT-002&viewId=1857,0.00000000000,0.00000000000,PCF Pioneer Blk 654B,,0062DDA393C9E0A1,2012/08/26,12919.94610000000,35367.25050000000
103.93304377465368,1.360011784400393,69,741,,1,520741,Tampines Street 72,A,74,MOE-registered Kindergarten,http://preschool.gov.sg/klink/klink/pview/kgt/kgtChildCareView.action?usraction=view&schoolCategory=FAQCAT-002&viewId=986,0.00000000000,0.00000000000,Cavenur Kindergarten,,1B4FC7B431CD6D51,2012/09/10,39098.25730000000,38008.93820000000
103.86616886810587,1.332890756144246,70,143,,1,350143,Potong Pasir Avenue 2,A,24,MOE-registered Kindergarten,http://preschool.gov.sg/klink/klink/pview/kgt/kgtChildCareView.action?usraction=view&schoolCategory=FAQCAT-002&viewId=814,0.00000000000,0.00000000000,PCF Potong Pasir Blk 143,,19C892AC32AA6CF6,2012/08/26,31655.89480000000,35009.82870000000
103.90135168569635,1.389141997628206,71,231,,1,540231,Compassvale Walk,A,436,MOE-registered Kindergarten,http://preschool.gov.sg/klink/klink/pview/kgt/kgtChildCareView.action?usraction=view&schoolCategory=FAQCAT-002&viewId=817,0.00000000000,0.00000000000,PCF Punggol Central Blk 231-232,,BC8E2C11973DF7F7,2012/08/26,35571.20170000000,41229.88880000000
103.76583337931747,1.302856136522797,72,152,,,127370,West Coast Road,,,MOE-registered Kindergarten,http://preschool.gov.sg/klink/klink/pview/kgt/kgtChildCareView.action?usraction=view&schoolCategory=FAQCAT-002&viewId=1001,0.00000000000,0.00000000000,Clementi Woods Kindergarten,,0EB8DE13B7FAA949,2012/09/10,20489.50930000000,31688.83100000000
103.76436413818703,1.345219157289285,73,100,,,598454,Jalan Merbok,,,MOE-registered Kindergarten,http://preschool.gov.sg/klink/klink/pview/kgt/kgtChildCareView.action?usraction=view&schoolCategory=FAQCAT-002&viewId=983,0.00000000000,0.00000000000,Canossian Convent Kindergarten,,D09B651C0893F215,2012/09/10,20326.12630000000,36373.12430000000
103.74946070632981,1.379197618068587,74,123,,1,680123,Teck Whye Lane,A,864,MOE-registered Kindergarten,http://preschool.gov.sg/klink/klink/pview/kgt/kgtChildCareView.action?usraction=view&schoolCategory=FAQCAT-002&viewId=691,0.00000000000,0.00000000000,PCF Chua Chu Kang Blk 123-208,,0256A7DE61D0F709,2012/08/26,18667.66730000000,40130.34530000000
103.90757391712859,1.331867987995064,75,650,,1,410650,Jalan Tenaga,A,22,MOE-registered Kindergarten,http://preschool.gov.sg/klink/klink/pview/kgt/kgtChildCareView.action?usraction=view&schoolCategory=FAQCAT-002&viewId=702,0.00000000000,0.00000000000,PCF Eunos Blk 650,,4CA68647E6D6303A,2012/08/26,36263.85050000000,34896.83630000000
103.90442790123377,1.321799295126463,76,11,,1,400011,Eunos Cresent,A,2737,MOE-registered Kindergarten,http://preschool.gov.sg/klink/klink/pview/kgt/kgtChildCareView.action?usraction=view&schoolCategory=FAQCAT-002&viewId=740,0.00000000000,0.00000000000,PCF Geylang Serai Blk 11,,701C2C40976A40F8,2012/08/26,35913.76330000000,33783.48070000000
103.90379971627668,1.327175629234919,77,326,,1,400326,Ubi Avenue 1,A,675,MOE-registered Kindergarten,http://preschool.gov.sg/klink/klink/pview/kgt/kgtChildCareView.action?usraction=view&schoolCategory=FAQCAT-002&viewId=743,0.00000000000,0.00000000000,PCF Geylang Serai Blk 326-341,,ACC5D71C96396945,2012/08/26,35843.83560000000,34377.96660000000
103.93810624566035,1.32113810988928,78,485,,,469315,Bedok South Avenue 2,,,MOE-registered Kindergarten,http://preschool.gov.sg/klink/klink/pview/kgt/kgtChildCareView.action?usraction=view&schoolCategory=FAQCAT-002&viewId=961,0.00000000000,0.00000000000,Bedok Lutheran Church Kindergarten,,F073638FD18BA980,2012/09/06,39661.83610000000,33710.50280000000
103.95405658057665,1.323868212989615,79,86,,,469371,Bedok Road,,,MOE-registered Kindergarten,http://preschool.gov.sg/klink/klink/pview/kgt/kgtChildCareView.action?usraction=view&schoolCategory=FAQCAT-002&viewId=962,0.00000000000,0.00000000000,Bedok Methodist Church Kindergarten,,7F0DFD6C176AC2BD,2012/09/06,41436.93920000000,34012.46480000000
103.72321404961224,1.350135506443473,80,465,,1,640465,Jurong West Street 41,A,536,MOE-registered Kindergarten,http://preschool.gov.sg/klink/klink/pview/kgt/kgtChildCareView.action?usraction=view&schoolCategory=FAQCAT-002&viewId=726,0.00000000000,0.00000000000,PCF Jurong Spring Blk 465,,EC20FD5C4DD614BB,2012/08/26,15746.59230000000,36916.91810000000
103.71695545956793,1.348319689860798,81,528,,1,640528,Jurong West Street 52,A,359,MOE-registered Kindergarten,http://preschool.gov.sg/klink/klink/pview/kgt/kgtChildCareView.action?usraction=view&schoolCategory=FAQCAT-002&viewId=647,0.00000000000,0.00000000000,PCF Jurong Spring Blk 528-527,,BC8E0E420528A574,2012/08/26,15050.07040000000,36716.16640000000
103.92912444360537,1.334220672672758,82,526,,1,460526,Bedok North Street 3,A,462,MOE-registered Kindergarten,http://preschool.gov.sg/klink/klink/pview/kgt/kgtChildCareView.action?usraction=view&schoolCategory=FAQCAT-002&viewId=730,0.00000000000,0.00000000000,PCF Kaki Bukit Blk 526,,523788B2096FBE67,2012/08/26,38662.19290000000,35157.06720000000
103.93650673188679,1.328732015112268,83,135,,1,460135,Bedok North Street 2,A,137,MOE-registered Kindergarten,http://preschool.gov.sg/klink/klink/pview/kgt/kgtChildCareView.action?usraction=view&schoolCategory=FAQCAT-002&viewId=734,0.00000000000,0.00000000000,PCF Kampong Chai Chee Blk 135,,4076DEB32E95A60D,2012/08/26,39483.79080000000,34550.19180000000
103.93592300906354,1.336576934634409,84,775,,1,470775,Bedok Reservoir View,A,333,MOE-registered Kindergarten,http://preschool.gov.sg/klink/klink/pview/kgt/kgtChildCareView.action?usraction=view&schoolCategory=FAQCAT-002&viewId=705,0.00000000000,0.00000000000,PCF Kampong Chai Chee Blk 775,,79896DBAD8B8D62F,2012/08/26,39418.79220000000,35417.64150000000
103.93474378630195,1.331219163226257,85,300,,,469717,Bedok North Avenue 3,,,MOE-registered Kindergarten,http://preschool.gov.sg/klink/klink/pview/kgt/kgtChildCareView.action?usraction=view&schoolCategory=FAQCAT-002&viewId=967,0.00000000000,0.00000000000,Bethesda (Bedok-Tampines) Kindergarten,,0EE2ABC16272E43E,2012/09/06,39287.58140000000,34825.20020000000
103.86120706729727,1.304567385798321,86,462,,3,190462,Crawford Lane,A,33,MOE-registered Kindergarten,http://preschool.gov.sg/klink/klink/pview/kgt/kgtChildCareView.action?usraction=view&schoolCategory=FAQCAT-002&viewId=738,0.00000000000,0.00000000000,PCF Kampong Glam Blk 462-3,,B702A611B77264CD,2012/08/26,31103.73310000000,31877.96870000000
103.86834079551573,1.320368847174221,87,64,,1,330064,Kallang Bahru,A,375,MOE-registered Kindergarten,http://preschool.gov.sg/klink/klink/pview/kgt/kgtChildCareView.action?usraction=view&schoolCategory=FAQCAT-002&viewId=756,0.00000000000,0.00000000000,PCF Kolam Ayer Blk 64,,5A3884C778C78BAC,2012/08/26,31897.62730000000,33625.22330000000
103.82869339523343,1.291062442732486,88,79,,1,161079,Indus Road,A,435,MOE-registered Kindergarten,http://preschool.gov.sg/klink/klink/pview/kgt/kgtChildCareView.action?usraction=view&schoolCategory=FAQCAT-002&viewId=758,0.00000000000,0.00000000000,PCF Kreta Ayer-Kim Seng Blk 79,,98110EABA005D0B4,2012/08/26,27485.25670000000,30384.64500000000
103.88758839341349,1.32386951407305,89,54,,1,370054,Pipit Road,A,52,MOE-registered Kindergarten,http://preschool.gov.sg/klink/klink/pview/kgt/kgtChildCareView.action?usraction=view&schoolCategory=FAQCAT-002&viewId=761,0.00000000000,0.00000000000,PCF Macpherson Blk 54-53,,2DB712663CCC014D,2012/08/26,34039.68720000000,34012.34770000000
103.77815708593749,1.441914932578037,90,15,,1,730015,Marsiling Lane,A,163,MOE-registered Kindergarten,http://preschool.gov.sg/klink/klink/pview/kgt/kgtChildCareView.action?usraction=view&schoolCategory=FAQCAT-002&viewId=845,0.00000000000,0.00000000000,PCF Marsiling Blk 15,,C1E1C0AB300084AB,2012/08/26,21861.38120000000,47065.21910000000
103.95096727249957,1.354296505775381,91,261,,1,520261,Tampines Street 21,A,300,MOE-registered Kindergarten,http://preschool.gov.sg/klink/klink/pview/kgt/kgtChildCareView.action?usraction=view&schoolCategory=FAQCAT-002&viewId=867,0.00000000000,0.00000000000,PCF Tampines East Blk 261,,6E429580B38D2096,2012/08/26,41092.96800000000,37377.06030000000
103.95738720856467,1.371037667273703,92,4,,,519420,Pasir Ris Drive 6,,,MOE-registered Kindergarten,http://preschool.gov.sg/klink/klink/pview/kgt/kgtChildCareView.action?usraction=view&schoolCategory=FAQCAT-002&viewId=1153,0.00000000000,0.00000000000,Pentecost Methodist Church Kindergarten,,E38CCE70BBB29196,2012/09/06,41807.34000000000,39228.25260000000
103.82742321919852,1.284019902004571,93,6,,1,163006,Kim Tian Road,A,102,MOE-registered Kindergarten,http://preschool.gov.sg/klink/klink/pview/kgt/kgtChildCareView.action?usraction=view&schoolCategory=FAQCAT-002&viewId=897,0.00000000000,0.00000000000,PCF Tanjong Pagar-Tiong Bahru Blk 6,,B9907AAB874A856D,2012/08/26,27343.89520000000,29605.91750000000
103.84115569837519,1.276620864062436,94,1E,,3,85501,Cantoment Road,A,49,MOE-registered Kindergarten,http://preschool.gov.sg/klink/klink/pview/kgt/kgtChildCareView.action?usraction=view&schoolCategory=FAQCAT-002&viewId=1246,0.00000000000,0.00000000000,PCF Tanjong Pagar-Tiong Bahru Blk 1E,,F9DD9E678DD0B0A2,2012/09/10,28872.20900000000,28787.77070000000
103.85538135850537,1.330805239825166,95,247,,1,310247,Kim Keat Link,A,27,MOE-registered Kindergarten,http://preschool.gov.sg/klink/klink/pview/kgt/kgtChildCareView.action?usraction=view&schoolCategory=FAQCAT-002&viewId=901,0.00000000000,0.00000000000,PCF Toa Payoh East Blk 247,,D5440EE213209AB7,2012/08/26,30455.35940000000,34779.20960000000
103.9059782952592,1.39432739281904,96,187B,,1,542187,Rivervale Drive,A,866,MOE-registered Kindergarten,http://preschool.gov.sg/klink/klink/pview/kgt/kgtChildCareView.action?usraction=view&schoolCategory=FAQCAT-002&viewId=826,0.00000000000,0.00000000000,PCF Punggol East Blk 187B-187A,,7C0A1053304E2E92,2012/08/26,36086.06590000000,41803.27930000000
103.9133095320357,1.394844660167608,97,171C,,1,823171,Edgedale Plains,A,438,MOE-registered Kindergarten,http://preschool.gov.sg/klink/klink/pview/kgt/kgtChildCareView.action?usraction=view&schoolCategory=FAQCAT-002&viewId=829,0.00000000000,0.00000000000,PCF Punggol North Blk 171C-171B,,F051580D5819B27A,2012/08/26,36901.93420000000,41860.50260000000
103.89013377502339,1.376442319353696,98,535,,1,530535,Hougang Street 52,A,18,MOE-registered Kindergarten,http://preschool.gov.sg/klink/klink/pview/kgt/kgtChildCareView.action?usraction=view&schoolCategory=FAQCAT-002&viewId=833,0.00000000000,0.00000000000,PCF Punggol South Blk 535-542,,0F82AE1A5AFD69AA,2012/08/26,34322.82700000000,39825.58920000000
103.79622158922012,1.312869581916417,99,1,,,267828,Leedon Road,,,MOE-registered Kindergarten,http://preschool.gov.sg/klink/klink/pview/kgt/kgtChildCareView.action?usraction=view&schoolCategory=FAQCAT-002&viewId=1193,0.00000000000,0.00000000000,St. James' Church Kindergarten,,ED64DD02DE9F6186,2012/09/06,23871.45850000000,32795.99630000000
103.86655618227776,1.330095526895679,100,11,,,359338,Francis Thomas Drive,,,MOE-registered Kindergarten,http://preschool.gov.sg/klink/klink/pview/kgt/kgtChildCareView.action?usraction=view&schoolCategory=FAQCAT-002&viewId=1201,0.00000000000,0.00000000000,The Ascension Kindergarten,,C6BE62B0A504B0BE,2012/09/06,31699.00300000000,34700.74710000000
103.88046538377478,1.350450460771283,101,20,,,536698,Lorong Ah Soo,,,MOE-registered Kindergarten,http://preschool.gov.sg/klink/klink/pview/kgt/kgtChildCareView.action?usraction=view&schoolCategory=FAQCAT-002&viewId=1209,0.00000000000,0.00000000000,TPBC Kindergarten,,3EB7D228AFC12B8B,2012/09/06,33246.91090000000,36951.51750000000
103.79309817655181,1.439434645435956,102,853,,1,730853,Woodlands Street 83,A,132,MOE-registered Kindergarten,http://preschool.gov.sg/klink/klink/pview/kgt/kgtChildCareView.action?usraction=view&schoolCategory=FAQCAT-002&viewId=914,0.00000000000,0.00000000000,PCF Woodlands Blk 853,,F1B1981AD3A76BBE,2012/09/10,23524.08840000000,46790.92650000000
103.73686020957966,1.381869688362285,103,445,,1,680445,Choa Chu Kang Avenue 4,A,307,MOE-registered Kindergarten,http://preschool.gov.sg/klink/klink/pview/kgt/kgtChildCareView.action?usraction=view&schoolCategory=FAQCAT-002&viewId=1233,0.00000000000,0.00000000000,Zulfa Kindergarten @ Choa Chu Kang,,4F112FF17A1A9500,2012/08/26,17265.40030000000,40425.86280000000
103.7773914445671,1.44498153188692,104,10,,,739147,Marsiling Lane,,,MOE-registered Kindergarten,http://preschool.gov.sg/klink/klink/pview/kgt/kgtChildCareView.action?usraction=view&schoolCategory=FAQCAT-002&viewId=1142,0.00000000000,0.00000000000,New Life Kindergarten,,4B8C08AD93145D96,2012/08/26,21776.18550000000,47404.31050000000
103.77571279495493,1.319259256738446,105,201,,,596468,Ulu Pandan Road,,,MOE-registered Kindergarten,http://preschool.gov.sg/klink/klink/pview/kgt/kgtChildCareView.action?usraction=view&schoolCategory=FAQCAT-002&viewId=1249,0.00000000000,0.00000000000,Nexus Kindergarten,,521CAE8C0CE5A0DE,2012/08/26,21589.04080000000,33502.57730000000
103.85131127893021,1.35354350493401,106,9A,,,579786,Bishan Street 14,,,MOE-registered Kindergarten,http://preschool.gov.sg/klink/klink/pview/kgt/kgtChildCareView.action?usraction=view&schoolCategory=FAQCAT-002&viewId=1092,0.00000000000,0.00000000000,Kindergarten@An-Nahdhah,,AD1C74A46FE200C6,2012/09/10,30002.38310000000,37293.48710000000
103.77268760007551,1.338404572040014,107,12,,1,590012,Toh Yi Drive,A,389,MOE-registered Kindergarten,http://preschool.gov.sg/klink/klink/pview/kgt/kgtChildCareView.action?usraction=view&schoolCategory=FAQCAT-002&viewId=665,0.00000000000,0.00000000000,PCF Bukit Timah Blk 12,,9096D00B8A7258DA,2012/08/26,21252.41810000000,35619.57730000000
103.76710126367992,1.321409578071274,108,307,,1,120307,Clementi Avenue 4,A,307,MOE-registered kindergarten,http://preschool.gov.sg/klink/klink/pview/kgt/kgtChildCareView.action?usraction=view&schoolCategory=FAQCAT-002&viewId=1295,0.00000000000,0.00000000000,PCF Bukit Timah Block 307,,41BD5D0DD2F54C99,2012/08/26,20630.66770000000,33740.37280000000
103.88040808685993,1.309665814330945,109,76,,,399711,Guillemard Road,,,MOE-registered Kindergarten,http://preschool.gov.sg/klink/klink/pview/kgt/kgtChildCareView.action?usraction=view&schoolCategory=FAQCAT-002&viewId=992,0.00000000000,0.00000000000,Chen Li Kindergarten,,7D7FBA7CA599BA8B,2012/09/06,33240.62040000000,32441.75870000000
103.94933704970653,1.348843261416539,110,20,,,529455,Tampines Street 11,,,MOE-registered Kindergarten,http://preschool.gov.sg/klink/klink/pview/kgt/kgtChildCareView.action?usraction=view&schoolCategory=FAQCAT-002&viewId=999,0.00000000000,0.00000000000,Church Of Holy Trinity Kindergarten,,793293C53EB7DB3F,2012/09/06,40911.57120000000,36774.05840000000
103.81438513793692,1.450860825581676,111,468D,,1,754468,Admiralty Drive,A,223,MOE-registered Kindergarten,http://preschool.gov.sg/klink/klink/pview/kgt/kgtChildCareView.action?usraction=view&schoolCategory=FAQCAT-002&viewId=674,0.00000000000,0.00000000000,PCF Canberra Blk 468D-468C,,23A7CA42F011DEA8,2012/08/26,25893.01020000000,48054.34550000000
103.95395431301264,1.345505166699475,112,131,,1,520131,Simei Street 1,A,208,MOE-registered Kindergarten,http://preschool.gov.sg/klink/klink/pview/kgt/kgtChildCareView.action?usraction=view&schoolCategory=FAQCAT-002&viewId=678,0.00000000000,0.00000000000,PCF Changi Simei Blk 131,,2BF94EBAD806FB86,2012/08/26,41425.44050000000,36404.97310000000
103.95633973791919,1.344170179937234,113,233,,1,520233,Simei Street 4,A,148,MOE-registered Kindergarten,http://preschool.gov.sg/klink/klink/pview/kgt/kgtChildCareView.action?usraction=view&schoolCategory=FAQCAT-002&viewId=680,0.00000000000,0.00000000000,PCF Changi Simei Blk 233,,8816CD4FDB754DE0,2012/08/26,41690.92010000000,36257.37000000000
103.85422056370749,1.367707263389803,114,435,,1,560435,Ang Mo Kio Avenue 10,A,1393,MOE-registered Kindergarten,http://preschool.gov.sg/klink/klink/pview/kgt/kgtChildCareView.action?usraction=view&schoolCategory=FAQCAT-002&viewId=681,0.00000000000,0.00000000000,PCF Cheng San-Seletar Blk 435,,24FD4679FF2553DC,2012/08/26,30326.13990000000,38859.64600000000
103.85300870232031,1.374174931218116,115,533,,1,560533,Ang Mo Kio Avenue 5,A,4100,MOE-registered Kindergarten,http://preschool.gov.sg/klink/klink/pview/kgt/kgtChildCareView.action?usraction=view&schoolCategory=FAQCAT-002&viewId=683,0.00000000000,0.00000000000,PCF Cheng San-Seletar Blk 533,,85DD5815860C3681,2012/08/26,30191.26840000000,39574.80670000000
103.82752142328619,1.432217958823336,116,107,,1,760107,Yishun Ring Road,A,207,MOE-registered Kindergarten,http://preschool.gov.sg/klink/klink/pview/kgt/kgtChildCareView.action?usraction=view&schoolCategory=FAQCAT-002&viewId=684,0.00000000000,0.00000000000,PCF Chong Pang Blk 107,,B3A8D35DBE7CEDF9,2012/08/26,27354.86390000000,45992.90290000000
103.94091875720422,1.3797933802881,117,626,,1,510626,Pasir Ris Drive 3,A,302,MOE-registered Kindergarten,http://preschool.gov.sg/klink/klink/pview/kgt/kgtChildCareView.action?usraction=view&schoolCategory=FAQCAT-002&viewId=1492,0.00000000000,0.00000000000,Zulfa Kindergarten @ Pasir Ris,,70FAEBF348DEA996,2012/08/26,39974.55430000000,40196.32790000000
103.78961179506345,1.442528896643992,118,875,,1,730875,Woodlands Street 82,A,548,MOE-registered Kindergarten,http://preschool.gov.sg/klink/klink/pview/kgt/kgtChildCareView.action?usraction=view&schoolCategory=FAQCAT-002&viewId=915,0.00000000000,0.00000000000,PCF Woodlands Blk 875,,D51F35CC7BBE0051,2012/09/10,23136.11430000000,47133.08050000000
103.80898055102136,1.273380700904796,119,78A,,3,101078,Telok Blangah Street 32,A,1,MOE-registered Kindergarten,http://preschool.gov.sg/klink/klink/pview/kgt/kgtChildCareView.action?usraction=view&schoolCategory=FAQCAT-002&viewId=891,0.00000000000,0.00000000000,PCF Telok Blangah Blk 78A,,CDC36824F670D6C5,2012/09/10,25291.36760000000,28429.50170000000
103.78674344609817,1.434078833514979,120,364,,1,730364,Woodlands Avenue 5,A,478,MOE-registered Kindergarten,http://preschool.gov.sg/klink/klink/pview/kgt/kgtChildCareView.action?usraction=view&schoolCategory=FAQCAT-002&viewId=768,0.00000000000,0.00000000000,PCF Woodgrove Blk 364,,2C063909CBE7B79C,2012/09/10,22816.89250000000,46198.72100000000
103.74545088961034,1.402254101018892,121,682,,1,680682,Choa Chu Kang Crescent,A,504,MOE-registered Kindergarten,http://preschool.gov.sg/klink/klink/pview/kgt/kgtChildCareView.action?usraction=view&schoolCategory=FAQCAT-002&viewId=922,0.00000000000,0.00000000000,PCF Yew Tee Blk 682,,1AF765420BFEF87A,2012/09/10,18221.51940000000,42679.83340000000
103.90047514681476,1.315922154642984,122,8,,,426603,Lorong 102 Changi Road,,,MOE-registered Kindergarten,http://preschool.gov.sg/klink/klink/pview/kgt/kgtChildCareView.action?usraction=view&schoolCategory=FAQCAT-002&viewId=1157,0.00000000000,0.00000000000,Pu Hui Kindergarten,,41F1D4C11D0BF714,2012/09/10,35473.87820000000,33133.60400000000
103.95778539525919,1.378368266430031,123,6,,,509026,Loyang Besar Close,,,MOE-registered Kindergarten,http://preschool.gov.sg/klink/klink/pview/kgt/kgtChildCareView.action?usraction=view&schoolCategory=FAQCAT-002&viewId=1170,0.00000000000,0.00000000000,Riverlife Kindergarten,,DD026F6714985B70,2012/09/10,41851.61120000000,40038.83720000000
103.85833106559356,1.331734963326507,124,254,,1,310254,Kim Keat Avenue,A,110,MOE-registered Kindergarten,http://preschool.gov.sg/klink/klink/pview/kgt/kgtChildCareView.action?usraction=view&schoolCategory=FAQCAT-002&viewId=1174,0.00000000000,0.00000000000,Saraswathy Kindergarten,,EC748EE8698CD3D1,2012/09/10,30783.63030000000,34882.01680000000
103.77104585099745,1.387662839335772,125,455A,,1,671455,Segar Road,A,1,MOE-registered kindergarten,http://preschool.gov.sg/klink/klink/pview/kgt/kgtChildCareView.action?usraction=view&schoolCategory=FAQCAT-002&viewId=1652,0.00000000000,0.00000000000,PCF Zhenghua Blk 455A,,D505679FD5064513,2012/08/26,21069.84970000000,41066.31330000000
103.90572541902095,1.390085890233539,126,143,,1,540143,Rivervale Drive,A,557,MOE-registered Kindergarten,http://preschool.gov.sg/klink/klink/pview/kgt/kgtChildCareView.action?usraction=view&schoolCategory=FAQCAT-002&viewId=825,0.00000000000,0.00000000000,PCF Punggol East Blk 143-147,,5F353099F7486A60,2012/09/06,36057.93850000000,41334.27420000000
103.81459624865204,1.323662992216976,127,1,,,299574,Dunearn Close,,,MOE-registered Kindergarten,http://preschool.gov.sg/klink/klink/pview/kgt/kgtChildCareView.action?usraction=view&schoolCategory=FAQCAT-002&viewId=1154,0.00000000000,0.00000000000,Pibos Garden Preschool,,691EA4A1407D2EC9,2012/08/26,25916.39210000000,33989.45340000000
103.91817656054657,1.322236316822375,128,2,Sin Chuan Garden,,416316,Waringin Park,,,MOE-registered Kindergarten,http://preschool.gov.sg/klink/klink/pview/kgt/kgtChildCareView.action?usraction=view&schoolCategory=FAQCAT-002&viewId=1172,0.00000000000,0.00000000000,Pink Tower Montessori,,20C342CC3BE9B5B6,2012/08/26,37443.85230000000,33831.85240000000
103.77255923781743,1.428852489862962,129,408,,1,730408,Woodlands Street 41,A,9,MOE-registered Kindergarten,http://preschool.gov.sg/klink/klink/pview/kgt/kgtChildCareView.action?usraction=view&schoolCategory=FAQCAT-002&viewId=1158,0.00000000000,0.00000000000,Putra - Putri Kindergarten,,3AB2E608F74ECBF2,2012/08/26,21238.38890000000,45620.85490000000
103.77858722799026,1.338633461556347,130,3,Sherwood Towers,1,588998,Jalan Anak Bukit,,1,MOE-registered Kindergarten,http://preschool.gov.sg/klink/klink/pview/kgt/kgtChildCareView.action?usraction=view&schoolCategory=FAQCAT-002&viewId=1236,0.00000000000,0.00000000000,Nurturing Roots Montessori Preschool,,11B73D24C7BB04E8,2012/08/26,21908.98460000000,35644.87130000000
103.76671538258898,1.325776408719266,131,16,,,597475,Sunset Drive,,,MOE-registered Kindergarten,http://preschool.gov.sg/klink/klink/pview/kgt/kgtChildCareView.action?usraction=view&schoolCategory=FAQCAT-002&viewId=1013,0.00000000000,0.00000000000,Early Years Montessori Kindergarten,,7B9373880D1FB576,2012/09/06,20587.73590000000,34223.23600000000
103.78575896345731,1.280328305563381,132,3,,,118827,Pasir Panjang Hill,,,MOE-registered Kindergarten,http://preschool.gov.sg/klink/klink/pview/kgt/kgtChildCareView.action?usraction=view&schoolCategory=FAQCAT-002&viewId=1149,0.00000000000,0.00000000000,Pasir Panjang Hill Church Kindergarten,,58060188F5D31D60,2012/08/26,22707.00010000000,29197.76820000000
103.79670751465893,1.432587094356393,133,557,,1,730557,Woodlands Drive 53,A,63,MOE-registered Kindergarten,http://preschool.gov.sg/klink/klink/pview/kgt/kgtChildCareView.action?usraction=view&schoolCategory=FAQCAT-002&viewId=620,0.00000000000,0.00000000000,PCF Admiralty Blk 556-557,,868203C8341B565C,2012/08/26,23925.74010000000,46033.75180000000
103.72239811169071,1.354314957891546,134,406,,1,640406,Jurong West Street 42,A,589,MOE-registered Kindergarten,http://preschool.gov.sg/klink/klink/pview/kgt/kgtChildCareView.action?usraction=view&schoolCategory=FAQCAT-002&viewId=1018,0.00000000000,0.00000000000,Elias Kindergarten,,9CCD256C5CED5AB1,2012/09/06,15655.80850000000,37379.06550000000
103.80731816902951,1.44188251980999,135,687B,,1,732687,Woodlands Drive 75,A,47,MOE-registered Kindergarten,http://preschool.gov.sg/klink/klink/pview/kgt/kgtChildCareView.action?usraction=view&schoolCategory=FAQCAT-002&viewId=623,0.00000000000,0.00000000000,PCF Admiralty Blk 687B,,A7D1BBE6AC51B1B1,2012/08/26,25106.55790000000,47061.57720000000
103.74625100818375,1.321746003194143,136,202,,,609338,Pandan Gardens,,,MOE-registered Kindergarten,http://preschool.gov.sg/klink/klink/pview/kgt/kgtChildCareView.action?usraction=view&schoolCategory=FAQCAT-002&viewId=1030,0.00000000000,0.00000000000,Galilee Kindergarten,,117E0F94253C5509,2012/09/06,18310.24020000000,33777.64460000000
103.85067429848152,1.349122124577572,137,197,,1,570197,Bishan Street 13,A,567,MOE-registered Kindergarten,http://preschool.gov.sg/klink/klink/pview/kgt/kgtChildCareView.action?usraction=view&schoolCategory=FAQCAT-002&viewId=639,0.00000000000,0.00000000000,PCF Bishan East Blk 197-115-196,,CBD0CD12882F6F17,2012/08/26,29931.49790000000,36804.59290000000
103.83468005753997,1.318924478102524,138,70,,1,309936,Barker Road,A,1,MOE-registered Kindergarten,http://preschool.gov.sg/klink/klink/pview/kgt/kgtChildCareView.action?usraction=view&schoolCategory=FAQCAT-002&viewId=960,0.00000000000,0.00000000000,Barker Road Methodist Church Kindergarten,,77A83C0610BB56C9,2012/09/10,28151.51920000000,33465.48500000000
103.74266299993337,1.338431194148928,139,208,,1,600208,Jurong East Street 21,A,183,MOE-registered kindergarten,http://preschool.gov.sg/klink/klink/pview/kgt/kgtChildCareView.action?usraction=view&schoolCategory=FAQCAT-002&viewId=1653,0.00000000000,0.00000000000,PCF Bukit Batok East Blk 208,,CAB7BDF902497BBF,2012/08/26,17910.99780000000,35622.62410000000
103.74660766289603,1.337894631443163,140,285C,,1,603285,Toh Guan Road,A,92,MOE-registered Kindergarten,http://preschool.gov.sg/klink/klink/pview/kgt/kgtChildCareView.action?usraction=view&schoolCategory=FAQCAT-002&viewId=667,0.00000000000,0.00000000000,PCF Bukit Batok East Blk 285C-285D,,E0EF18DE19EED345,2012/08/26,18349.99510000000,35563.27780000000
103.93704958235313,1.374063875309746,141,775,,1,510775,Pasir Ris Street 71,A,402,MOE-registered Kindergarten,http://preschool.gov.sg/klink/klink/pview/kgt/kgtChildCareView.action?usraction=view&schoolCategory=FAQCAT-002&viewId=1045,0.00000000000,0.00000000000,Hanis Montessori Kindergarten (Pasir Ris),,8984D6C43CD942C3,2012/09/06,39543.99060000000,39562.76820000000
103.92178296914157,1.337419104953365,142,745,,2,470745,Bedok Reservoir Road,A,3015,MOE-registered Kindergarten,http://preschool.gov.sg/klink/klink/pview/kgt/kgtChildCareView.action?usraction=view&schoolCategory=FAQCAT-002&viewId=1121,0.00000000000,0.00000000000,Maris Kindergarten,,5EC07E6A49AB0534,2012/08/26,37845.15000000000,35510.70330000000
103.77292176665262,1.443368932594526,143,32,,1,730032,Marsiling Drive,A,343,MOE-registered Kindergarten,http://preschool.gov.sg/klink/klink/pview/kgt/kgtChildCareView.action?usraction=view&schoolCategory=FAQCAT-002&viewId=766,0.00000000000,0.00000000000,PCF Marsiling Blk 32,,CADD5194785A8BCC,2012/08/26,21278.77540000000,47226.01000000000
103.88423035021768,1.300169946328817,144,14,,1,431014,Kampong Arang Road,A,45,MOE-registered Kindergarten,http://preschool.gov.sg/klink/klink/pview/kgt/kgtChildCareView.action?usraction=view&schoolCategory=FAQCAT-002&viewId=772,0.00000000000,0.00000000000,PCF Mountbatten Blk 14,,19954BE4269E1544,2012/08/26,33666.02380000000,31391.76240000000
103.69583332916416,1.345986628543824,145,813,,1,640813,Jurong West Street 81,A,180,MOE-registered Kindergarten,http://preschool.gov.sg/klink/klink/pview/kgt/kgtChildCareView.action?usraction=view&schoolCategory=FAQCAT-002&viewId=776,0.00000000000,0.00000000000,PCF Nanyang Blk 813,,C5BE6AE12D41998E,2012/08/26,12699.39190000000,36458.31020000000
103.90692468955501,1.306807676613255,146,6,,,429509,Chapel Road,,,MOE-registered Kindergarten,http://preschool.gov.sg/klink/klink/pview/kgt/kgtChildCareView.action?usraction=view&schoolCategory=FAQCAT-002&viewId=1052,0.00000000000,0.00000000000,Holy Family Kindergarten,,A1A699573338EF8E,2012/09/10,36191.68010000000,32125.79130000000
103.83702095882929,1.437864976191245,147,277,,1,760277,Yishun Street 22,A,294,MOE-registered Kindergarten,http://preschool.gov.sg/klink/klink/pview/kgt/kgtChildCareView.action?usraction=view&schoolCategory=FAQCAT-002&viewId=672,0.00000000000,0.00000000000,PCF Nee Soon East Blk 277,,F7C444A6B87F55DB,2012/08/26,28412.01820000000,46617.32120000000
103.9518988788853,1.358855072613738,148,443,,1,520443,Tampines Street 43,A,51,MOE-registered Kindergarten,http://preschool.gov.sg/klink/klink/pview/kgt/kgtChildCareView.action?usraction=view&schoolCategory=FAQCAT-002&viewId=872,0.00000000000,0.00000000000,PCF Tampines North Blk 443-444,,2A03AEB7BA1A06E3,2012/09/06,41196.62070000000,37881.12950000000
103.90227149479342,1.387982623843563,149,124A,,1,541124,Rivervale Drive,A,193,MOE-registered Kindergarten,http://preschool.gov.sg/klink/klink/pview/kgt/kgtChildCareView.action?usraction=view&schoolCategory=FAQCAT-002&viewId=824,0.00000000000,0.00000000000,PCF Punggol East Blk 124A-124,,F6C6CEB9CEC0B472,2012/09/10,35673.56830000000,41101.69400000000
103.8229638241328,1.451250995044,150,507D,,1,754507,Wellington Circle,A,94,MOE-registered Kindergarten,http://preschool.gov.sg/klink/klink/pview/kgt/kgtChildCareView.action?usraction=view&schoolCategory=FAQCAT-002&viewId=846,0.00000000000,0.00000000000,PCF Sembawang Blk 507D-501D-503C,,5FEC2313D4B53DC5,2012/08/26,26847.68130000000,48097.48230000000
103.89627650123006,1.378510008004242,151,452,,1,530452,Hougang Avenue 10,A,575,MOE-registered Kindergarten,http://preschool.gov.sg/klink/klink/pview/kgt/kgtChildCareView.action?usraction=view&schoolCategory=FAQCAT-002&viewId=832,0.00000000000,0.00000000000,PCF Punggol South Blk 452,,22434EA7374558EE,2012/09/10,35006.43050000000,40054.24100000000
103.84737903071992,1.365110238815773,152,319,,1,560319,Ang Mo Kio Avenue 1,A,1503,MOE-registered Kindergarten,http://preschool.gov.sg/klink/klink/pview/kgt/kgtChildCareView.action?usraction=view&schoolCategory=FAQCAT-002&viewId=885,0.00000000000,0.00000000000,PCF Teck Ghee Blk 319,,988FAC378D19AD58,2012/09/06,29564.76110000000,38572.47470000000
103.81902666730592,1.286058396569061,153,87,,1,150087,Redhill Close,A,582,MOE-registered Kindergarten,http://preschool.gov.sg/klink/klink/pview/kgt/kgtChildCareView.action?usraction=view&schoolCategory=FAQCAT-002&viewId=844,0.00000000000,0.00000000000,PCF Radin Mas Blk 87,,E77A43B43CCBC586,2012/09/10,26409.42970000000,29831.32740000000
103.87408309087247,1.391747321973407,154,443,,1,790443,Fernvale Road,A,411,MOE-registered kindergarten,http://preschool.gov.sg/klink/klink/pview/kgt/kgtChildCareView.action?usraction=view&schoolCategory=FAQCAT-002&viewId=1651,0.00000000000,0.00000000000,PCF Sengkang West Blk 443,,E41E8395555163D6,2012/08/26,32536.55540000000,41517.90260000000
103.84772761127296,1.342209490524509,155,205,,1,310205,Toa Payoh North,A,1175,MOE-registered Kindergarten,http://preschool.gov.sg/klink/klink/pview/kgt/kgtChildCareView.action?usraction=view&schoolCategory=FAQCAT-002&viewId=640,0.00000000000,0.00000000000,PCF Thomson-Toa Payoh Blk 205,,B9D82C8844DE8056,2012/09/06,29603.56900000000,36040.22700000000
103.8572022610154,1.338584615690053,156,6,,1,310006,Lorong 7 Toa Payoh,A,181,MOE-registered Kindergarten,http://preschool.gov.sg/klink/klink/pview/kgt/kgtChildCareView.action?usraction=view&schoolCategory=FAQCAT-002&viewId=903,0.00000000000,0.00000000000,PCF Toa Payoh East Blk 6-231-232,,CAD25FED7D48F5EB,2012/08/26,30657.99870000000,35639.41510000000
103.78560173679192,1.308896986262019,157,24,,3,270024,Ghim Moh Link,A,1,MOE-registered Kindergarten,http://preschool.gov.sg/klink/klink/pview/kgt/kgtChildCareView.action?usraction=view&schoolCategory=FAQCAT-002&viewId=904,0.00000000000,0.00000000000,PCF Ulu Pandan Blk 24,,EF34189A4CA721B4,2012/08/26,22689.56150000000,32356.74700000000
103.8477710815029,1.338627348688793,158,97,,1,310097,Lorong 3 Toa Payoh,A,60,MOE-registered Kindergarten,http://preschool.gov.sg/klink/klink/pview/kgt/kgtChildCareView.action?usraction=view&schoolCategory=FAQCAT-002&viewId=900,0.00000000000,0.00000000000,PCF Toa Payoh Central Blk 97,,7A1110C33EDE5A68,2012/09/06,29608.40910000000,35644.13210000000
103.89095424954697,1.387023697116992,159,303A,,1,541303,Anchorvale Link,A,82,MOE-registered Kindergarten,http://preschool.gov.sg/klink/klink/pview/kgt/kgtChildCareView.action?usraction=view&schoolCategory=FAQCAT-002&viewId=851,0.00000000000,0.00000000000,PCF Sengkang West Blk 303A-302A,,CB71ACCBA5DB56BD,2012/09/10,34414.10730000000,40995.62700000000
103.87650520682195,1.392724542336655,160,436A,,1,791436,Fernvale Road,A,188,MOE-registered Kindergarten,http://preschool.gov.sg/klink/klink/pview/kgt/kgtChildCareView.action?usraction=view&schoolCategory=FAQCAT-002&viewId=852,0.00000000000,0.00000000000,PCF Sengkang West Blk 436D-436A,,2773760CD1DAF02A,2012/09/10,32806.10320000000,41625.96350000000
103.79977857579821,1.437898808380361,161,652,,1,730652,Woodlands Ring Road,A,386,MOE-registered Kindergarten,http://preschool.gov.sg/klink/klink/pview/kgt/kgtChildCareView.action?usraction=view&schoolCategory=FAQCAT-002&viewId=912,0.00000000000,0.00000000000,PCF Woodlands Blk 652,,DA04946B2F79C28A,2012/09/06,24267.51160000000,46621.08930000000
103.74464852683032,1.398465466214036,162,608,,1,680608,Choa Chu Kang Street 62,A,103,MOE-registered Kindergarten,http://preschool.gov.sg/klink/klink/pview/kgt/kgtChildCareView.action?usraction=view&schoolCategory=FAQCAT-002&viewId=920,0.00000000000,0.00000000000,PCF Yew Tee Blk 608-607,,497F7FE1340BDADD,2012/08/26,18132.21140000000,42260.90820000000
103.84351665546993,1.369710059567984,163,121,,1,560121,Ang Mo Kio Avenue 3,A,1711,MOE-registered Kindergarten,http://preschool.gov.sg/klink/klink/pview/kgt/kgtChildCareView.action?usraction=view&schoolCategory=FAQCAT-002&viewId=925,0.00000000000,0.00000000000,PCF Yio Chu Kang Blk 121-214,,D051AC4E1B0852B8,2012/08/26,29134.92250000000,39081.09730000000
103.87453067966301,1.368598083431747,164,141,,1,550141,Serangoon North Avenue 2,A,8,MOE-registered Kindergarten,http://preschool.gov.sg/klink/klink/pview/kgt/kgtChildCareView.action?usraction=view&schoolCategory=FAQCAT-002&viewId=855,0.00000000000,0.00000000000,PCF Serangoon Blk 141,,10FB8E2E6C60FD95,2012/08/26,32586.41050000000,38958.17760000000
103.94611106870109,1.320709018686796,165,170,,1,460170,Bedok South Road,A,354,MOE-registered Kindergarten,http://preschool.gov.sg/klink/klink/pview/kgt/kgtChildCareView.action?usraction=view&schoolCategory=FAQCAT-002&viewId=857,0.00000000000,0.00000000000,PCF Siglap Blk 170,,05BB6EDA1D460C15,2012/08/26,40552.69740000000,33663.09500000000
103.73096330690417,1.346547898253667,166,317,,1,600317,Jurong East Street 31,A,14,MOE-registered Kindergarten,http://preschool.gov.sg/klink/klink/pview/kgt/kgtChildCareView.action?usraction=view&schoolCategory=FAQCAT-002&viewId=932,0.00000000000,0.00000000000,PCF Yuhua Blk 317,,D801531B923B3A13,2012/09/06,16608.98260000000,36520.18040000000
103.93655583249564,1.353441448330673,167,856,,1,520856,Tampines Street 82,A,279,MOE-registered Kindergarten,http://preschool.gov.sg/klink/klink/pview/kgt/kgtChildCareView.action?usraction=view&schoolCategory=FAQCAT-002&viewId=862,0.00000000000,0.00000000000,PCF Tampines Central Blk 856-854,,CC1FE69F4EA066E8,2012/08/26,39489.14000000000,37282.43920000000
103.95620464963132,1.35138059282847,168,318,,1,520318,Tampines Street 33,A,80,MOE-registered Kindergarten,http://preschool.gov.sg/klink/klink/pview/kgt/kgtChildCareView.action?usraction=view&schoolCategory=FAQCAT-002&viewId=866,0.00000000000,0.00000000000,PCF Tampines Changkat Blk 318,,138086BD647746A9,2012/08/26,41675.84600000000,37054.66170000000
103.93990380316697,1.355321059650743,169,503,,,529651,Tampines Avenue 5,,,MOE-registered Kindergarten,http://preschool.gov.sg/klink/klink/pview/kgt/kgtChildCareView.action?usraction=view&schoolCategory=FAQCAT-002&viewId=1007,0.00000000000,0.00000000000,Darul Ghufran Mosque Kindergarten,,0D7EE79372198FCF,2012/12/10,39861.72260000000,37490.29350000000
103.83435009365337,1.436653267171522,170,950,,,769099,Yishun Avenue 2,,,MOE-registered Kindergarten,http://preschool.gov.sg/klink/klink/pview/kgt/kgtChildCareView.action?usraction=view&schoolCategory=FAQCAT-002&viewId=1008,0.00000000000,0.00000000000,Darul Makmur Mosque Kindergarten,,DB0ADF5FE98E464D,2012/12/10,28114.79190000000,46483.33620000000
103.77107502523161,1.312486848637287,171,3002,,,129579,Commonwealth Avenue West,,,MOE-registered Kindergarten,http://preschool.gov.sg/klink/klink/pview/kgt/kgtChildCareView.action?usraction=view&schoolCategory=FAQCAT-002&viewId=1009,0.00000000000,0.00000000000,Darussalam Mosque Kindergarten,,37329DE9498C6FE9,2012/12/10,21072.88360000000,32753.73120000000
103.89898214968265,1.415102597248101,172,600,,2,829734,Ponggol Seventeenth Avenue,,1,MOE-registered Kindergarten,http://preschool.gov.sg/klink/klink/pview/kgt/kgtChildCareView.action?usraction=view&schoolCategory=FAQCAT-002&viewId=1011,0.00000000000,0.00000000000,Dayspring Kindergarten @ Marina Country Club,,4C1F68E7C44852DF,2012/12/10,35307.42250000000,44100.47500000000
103.90933453810108,1.308163096741546,173,292,,1,428951,East Coast Road,A,5,MOE-registered Kindergarten,http://preschool.gov.sg/klink/klink/pview/kgt/kgtChildCareView.action?usraction=view&schoolCategory=FAQCAT-002&viewId=1012,0.00000000000,0.00000000000,Dynamic World Montessori Preschool,,7184E57F89EB4F5E,2012/12/10,36459.86960000000,32275.67480000000
103.84245065593343,1.330275929619485,174,172A,,1,311172,Lorong 1 Toa Payoh,A,1170,MOE-registered Kindergarten,http://preschool.gov.sg/klink/klink/pview/kgt/kgtChildCareView.action?usraction=view&schoolCategory=FAQCAT-002&viewId=1160,0.00000000000,0.00000000000,Ecokidd Kindergarten @ Toa Payoh,,BB3BF71F4B2D9200,2012/12/10,29016.30600000000,34720.67210000000
103.69067625373296,1.337485149814055,175,50,,,638270,Yunnan Drive 1,,,MOE-registered Kindergarten,http://preschool.gov.sg/klink/klink/pview/kgt/kgtChildCareView.action?usraction=view&schoolCategory=FAQCAT-002&viewId=1159,0.00000000000,0.00000000000,Ecokidd Kindergarten @ Jurong,,635871096C5037E3,2012/12/10,12125.40970000000,35518.29020000000
103.95861113031198,1.356426315708672,176,374,,1,520374,Tampines Street 34,A,42,MOE-registered Kindergarten,http://preschool.gov.sg/klink/klink/pview/kgt/kgtChildCareView.action?usraction=view&schoolCategory=FAQCAT-002&viewId=1046,0.00000000000,0.00000000000,Hanis Montessori Kindergarten (Tampines),,92F376F81EF18028,2012/12/10,41943.63200000000,37612.60700000000
103.74572197420461,1.390469034762451,177,704,,1,680704,Choa Chu Kang Street 53,A,80,MOE-registered Kindergarten,http://preschool.gov.sg/klink/klink/pview/kgt/kgtChildCareView.action?usraction=view&schoolCategory=FAQCAT-002&viewId=1061,0.00000000000,0.00000000000,Ichiban Montessori Kindergarten,,67528743249D7646,2012/12/10,18251.63890000000,41376.69780000000
103.74576905355075,1.37725678604817,178,31,,,689022,Hong San Walk,,,MOE-registered Kindergarten,http://preschool.gov.sg/klink/klink/pview/kgt/kgtChildCareView.action?usraction=view&schoolCategory=FAQCAT-002&viewId=1062,0.00000000000,0.00000000000,Ichiban Nurtureland Kindergarten (Choa Chu Kang),,5CD5C5813DABE41E,2012/12/10,18256.82430000000,39915.75250000000
103.72046382126308,1.334846683578023,179,399,,1,610399,Yung Sheng Road,A,19,MOE-registered Kindergarten,http://preschool.gov.sg/klink/klink/pview/kgt/kgtChildCareView.action?usraction=view&schoolCategory=FAQCAT-002&viewId=1066,0.00000000000,0.00000000000,Iman Kindergarten (Jurong),,8B214B95E3393096,2012/12/10,15440.44410000000,35226.36900000000
103.92756720354433,1.309664921500283,180,451,,,449283,Marine Parade Road,,,MOE-registered Kindergarten,http://preschool.gov.sg/klink/klink/pview/kgt/kgtChildCareView.action?usraction=view&schoolCategory=FAQCAT-002&viewId=1082,0.00000000000,0.00000000000,Kampung Siglap Mosque Kindergarten,,F56FFA2B2F4B6B0A,2012/12/10,38488.99120000000,32441.80790000000
103.87920552242224,1.35529365605949,181,785,,,534652,Upper Serangoon Road,,,MOE-registered Kindergarten,http://preschool.gov.sg/klink/klink/pview/kgt/kgtChildCareView.action?usraction=view&schoolCategory=FAQCAT-002&viewId=972,0.00000000000,0.00000000000,Bethesda (Serangoon) Sunbeam Kindergarten,,301FF912354993EC,2012/12/10,33106.69230000000,37487.05080000000
103.91003224460016,1.320648786462126,182,27,,,416913,Lorong Melayu,,,MOE-registered Kindergarten,http://preschool.gov.sg/klink/klink/pview/kgt/kgtChildCareView.action?usraction=view&schoolCategory=FAQCAT-002&viewId=973,0.00000000000,0.00000000000,Bethesda Chapel Kindergarten,,638B2E5DBFE7539E,2012/12/10,36537.47550000000,33656.28180000000
103.86390754594309,1.389107767598425,183,357,,,805939,Yio Chu Kang Road,,,MOE-registered Kindergarten,http://preschool.gov.sg/klink/klink/pview/kgt/kgtChildCareView.action?usraction=view&schoolCategory=FAQCAT-002&viewId=974,0.00000000000,0.00000000000,Brain Buttons Kindergarten,,60A7FDDF937D8238,2012/12/10,31404.15440000000,41226.01690000000
103.78843783430607,1.305249712631593,184,35,The Rochester,3,138639,Rochester Drive,,11,MOE-registered Kindergarten,http://preschool.gov.sg/klink/klink/pview/kgt/kgtChildCareView.action?usraction=view&schoolCategory=FAQCAT-002&viewId=1709,0.00000000000,0.00000000000,Buttercups Kindergarten (Rochester),,02EAF12A99A6EA68,2012/12/10,23005.18550000000,31953.44430000000
103.86354675376562,1.323994435448169,185,84,,,328069,St. Francis Road,,,MOE-registered Kindergarten,http://preschool.gov.sg/klink/klink/pview/kgt/kgtChildCareView.action?usraction=view&schoolCategory=FAQCAT-002&viewId=981,0.00000000000,0.00000000000,Canaan Church (SCCC) Kindergarten,,152125964539C2AE,2012/12/10,31364.09280000000,34026.11530000000
103.88196648678951,1.359856757883713,186,15,,,549404,Flower Road,,,MOE-registered Kindergarten,http://preschool.gov.sg/klink/klink/pview/kgt/kgtChildCareView.action?usraction=view&schoolCategory=FAQCAT-002&viewId=985,0.00000000000,0.00000000000,Catholic Kindergarten,,1D0F538ABF4450D6,2012/12/10,33413.94600000000,37991.62150000000
103.6988837508448,1.349381630656885,187,5,,,649151,Jurong West Street 74,,,MOE-registered Kindergarten,http://preschool.gov.sg/klink/klink/pview/kgt/kgtChildCareView.action?usraction=view&schoolCategory=FAQCAT-002&viewId=987,0.00000000000,0.00000000000,Centre of New Life Kindergarten,,411D38106C100218,2012/12/10,13038.89190000000,36833.69430000000
103.97518750631799,1.366138191243679,188,1069,,,507692,Upper Changi Road North,,,MOE-registered Kindergarten,http://preschool.gov.sg/klink/klink/pview/kgt/kgtChildCareView.action?usraction=view&schoolCategory=FAQCAT-002&viewId=988,0.00000000000,0.00000000000,Changi Baptist Church Kindergarten,,2EEC146722E367E0,2012/12/10,43788.33400000000,38686.60180000000
103.96194148404389,1.341641256657969,189,694,,,486824,Upper Changi Road East,,,MOE-registered Kindergarten,http://preschool.gov.sg/klink/klink/pview/kgt/kgtChildCareView.action?usraction=view&schoolCategory=FAQCAT-002&viewId=989,0.00000000000,0.00000000000,Changi Bethany Kindergarten,,5E059CA9DFF6913C,2012/12/10,42314.34940000000,35977.76600000000
103.84801935550432,1.312306954471062,190,1,,,219486,Dorset Road,,,MOE-registered Kindergarten,http://preschool.gov.sg/klink/klink/pview/kgt/kgtChildCareView.action?usraction=view&schoolCategory=FAQCAT-002&viewId=996,0.00000000000,0.00000000000,Christ Church Kindergarten,,C46A7428E224550D,2012/12/10,29636.05660000000,32733.75800000000
103.7721164003941,1.341178401295218,191,110,,1,598606,Jalan Jurong Kechil,A,3,MOE-registered Kindergarten,http://preschool.gov.sg/klink/klink/pview/kgt/kgtChildCareView.action?usraction=view&schoolCategory=FAQCAT-002&viewId=1004,0.00000000000,0.00000000000,Creative Thinkers Kindergarten,,672B36CB647EF8A7,2012/12/10,21188.85730000000,35926.29490000000
103.95428187839107,1.377599396546075,192,1,Pasir Ris NTUC Resort,1,519599,Pasir Ris Close,D,07A,MOE-registered Kindergarten,http://preschool.gov.sg/klink/klink/pview/kgt/kgtChildCareView.action?usraction=view&schoolCategory=FAQCAT-002&viewId=939,0.00000000000,0.00000000000,ACES Montessori Kidz Kindergarten,,F2238B02751E725B,2012/12/10,41461.71700000000,39953.79920000000
103.77516252995602,1.430100251729421,193,306A,,3,731306,Woodlands Street 31,A,3,MOE-registered Kindergarten,http://preschool.gov.sg/klink/klink/pview/kgt/kgtChildCareView.action?usraction=view&schoolCategory=FAQCAT-002&viewId=940,0.00000000000,0.00000000000,Active Learners,,02DE40F9A6F5BF17,2012/12/10,21528.10020000000,45758.81870000000
103.88240940737094,1.310012061351294,194,102,Singapore Badminton Association Building,2,399719,Guillemard Road,A,1,MOE-registered Kindergarten,http://preschool.gov.sg/klink/klink/pview/kgt/kgtChildCareView.action?usraction=view&schoolCategory=FAQCAT-002&viewId=1218,0.00000000000,0.00000000000,White Lodge Kindergarten (East Coast),,66B8BABF62A4D895,2012/08/26,33463.34790000000,32480.04920000000
103.81470456270479,1.29853573333426,195,310,,,247975,Tanglin Road,,,MOE-registered Kindergarten,http://preschool.gov.sg/klink/klink/pview/kgt/kgtChildCareView.action?usraction=view&schoolCategory=FAQCAT-002&viewId=1654,0.00000000000,0.00000000000,White Lodge Kindergarten (Phoenix Park),,552DF321CADBE65F,2012/08/26,25928.42570000000,31211.01010000000
103.97165804618962,1.364950956970884,196,36,,,507889,Toh Drive,,,MOE-registered Kindergarten,http://preschool.gov.sg/klink/klink/pview/kgt/kgtChildCareView.action?usraction=view&schoolCategory=FAQCAT-002&viewId=1787,0.00000000000,0.00000000000,White Lodge Kindergarten (Upper East Coast),,AB3B0C7A853449BA,2012/08/26,43395.55360000000,38555.30020000000
103.85539494925966,1.347998000076997,197,167,,1,570167,Bishan Street 13,A,218,MOE-registered Kindergarten,http://preschool.gov.sg/klink/klink/pview/kgt/kgtChildCareView.action?usraction=view&schoolCategory=FAQCAT-002&viewId=1227,0.00000000000,0.00000000000,Zion Bishan Kindergarten,,0E34E17C4610B8D8,2012/08/26,30456.85480000000,36680.29720000000
103.77274797219481,1.378138027877729,198,10,,,679943,Bukit Panjang Ring Road,,,MOE-registered Kindergarten,http://preschool.gov.sg/klink/klink/pview/kgt/kgtChildCareView.action?usraction=view&schoolCategory=FAQCAT-002&viewId=946,0.00000000000,0.00000000000,Al - Iman Mosque Kindergarten,,658B7D964E4E28EB,2012/12/10,21259.24700000000,40013.10250000000
103.84603150633041,1.370335458784711,199,5140,,,569844,Ang Mo Kio Avenue 6,,,MOE-registered Kindergarten,http://preschool.gov.sg/klink/klink/pview/kgt/kgtChildCareView.action?usraction=view&schoolCategory=FAQCAT-002&viewId=951,0.00000000000,0.00000000000,Al - Muttaqin Mosque Kindergarten,,91DCD77918357B52,2012/12/10,29414.79460000000,39150.25210000000
103.96414309390181,1.370991417207786,200,2,,,518239,Pasir Ris Walk,,,MOE-registered Kindergarten,http://preschool.gov.sg/klink/klink/pview/kgt/kgtChildCareView.action?usraction=view&schoolCategory=FAQCAT-002&viewId=947,0.00000000000,0.00000000000,Al - Istighfar Mosque Kindergarten,,488B92BFFE61A5D2,2012/12/10,42559.19000000000,39223.17850000000
103.69919365819594,1.347293370305421,201,743,,B1,640743,Jurong West Street 73,,3,MOE-registered Kindergarten,http://preschool.gov.sg/klink/klink/pview/kgt/kgtChildCareView.action?usraction=view&schoolCategory=FAQCAT-002&viewId=1250,0.00000000000,0.00000000000,Al-Nasry @ Jurong West Kindergarten,,FA524EB2CFBCB4FE,2012/12/10,13073.36850000000,36602.78260000000
103.77190188506796,1.440681314014769,202,6,,,739983,Admiralty Road,,,MOE-registered Kindergarten,http://preschool.gov.sg/klink/klink/pview/kgt/kgtChildCareView.action?usraction=view&schoolCategory=FAQCAT-002&viewId=953,0.00000000000,0.00000000000,An - Nur Mosque Kindergarten,,EC6D1AB6E6C74938,2012/12/10,21165.27040000000,46928.82950000000
103.75600191885391,1.351660299124046,203,30,,,659919,Bukit Batok East Avenue 2,,,MOE-registered Kindergarten,http://preschool.gov.sg/klink/klink/pview/kgt/kgtChildCareView.action?usraction=view&schoolCategory=FAQCAT-002&viewId=956,0.00000000000,0.00000000000,Ar - Raudhah Mosque Kindergarten,,C4E71A65E3155471,2012/12/10,19395.52500000000,37085.38140000000
103.96243446983627,1.35501779293062,204,354,,1,520354,Tampines Street 33,A,530,MOE-registered Kindergarten,http://preschool.gov.sg/klink/klink/pview/kgt/kgtChildCareView.action?usraction=view&schoolCategory=FAQCAT-002&viewId=1005,0.00000000000,0.00000000000,Creative Twinkles Preschool,,3E5B1FD2A31E4FC3,2012/12/10,42369.13510000000,37456.88170000000
103.79892309312352,1.295481854651533,205,1,,,149603,Commonwealth Drive,,,MOE-registered Kindergarten,http://preschool.gov.sg/klink/klink/pview/kgt/kgtChildCareView.action?usraction=view&schoolCategory=FAQCAT-002&viewId=1006,0.00000000000,0.00000000000,Damien Centre Kindergarten,,9934762DADD5A88A,2012/12/10,24172.08390000000,30873.34630000000
103.94651255615307,1.372772219600711,206,570,,1,510570,Pasir Ris Street 53,A,64,MOE-registered Kindergarten,http://preschool.gov.sg/klink/klink/pview/kgt/kgtChildCareView.action?usraction=view&schoolCategory=FAQCAT-002&viewId=944,0.00000000000,0.00000000000,Al - Amin Preschool (Pasir Ris),,C62C86123004A08A,2012/12/10,40597.11180000000,39419.99100000000
103.92582078175072,1.329975696448459,207,161A,,,469753,Bedok North Avenue 1,,,MOE-registered Kindergarten,http://preschool.gov.sg/klink/klink/pview/kgt/kgtChildCareView.action?usraction=view&schoolCategory=FAQCAT-002&viewId=945,0.00000000000,0.00000000000,Al - Ansar Mosque Kindergarten,,91954F30DBAB590E,2012/12/10,38294.54710000000,34687.66480000000
103.78693533371869,1.435107732680302,208,900,Woodlands Civic Centre,5,730900,South Woodlands Drive,D,10,MOE-registered Kindergarten,http://preschool.gov.sg/klink/klink/pview/kgt/kgtChildCareView.action?usraction=view&schoolCategory=FAQCAT-002&viewId=1100,0.00000000000,0.00000000000,Kinderland Preschool (Woodlands),,47F41E3B6F01B3FC,2012/12/10,22838.24900000000,46312.49110000000
103.85442834869228,1.391048246491676,209,449,,,805946,Yio Chu Kang Road,,,MOE-registered Kindergarten,http://preschool.gov.sg/klink/klink/pview/kgt/kgtChildCareView.action?usraction=view&schoolCategory=FAQCAT-002&viewId=1101,0.00000000000,0.00000000000,Kinderland Preschool (Yio Chu Kang),,AC01C6A141839214,2012/12/10,30349.24100000000,41440.57370000000
103.81185039309132,1.319732868126189,210,98,,,259226,Farrer Road,,,MOE-registered Kindergarten,http://preschool.gov.sg/klink/klink/pview/kgt/kgtChildCareView.action?usraction=view&schoolCategory=FAQCAT-002&viewId=1109,0.00000000000,0.00000000000,Little Oaks Montessori Kindergarten,,71C4ED86B16B2E58,2012/12/10,25610.80210000000,33554.88290000000
103.77999753051532,1.313966230784624,211,58,,,278886,Holland Grove Drive,,,MOE-registered Kindergarten,http://preschool.gov.sg/klink/klink/pview/kgt/kgtChildCareView.action?usraction=view&schoolCategory=FAQCAT-002&viewId=3388,0.00000000000,0.00000000000,Little Ones Kindergarten,,66B86B00E8C6B55F,2012/12/10,22065.87750000000,32917.29080000000
103.8360804094393,1.420987631302764,212,609,,1,760609,Yishun Street 61,A,235,MOE-registered Kindergarten,http://preschool.gov.sg/klink/klink/pview/kgt/kgtChildCareView.action?usraction=view&schoolCategory=FAQCAT-002&viewId=780,0.00000000000,0.00000000000,PCF Nee Soon Central Blk 609,,2844A2729625058D,2012/12/10,28307.35170000000,44751.10920000000
103.83244747801427,1.428980654703958,213,737,,1,760737,Yishun Street 72,A,99,MOE-registered Kindergarten,http://preschool.gov.sg/klink/klink/pview/kgt/kgtChildCareView.action?usraction=view&schoolCategory=FAQCAT-002&viewId=782,0.00000000000,0.00000000000,PCF Nee Soon Central Blk 737-738,,F63525E84BA97857,2012/12/10,27903.05950000000,45634.93730000000
103.83668929190041,1.435118053152397,214,227,,1,760227,Yishun Street 21,A,520,MOE-registered Kindergarten,http://preschool.gov.sg/klink/klink/pview/kgt/kgtChildCareView.action?usraction=view&schoolCategory=FAQCAT-002&viewId=785,0.00000000000,0.00000000000,PCF Nee Soon East Blk 227-223-225-234,,DBAB1009E92F8F43,2012/12/10,28375.10920000000,46313.58020000000
103.84125207252377,1.431616445641571,215,312,,1,760312,Yishun Ring Road,A,1210,MOE-registered Kindergarten,http://preschool.gov.sg/klink/klink/pview/kgt/kgtChildCareView.action?usraction=view&schoolCategory=FAQCAT-002&viewId=786,0.00000000000,0.00000000000,PCF Nee Soon East Blk 312,,BCE11A32F3F86A8E,2012/12/10,28882.87870000000,45926.39130000000
103.84843008361231,1.426255730576313,216,408,,1,760408,Yishun Avenue 6,A,1264,MOE-registered Kindergarten,http://preschool.gov.sg/klink/klink/pview/kgt/kgtChildCareView.action?usraction=view&schoolCategory=FAQCAT-002&viewId=789,0.00000000000,0.00000000000,PCF Nee Soon East Blk 408,,F4822B82E03A8FAD,2012/12/10,29681.68740000000,45333.63440000000
103.832205705196,1.419976281619898,217,794,,1,760794,Yishun Ring Road,A,3460,MOE-registered Kindergarten,http://preschool.gov.sg/klink/klink/pview/kgt/kgtChildCareView.action?usraction=view&schoolCategory=FAQCAT-002&viewId=790,0.00000000000,0.00000000000,PCF Nee Soon South Blk 794,,9933A7E6CFAFA205,2012/12/10,27876.15330000000,44639.27910000000
103.82297923688473,1.305643669463288,218,56,,2,247964,Tanglin Road,,3,MOE-registered Kindergarten,http://preschool.gov.sg/klink/klink/pview/kgt/kgtChildCareView.action?usraction=view&schoolCategory=FAQCAT-002&viewId=1655,0.00000000000,0.00000000000,Wee Care Kindergarten,,E724E2E5B8C28A07,2012/08/26,26849.32650000000,31996.96380000000
103.85858359660959,1.314122013501994,219,1,,,209943,Beatty Road,,,MOE-registered Kindergarten,http://preschool.gov.sg/klink/klink/pview/kgt/kgtChildCareView.action?usraction=view&schoolCategory=FAQCAT-002&viewId=1085,0.00000000000,0.00000000000,Khalsa Kindergarten,,E58C6644ACFA8ABC,2012/12/10,30811.75420000000,32934.46730000000
103.87402058544271,1.350858943580859,220,587,,,534564,Upper Serangoon Road,,,MOE-registered Kindergarten,http://preschool.gov.sg/klink/klink/pview/kgt/kgtChildCareView.action?usraction=view&schoolCategory=FAQCAT-002&viewId=1099,0.00000000000,0.00000000000,Kinderland Preschool (Serangoon),,EA9D59AEFA235B0E,2012/12/10,32529.67620000000,36996.67250000000
103.88614272015649,1.300340110900003,221,716,,B1,437736,Mountbatten Road,,3,MOE-registered Kindergarten,http://preschool.gov.sg/klink/klink/pview/kgt/kgtChildCareView.action?usraction=view&schoolCategory=FAQCAT-002&viewId=1303,0.00000000000,0.00000000000,Etonhouse International Research Preschool,,AD9BBE919FECC717,2012/12/10,33878.85310000000,31410.58270000000
103.79729763077835,1.302607088409346,222,400,,,149604,Commonwealth Drive,,,MOE-registered Kindergarten,http://preschool.gov.sg/klink/klink/pview/kgt/kgtChildCareView.action?usraction=view&schoolCategory=FAQCAT-002&viewId=1026,0.00000000000,0.00000000000,Faith Kindergarten,,FFC2988410AF3E36,2012/12/10,23991.19540000000,31661.22060000000
103.83795022781916,1.315944902757374,223,9A,,,309063,Gilstead Road,,,MOE-registered Kindergarten,http://preschool.gov.sg/klink/klink/pview/kgt/kgtChildCareView.action?usraction=view&schoolCategory=FAQCAT-002&viewId=1027,0.00000000000,0.00000000000,Far Eastern Kindergarten,,6CDB23B2BCE23B33,2012/12/10,28515.45770000000,33136.01930000000
103.96033221783139,1.354757737842514,224,5,Tampines Mart,2,529284,Tampines Street 32,D,1,MOE-registered Kindergarten,http://preschool.gov.sg/klink/klink/pview/kgt/kgtChildCareView.action?usraction=view&schoolCategory=FAQCAT-002&viewId=1028,0.00000000000,0.00000000000,Fey Siang Kindergarten,,7B61DB362B09C99E,2012/12/10,42135.17940000000,37428.11370000000
103.88208887809537,1.315483618662329,225,52,,,389820,Aljunied Road,,,MOE-registered Kindergarten,http://preschool.gov.sg/klink/klink/pview/kgt/kgtChildCareView.action?usraction=view&schoolCategory=FAQCAT-002&viewId=1031,0.00000000000,0.00000000000,Geylang Chinese Methodist Kindergarten,,751F2BEB6C14CA33,2012/12/10,33427.66420000000,33085.06540000000
103.83832371998399,1.316692933714215,226,25,,,309070,Gilstead Road,,,MOE-registered Kindergarten,http://preschool.gov.sg/klink/klink/pview/kgt/kgtChildCareView.action?usraction=view&schoolCategory=FAQCAT-002&viewId=1038,0.00000000000,0.00000000000,Gracefields Kindergarten,,1D0F84756C142338,2012/12/10,28557.02360000000,33218.73280000000
103.87108853110774,1.34434235127697,227,476,,,534512,Upper Serangoon Road,,,MOE-registered Kindergarten,http://preschool.gov.sg/klink/klink/pview/kgt/kgtChildCareView.action?usraction=view&schoolCategory=FAQCAT-002&viewId=965,0.00000000000,0.00000000000,Bethel Kindergarten,,CF8BB5E7C1E199F6,2012/12/10,32203.38260000000,36276.09560000000
103.8373157666073,1.374708877337393,228,601,,,569898,Ang Mo Kio Avenue 4,,,MOE-registered Kindergarten,http://preschool.gov.sg/klink/klink/pview/kgt/kgtChildCareView.action?usraction=view&schoolCategory=FAQCAT-002&viewId=966,0.00000000000,0.00000000000,Bethesda (AMK) Kindergarten,,4F83187C3EBF429F,2012/12/10,28444.83770000000,39633.83910000000
103.86755234300024,1.349681045227959,229,114,,,556110,Serangoon Avenue 3,,,MOE-registered Kindergarten,http://preschool.gov.sg/klink/klink/pview/kgt/kgtChildCareView.action?usraction=view&schoolCategory=FAQCAT-002&viewId=968,0.00000000000,0.00000000000,Bethesda (Bukit Arang) Kindergarten,,EA7545247D6FA3F7,2012/12/10,31809.83520000000,36866.41540000000
103.81419757377455,1.281886752981676,230,10,,,109590,Depot Walk,,,MOE-registered Kindergarten,http://preschool.gov.sg/klink/klink/pview/kgt/kgtChildCareView.action?usraction=view&schoolCategory=FAQCAT-002&viewId=969,0.00000000000,0.00000000000,Bethesda (Depot Walk) Kindergarten,,7692538790505C7C,2012/12/10,25871.98850000000,29370.05210000000
103.91840941444993,1.316801315635719,231,2,,,456929,La Salle Street,,,MOE-registered Kindergarten,http://preschool.gov.sg/klink/klink/pview/kgt/kgtChildCareView.action?usraction=view&schoolCategory=FAQCAT-002&viewId=970,0.00000000000,0.00000000000,Bethesda (Katong) Kindergarten,,466A31FC9B844D9D,2012/12/10,37469.78720000000,33230.87810000000
103.80762413286408,1.29331605016487,232,53A,,1,143053,Strathmore Avenue,A,1,MOE-registered Kindergarten,http://preschool.gov.sg/klink/klink/pview/kgt/kgtChildCareView.action?usraction=view&schoolCategory=FAQCAT-002&viewId=838,0.00000000000,0.00000000000,PCF Queenstown Blk 53A,,CFFE2EEDCB306721,2012/09/06,25140.43100000000,30633.85130000000
103.88145009374206,1.31522161417242,233,46,Fansida Building,4,388375,Lorong 23 Geylang,D,46C,MOE-registered Kindergarten,http://preschool.gov.sg/klink/klink/pview/kgt/kgtChildCareView.action?usraction=view&schoolCategory=FAQCAT-002&viewId=1164,0.00000000000,0.00000000000,Raffles Montessori Kindergarten (Aljunied),,649226A4FDE0B624,2012/08/26,33356.57420000000,33056.09290000000
103.90776095587627,1.309847154929571,234,105,,,425080,Lorong Stangee,A,,MOE-registered Kindergarten,http://preschool.gov.sg/klink/klink/pview/kgt/kgtChildCareView.action?usraction=view&schoolCategory=FAQCAT-002&viewId=1165,0.00000000000,0.00000000000,Raffles Montessori Kindergarten (Telok Kurau),,6C106ABABA8430D6,2012/08/26,36284.73890000000,32461.88420000000
103.82532631733149,1.273372323014436,235,108,,1,90108,Bukit Purmei Road,A,105,MOE-registered Kindergarten,http://preschool.gov.sg/klink/klink/pview/kgt/kgtChildCareView.action?usraction=view&schoolCategory=FAQCAT-002&viewId=840,0.00000000000,0.00000000000,PCF Radin Mas Blk 108,,0206D325DCB3535D,2012/09/06,27110.52370000000,28428.56390000000
103.82089710931874,1.27663151637368,236,21,,1,90021,Telok Blangah Crescent,A,52,MOE-registered Kindergarten,http://preschool.gov.sg/klink/klink/pview/kgt/kgtChildCareView.action?usraction=view&schoolCategory=FAQCAT-002&viewId=841,0.00000000000,0.00000000000,PCF Radin Mas Blk 21,,3998EC779E5C436F,2012/09/06,26617.58920000000,28788.95060000000
103.81691461598462,1.286982816494634,237,70A,,7,151070,Redhill Close,A,1,MOE-registered Kindergarten,http://preschool.gov.sg/klink/klink/pview/kgt/kgtChildCareView.action?usraction=view&schoolCategory=FAQCAT-002&viewId=843,0.00000000000,0.00000000000,PCF Radin Mas Blk 70A,,435E892C900C5E50,2012/09/06,26174.37670000000,29933.54640000000
103.79770384419497,1.442509452811224,238,730,,1,730730,Woodlands Circle,A,25,MOE-registered Kindergarten,http://preschool.gov.sg/klink/klink/pview/kgt/kgtChildCareView.action?usraction=view&schoolCategory=FAQCAT-002&viewId=847,0.00000000000,0.00000000000,PCF Sembawang Blk 730,,BF354FB760364F64,2012/09/06,24036.63370000000,47130.91480000000
103.76778360874458,1.313746529650897,239,330,,1,120330,Clementi Avenue 2,A,170,MOE-registered Kindergarten,http://preschool.gov.sg/klink/klink/pview/kgt/kgtChildCareView.action?usraction=view&schoolCategory=FAQCAT-002&viewId=695,0.00000000000,0.00000000000,PCF Clementi Blk 330,,DF8449236ECFC574,2012/09/10,20706.58370000000,32893.02970000000
103.82625292209272,1.357319579542873,240,35,,,574141,Windsor Park Road,,,MOE-registered Kindergarten,http://preschool.gov.sg/klink/klink/pview/kgt/kgtChildCareView.action?usraction=view&schoolCategory=FAQCAT-002&viewId=1183,0.00000000000,0.00000000000,Singapore Montessori Kindergarten,,149EA17245B440EA,2012/08/26,27213.67390000000,37711.01990000000
103.74096975965504,1.378168244212877,241,295,,1,680295,Choa Chu Kang Avenue 2,A,169,MOE-registered Kindergarten,http://preschool.gov.sg/klink/klink/pview/kgt/kgtChildCareView.action?usraction=view&schoolCategory=FAQCAT-002&viewId=746,0.00000000000,0.00000000000,PCF Keat Hong Blk 295,,F3794CB45D5E72D0,2012/09/10,17722.72590000000,40016.55720000000
103.72128849960983,1.326761260134302,242,151,,B1,610151,Yung Ho Road,A,91,MOE-registered Kindergarten,http://preschool.gov.sg/klink/klink/pview/kgt/kgtChildCareView.action?usraction=view&schoolCategory=FAQCAT-002&viewId=1485,0.00000000000,0.00000000000,Smart Learning Kindergarten,,4368C22DA4EDA72B,2012/08/26,15532.18170000000,34332.31840000000
103.90240474048632,1.305745264783919,243,19,Sri Senpaga Vinayagar Temple,,429613,Ceylon Road,,,MOE-registered Kindergarten,http://preschool.gov.sg/klink/klink/pview/kgt/kgtChildCareView.action?usraction=view&schoolCategory=FAQCAT-002&viewId=1186,0.00000000000,0.00000000000,Sri Sathya Sai Kindergarten,,D87635AD1D386575,2012/08/26,35688.65450000000,32008.30090000000
103.87085401570124,1.356820243603509,244,226,,1,550226,Serangoon Avenue 4,A,149,MOE-registered Kindergarten,http://preschool.gov.sg/klink/klink/pview/kgt/kgtChildCareView.action?usraction=view&schoolCategory=FAQCAT-002&viewId=856,0.00000000000,0.00000000000,PCF Serangoon Blk 226,,59E5DBC2C1475672,2012/09/06,32177.26230000000,37655.83710000000
103.91186479711912,1.322787160366754,245,116,,1,410116,Lengkong Tiga,A,187,MOE-registered Kindergarten,http://preschool.gov.sg/klink/klink/pview/kgt/kgtChildCareView.action?usraction=view&schoolCategory=FAQCAT-002&viewId=741,0.00000000000,0.00000000000,PCF Kembangan-Chai Chee Blk 116,,8E129F241D7B05C5,2012/09/10,36741.41320000000,33892.73880000000
103.90078738778932,1.307810682198356,246,83,,,429740,Ceylon Road,,,MOE-registered Kindergarten,http://preschool.gov.sg/klink/klink/pview/kgt/kgtChildCareView.action?usraction=view&schoolCategory=FAQCAT-002&viewId=1192,0.00000000000,0.00000000000,St. Hilda's Church Kindergarten,,0C2BA17329477AEF,2012/08/26,35508.65180000000,32236.67940000000
103.88583509393249,1.308253386257976,247,51,,2,390051,Old Airport Road,A,1,MOE-registered Kindergarten,http://preschool.gov.sg/klink/klink/pview/kgt/kgtChildCareView.action?usraction=view&schoolCategory=FAQCAT-002&viewId=773,0.00000000000,0.00000000000,PCF Mountbatten Blk 51,,E972CA6ED2DBEED4,2012/09/10,33844.59880000000,32285.59160000000
103.81242409865814,1.30459490030122,248,29,,,249537,Harding Road,,,MOE-registered Kindergarten,http://preschool.gov.sg/klink/klink/pview/kgt/kgtChildCareView.action?usraction=view&schoolCategory=FAQCAT-002&viewId=1484,0.00000000000,0.00000000000,St. James00000e+000,,2CE4EB9BDE655789,2012/08/26,25674.63590000000,31881.00360000000
103.88196213434529,1.358474716985068,249,839,,,534682,Upper Serangoon Road,,,MOE-registered Kindergarten,http://preschool.gov.sg/klink/klink/pview/kgt/kgtChildCareView.action?usraction=view&schoolCategory=FAQCAT-002&viewId=1195,0.00000000000,0.00000000000,St. Paul's Church Kindergarten,,2ACAD83B7C224AD3,2012/08/26,33413.46470000000,37838.80240000000
103.87508886234082,1.373535819964331,250,536,,1,550536,Serangoon North Ave 4,A,187,MOE-registered Kindergarten,http://preschool.gov.sg/klink/klink/pview/kgt/kgtChildCareView.action?usraction=view&schoolCategory=FAQCAT-002&viewId=1196,0.00000000000,0.00000000000,St. Vincent De Paul Kindergarten,,C1FB8D07FA315A44,2012/08/26,32648.52000000000,39504.16860000000
103.79371845304398,1.337667746026535,251,200,,,287994,Turf Club Road,,,MOE-registered Kindergarten,http://preschool.gov.sg/klink/klink/pview/kgt/kgtChildCareView.action?usraction=view&schoolCategory=FAQCAT-002&viewId=1200,0.00000000000,0.00000000000,Swallows And Amazons Kindergarten,,6D792046B8092F57,2012/08/26,23621.00000000000,35399.80000000000
103.80355386360969,1.288990976868742,252,168A,,1,140168,Queensway,A,222,MOE-registered Kindergarten,http://preschool.gov.sg/klink/klink/pview/kgt/kgtChildCareView.action?usraction=view&schoolCategory=FAQCAT-002&viewId=2026,0.00000000000,0.00000000000,T United Montessori Plus Kindergarten,,4491A646F3BBA584,2012/08/26,24687.43970000000,30155.61190000000
103.72018453094182,1.339543916358164,253,352,,1,610352,Kang Ching Road,A,71,MOE-registered Kindergarten,http://preschool.gov.sg/klink/klink/pview/kgt/kgtChildCareView.action?usraction=view&schoolCategory=FAQCAT-002&viewId=859,0.00000000000,0.00000000000,PCF Taman Jurong Blk 352-355,,E9177667A97BA420,2012/09/06,15409.38590000000,35745.76740000000
103.89412168017977,1.371133182897366,254,806,,4,530806,Hougang Central,A,144,MOE-registered Kindergarten,http://preschool.gov.sg/klink/klink/pview/kgt/kgtChildCareView.action?usraction=view&schoolCategory=FAQCAT-002&viewId=1205,0.00000000000,0.00000000000,The Montessori Playroom Kindergarten,,2AFE23810473CFCC,2012/08/26,34766.64650000000,39238.54250000000
103.94767591317718,1.347542861625165,255,106,,1,521106,Tampines Street 11,A,339,MOE-registered Kindergarten,http://preschool.gov.sg/klink/klink/pview/kgt/kgtChildCareView.action?usraction=view&schoolCategory=FAQCAT-002&viewId=864,0.00000000000,0.00000000000,PCF Tampines Changkat Blk 106,,7F07248DBD9C0694,2012/09/06,40726.71160000000,36630.25780000000
103.90637002523977,1.304519861738527,256,145,,,449274,Marine Parade,,,MOE-registered Kindergarten,http://preschool.gov.sg/klink/klink/pview/kgt/kgtChildCareView.action?usraction=view&schoolCategory=FAQCAT-002&viewId=1212,0.00000000000,0.00000000000,Tung Ling Kindergarten,,C487A58CBA16F122,2012/08/26,36129.95840000000,31872.81450000000
103.7932789600124,1.328497603819572,257,35,,,277618,Lotus Avenue,,,MOE-registered Kindergarten,http://preschool.gov.sg/klink/klink/pview/kgt/kgtChildCareView.action?usraction=view&schoolCategory=FAQCAT-002&viewId=1213,0.00000000000,0.00000000000,United Educare Kindergarten,,C3924BB25F90CA25,2012/08/26,23543.99970000000,34524.06820000000
103.79994701895944,1.434775004182853,258,624B,,1,732624,Woodlands Drive 52,A,19,MOE-registered Kindergarten,http://preschool.gov.sg/klink/klink/pview/kgt/kgtChildCareView.action?usraction=view&schoolCategory=FAQCAT-002&viewId=622,0.00000000000,0.00000000000,PCF Admiralty Blk 624B,,28FE665EA162405F,2012/12/10,24286.25170000000,46275.67440000000
103.88077224645214,1.370683932631686,259,632,,1,530632,Hougang Avenue 8,A,28,MOE-registered Kindergarten,http://preschool.gov.sg/klink/klink/pview/kgt/kgtChildCareView.action?usraction=view&schoolCategory=FAQCAT-002&viewId=624,0.00000000000,0.00000000000,PCF Ang Mo Kio-Hougang Blk 632,,6A692D0E5315F665,2012/12/10,33281.01730000000,39188.83310000000
103.88154115798498,1.376129028242637,260,929,,1,530929,Hougang Street 91,A,127,MOE-registered Kindergarten,http://preschool.gov.sg/klink/klink/pview/kgt/kgtChildCareView.action?usraction=view&schoolCategory=FAQCAT-002&viewId=625,0.00000000000,0.00000000000,PCF Ang Mo Kio-Hougang Blk 929,,B4BF3ECCDF3950DC,2012/12/10,33366.57570000000,39790.92600000000
103.89600168980142,1.374899166006173,261,414,,1,530414,Hougang Avenue 10,A,1256,MOE-registered Kindergarten,http://preschool.gov.sg/klink/klink/pview/kgt/kgtChildCareView.action?usraction=view&schoolCategory=FAQCAT-002&viewId=634,0.00000000000,0.00000000000,PCF Bedok Reservoir-Punggol Blk 414,,1F3B4B9868E3D548,2012/12/10,34975.85790000000,39654.97140000000
103.9224918070247,1.336501306716287,262,713,,1,470713,Bedok Reservoir Road,A,3960,MOE-registered Kindergarten,http://preschool.gov.sg/klink/klink/pview/kgt/kgtChildCareView.action?usraction=view&schoolCategory=FAQCAT-002&viewId=636,0.00000000000,0.00000000000,PCF Bedok Reservoir-Punggol Blk 713,,4B31D5CBB7AACE01,2012/12/10,37924.03990000000,35409.22060000000
103.85331166714286,1.345935640472425,263,144,,1,570144,Bishan Street 12,A,554,MOE-registered Kindergarten,http://preschool.gov.sg/klink/klink/pview/kgt/kgtChildCareView.action?usraction=view&schoolCategory=FAQCAT-002&viewId=637,0.00000000000,0.00000000000,PCF Bishan East Blk 144,,21D77C9DA7C09016,2012/12/10,30225.01050000000,36452.25000000000
103.8458527275783,1.357281888780191,264,231,,1,570231,Bishan Street 23,A,21,MOE-registered Kindergarten,http://preschool.gov.sg/klink/klink/pview/kgt/kgtChildCareView.action?usraction=view&schoolCategory=FAQCAT-002&viewId=642,0.00000000000,0.00000000000,PCF Bishan North Blk 231,,B589E3DBCDE07130,2012/12/10,29394.90620000000,37706.85470000000
103.7072991037959,1.344801401484445,265,262,,1,640262,Boon Lay Drive,A,573,MOE-registered Kindergarten,http://preschool.gov.sg/klink/klink/pview/kgt/kgtChildCareView.action?usraction=view&schoolCategory=FAQCAT-002&viewId=645,0.00000000000,0.00000000000,PCF Boon Lay Blk 262,,4F69F84A906D8D68,2012/12/10,13975.40290000000,36327.18460000000
103.86707302090986,1.354629896901526,266,307,,1,550307,Serangoon Avenue 2,A,44,MOE-registered Kindergarten,http://preschool.gov.sg/klink/klink/pview/kgt/kgtChildCareView.action?usraction=view&schoolCategory=FAQCAT-002&viewId=649,0.00000000000,0.00000000000,PCF Braddell Heights Blk 307-235,,326C5644ACB58DEA,2012/12/10,31756.48440000000,37413.63350000000
103.75454851361948,1.350897139284734,267,241,,1,650241,Bukit Batok East Avenue 5,A,261,MOE-registered Kindergarten,http://preschool.gov.sg/klink/klink/pview/kgt/kgtChildCareView.action?usraction=view&schoolCategory=FAQCAT-002&viewId=654,0.00000000000,0.00000000000,PCF Bukit Batok East Blk 241,,7235A7C54CD6724D,2012/12/10,19233.77450000000,37001.00020000000
103.95189782841692,1.343769242980375,268,119,,1,520119,Simei Street 1,A,506,MOE-registered Kindergarten,http://preschool.gov.sg/klink/klink/pview/kgt/kgtChildCareView.action?usraction=view&schoolCategory=FAQCAT-002&viewId=677,0.00000000000,0.00000000000,PCF Changi Simei Blk 119,,5771110A239C2540,2012/12/10,41196.58520000000,36213.01190000000
103.95508081452236,1.345833465392362,269,141,,1,520141,Simei Street 2,A,74,MOE-registered Kindergarten,http://preschool.gov.sg/klink/klink/pview/kgt/kgtChildCareView.action?usraction=view&schoolCategory=FAQCAT-002&viewId=679,0.00000000000,0.00000000000,PCF Changi Simei Blk 141,,13CE8E7CCA1EC0D0,2012/12/10,41550.80620000000,36441.28100000000
103.73726711055041,1.37629196152202,270,484,,1,680484,Chua Chu Kang Avenue 5,A,10,MOE-registered Kindergarten,http://preschool.gov.sg/klink/klink/pview/kgt/kgtChildCareView.action?usraction=view&schoolCategory=FAQCAT-002&viewId=694,0.00000000000,0.00000000000,PCF Chua Chu Kang Blk 484-484A,,38D97A3F30490A6D,2012/12/10,17310.65840000000,39809.10340000000
103.91499284268853,1.331828941109222,271,616,,1,470616,Bedok Reservoir Road,A,1106,MOE-registered Kindergarten,http://preschool.gov.sg/klink/klink/pview/kgt/kgtChildCareView.action?usraction=view&schoolCategory=FAQCAT-002&viewId=700,0.00000000000,0.00000000000,PCF Eunos Blk 616,,0A1B12B2D3E2B4C2,2012/12/10,37089.50080000000,34892.54480000000
103.91468946247006,1.334209899218749,272,629,,1,470629,Bedok Reservoir Road,A,1634,MOE-registered Kindergarten,http://preschool.gov.sg/klink/klink/pview/kgt/kgtChildCareView.action?usraction=view&schoolCategory=FAQCAT-002&viewId=701,0.00000000000,0.00000000000,PCF Eunos Blk 629,,90A0374AACA9B32A,2012/12/10,37055.72900000000,35155.81810000000
103.89903361891014,1.318316210489583,273,412,,1,400412,Eunos Road 5,A,104,MOE-registered Kindergarten,http://preschool.gov.sg/klink/klink/pview/kgt/kgtChildCareView.action?usraction=view&schoolCategory=FAQCAT-002&viewId=744,0.00000000000,0.00000000000,PCF Geylang Serai Blk 412-413,,C088F174281946DE,2012/12/10,35313.44300000000,33398.32230000000
103.70440934973263,1.353445860113868,274,276D,,1,644276,Jurong West Street 25,A,11,MOE-registered Kindergarten,http://preschool.gov.sg/klink/klink/pview/kgt/kgtChildCareView.action?usraction=view&schoolCategory=FAQCAT-002&viewId=709,0.00000000000,0.00000000000,PCF Hong Kah North Blk 276D,,92017C72FBEA9942,2012/12/10,13653.85480000000,37283.06390000000
103.87006965046122,1.314252765094323,275,12,,1,380012,Upper Boon Keng Road,A,895,MOE-registered Kindergarten,http://preschool.gov.sg/klink/klink/pview/kgt/kgtChildCareView.action?usraction=view&schoolCategory=FAQCAT-002&viewId=717,0.00000000000,0.00000000000,PCF Jalan Besar Blk 12,,55C3112FDE03FB26,2012/12/10,32090.04180000000,32948.94100000000
103.69919136259678,1.347929902631894,276,750,,1,640750,Jurong West Street 73,A,169,MOE-registered Kindergarten,http://preschool.gov.sg/klink/klink/pview/kgt/kgtChildCareView.action?usraction=view&schoolCategory=FAQCAT-002&viewId=712,0.00000000000,0.00000000000,PCF Hong Kah North Blk 750-749,,DAC3DBF459506197,2012/12/10,13073.11690000000,36673.16730000000
103.86114257630622,1.308525145770727,277,806,,3,200806,King George's Avenue,A,222,MOE-registered Kindergarten,http://preschool.gov.sg/klink/klink/pview/kgt/kgtChildCareView.action?usraction=view&schoolCategory=FAQCAT-002&viewId=719,0.00000000000,0.00000000000,PCF Jalan Besar Blk 806,,7838C7EC2C98C5E8,2012/12/10,31096.55100000000,32315.59740000000
103.72723855957923,1.349584790254094,278,490,,1,640490,Jurong West Avenue 1,A,1,MOE-registered Kindergarten,http://preschool.gov.sg/klink/klink/pview/kgt/kgtChildCareView.action?usraction=view&schoolCategory=FAQCAT-002&viewId=728,0.00000000000,0.00000000000,PCF Jurong Central Blk 490,,C230E1F6BE2DBCD6,2012/12/10,16194.47330000000,36856.00270000000
103.85762958672021,1.372027384333377,279,556,,1,560556,Ang Mo Kio Avenue 10,A,1902,MOE-registered Kindergarten,http://preschool.gov.sg/klink/klink/pview/kgt/kgtChildCareView.action?usraction=view&schoolCategory=FAQCAT-002&viewId=721,0.00000000000,0.00000000000,PCF Jln Kayu Blk 556,,470723E4FCAA7938,2012/12/10,30705.51840000000,39337.34660000000
103.72062636278498,1.346303755236777,280,515,,1,640515,Jurong West Street 52,A,17,MOE-registered Kindergarten,http://preschool.gov.sg/klink/klink/pview/kgt/kgtChildCareView.action?usraction=view&schoolCategory=FAQCAT-002&viewId=646,0.00000000000,0.00000000000,PCF Jurong Spring Blk 515,,A06B2FECFEA055C9,2012/12/10,15458.59160000000,36493.23500000000
103.92805908570941,1.330874648566494,281,519,,1,460519,Bedok North Avenue 1,A,372,MOE-registered Kindergarten,http://preschool.gov.sg/klink/klink/pview/kgt/kgtChildCareView.action?usraction=view&schoolCategory=FAQCAT-002&viewId=729,0.00000000000,0.00000000000,PCF Kaki Bukit Blk 519-545,,9F243FABF4FCFA43,2012/12/10,38543.64380000000,34787.07590000000
103.74126015872133,1.381059764617968,282,411,,1,680411,Choa Chu Kang Avenue 3,A,359,MOE-registered Kindergarten,http://preschool.gov.sg/klink/klink/pview/kgt/kgtChildCareView.action?usraction=view&schoolCategory=FAQCAT-002&viewId=748,0.00000000000,0.00000000000,PCF Keat Hong Blk 411,,BA5AFD667E5B82ED,2012/12/10,17755.05610000000,40336.28600000000
103.92053416442316,1.324563723716247,283,59,,1,460059,Chai Chee Road,A,878,MOE-registered Kindergarten,http://preschool.gov.sg/klink/klink/pview/kgt/kgtChildCareView.action?usraction=view&schoolCategory=FAQCAT-002&viewId=733,0.00000000000,0.00000000000,PCF Kembangan-Chai Chee Blk 59,,775C15CB8A68544E,2012/12/10,37706.22140000000,34089.21450000000
103.76110991506746,1.307267158817264,284,702,,1,120702,West Coast Rd,A,347,MOE-registered Kindergarten,http://preschool.gov.sg/klink/klink/pview/kgt/kgtChildCareView.action?usraction=view&schoolCategory=FAQCAT-002&viewId=630,0.00000000000,0.00000000000,PCF West Coast Blk 702,,4CE29B1185BFC1A0,2012/12/10,19963.84430000000,32176.59410000000
103.85387072283636,1.328576930402446,285,105,,1,320105,Jalan Rajah,A,78,MOE-registered Kindergarten,http://preschool.gov.sg/klink/klink/pview/kgt/kgtChildCareView.action?usraction=view&schoolCategory=FAQCAT-002&viewId=770,0.00000000000,0.00000000000,PCF Whampoa Blk 105,,6286B7F1538B6628,2012/12/10,30287.24330000000,34532.81310000000
103.86101548386461,1.32108566167854,286,106,,1,322106,Towner Road,A,434,MOE-registered Kindergarten,http://preschool.gov.sg/klink/klink/pview/kgt/kgtChildCareView.action?usraction=view&schoolCategory=FAQCAT-002&viewId=716,0.00000000000,0.00000000000,PCF Whampoa Blk 106,,90DD1ECCBE50E580,2012/12/10,31082.39140000000,33704.47470000000
103.85682492431457,1.325922569605817,287,112,,1,321112,Whampoa Road,A,83,MOE-registered Kindergarten,http://preschool.gov.sg/klink/klink/pview/kgt/kgtChildCareView.action?usraction=view&schoolCategory=FAQCAT-002&viewId=908,0.00000000000,0.00000000000,PCF Whampoa Blk 112,,E35C7283D8C6A56A,2012/12/10,30616.01850000000,34239.31040000000
103.78192804136563,1.43597979032049,288,101,,1,730101,Woodlands Street 13,A,20,MOE-registered Kindergarten,http://preschool.gov.sg/klink/klink/pview/kgt/kgtChildCareView.action?usraction=view&schoolCategory=FAQCAT-002&viewId=764,0.00000000000,0.00000000000,PCF Woodgrove Blk 101,,846366C0E4BC376F,2012/12/10,22281.01540000000,46408.93080000000
103.79527450581473,1.436133959519824,289,899B,,1,731899,Woodlands Drive 50,A,276,MOE-registered Kindergarten,http://preschool.gov.sg/klink/klink/pview/kgt/kgtChildCareView.action?usraction=view&schoolCategory=FAQCAT-002&viewId=917,0.00000000000,0.00000000000,PCF Woodgrove Blk 899B,,35C5E4A64FEEA339,2012/12/10,23766.27430000000,46425.94900000000
103.79651723292916,1.438650316482904,290,601,,1,730601,Woodlands Drive 42,A,77,MOE-registered Kindergarten,http://preschool.gov.sg/klink/klink/pview/kgt/kgtChildCareView.action?usraction=view&schoolCategory=FAQCAT-002&viewId=910,0.00000000000,0.00000000000,PCF Woodlands Blk 601,,756EB9096D73EF80,2012/12/10,23904.57540000000,46704.19290000000
103.78883379957497,1.43911302923115,291,824,,1,730824,Woodlands Street 81,A,2,MOE-registered Kindergarten,http://preschool.gov.sg/klink/klink/pview/kgt/kgtChildCareView.action?usraction=view&schoolCategory=FAQCAT-002&viewId=913,0.00000000000,0.00000000000,PCF Woodlands Blk 824,,9D224270B5241F6D,2012/12/10,23049.52810000000,46755.37260000000
103.74604717962053,1.398627002933703,292,625,,1,680625,Choa Chu Kang Street 62,A,206,MOE-registered Kindergarten,http://preschool.gov.sg/klink/klink/pview/kgt/kgtChildCareView.action?usraction=view&schoolCategory=FAQCAT-002&viewId=921,0.00000000000,0.00000000000,PCF Yew Tee Blk 625,,381F075F893CB21A,2012/12/10,18287.86350000000,42278.76430000000
103.75198722357142,1.401962043170922,293,690D,,1,684690,Choa Chu Kang Crescent,A,74,MOE-registered Kindergarten,http://preschool.gov.sg/klink/klink/pview/kgt/kgtChildCareView.action?usraction=view&schoolCategory=FAQCAT-002&viewId=923,0.00000000000,0.00000000000,PCF Yew Tee Blk 690D-690C,,28D56E06BED24126,2012/12/10,18948.92400000000,42647.51280000000
103.83725202416369,1.378299307456032,294,611,,1,560611,Ang Mo Kio Avenue 5,A,2795,MOE-registered Kindergarten,http://preschool.gov.sg/klink/klink/pview/kgt/kgtChildCareView.action?usraction=view&schoolCategory=FAQCAT-002&viewId=927,0.00000000000,0.00000000000,PCF Yio Chu Kang Blk 611,,700EC6B40B0BC57C,2012/12/10,28437.74330000000,40030.85060000000
103.84094142327569,1.379148676435007,295,644,,1,560644,Ang Mo Kio Avenue 4,A,850,MOE-registered Kindergarten,http://preschool.gov.sg/klink/klink/pview/kgt/kgtChildCareView.action?usraction=view&schoolCategory=FAQCAT-002&viewId=928,0.00000000000,0.00000000000,PCF Yio Chu Kang Blk 644,,F195A99C68B86C00,2012/12/10,28848.32700000000,40124.77050000000
103.76555111284792,1.385028645355903,296,528,,1,670528,Jelapang Road,A,79,MOE-registered Kindergarten,http://preschool.gov.sg/klink/klink/pview/kgt/kgtChildCareView.action?usraction=view&schoolCategory=FAQCAT-002&viewId=933,0.00000000000,0.00000000000,PCF Zhenghua Blk 528-526-532,,4FB300F5EA6D7AF3,2012/12/10,20458.34770000000,40775.05410000000
103.83612079860733,1.414437491614527,297,879,,1,760879,Yishun Street 81,A,243,MOE-registered Kindergarten,http://preschool.gov.sg/klink/klink/pview/kgt/kgtChildCareView.action?usraction=view&schoolCategory=FAQCAT-002&viewId=794,0.00000000000,0.00000000000,PCF Nee Soon South Blk 879-852-874-875,,60178D7C5D838DC3,2012/12/10,28311.84730000000,44026.82780000000
103.96091153616081,1.369022597572159,298,216,,1,510216,Pasir Ris Street 21,A,184,MOE-registered Kindergarten,http://preschool.gov.sg/klink/klink/pview/kgt/kgtChildCareView.action?usraction=view&schoolCategory=FAQCAT-002&viewId=798,0.00000000000,0.00000000000,PCF Pasir Ris East Blk 216-213,,5F30A54556900F28,2012/12/10,42199.56760000000,39005.45650000000
103.94384967343217,1.37468756418868,299,517,,1,510517,Pasir Ris Street 52,A,57,MOE-registered Kindergarten,http://preschool.gov.sg/klink/klink/pview/kgt/kgtChildCareView.action?usraction=view&schoolCategory=FAQCAT-002&viewId=800,0.00000000000,0.00000000000,PCF Pasir Ris West Blk 517-511,,1B61C5EE83B75430,2012/12/10,40300.75520000000,39631.76660000000
103.70339473562839,1.337023014340555,300,662B,,1,642662,Jurong West Street 64,A,312,MOE-registered Kindergarten,http://preschool.gov.sg/klink/klink/pview/kgt/kgtChildCareView.action?usraction=view&schoolCategory=FAQCAT-002&viewId=812,0.00000000000,0.00000000000,PCF Pioneer Blk 662B,,C7E0072E4A5B4145,2012/12/10,13540.84280000000,35467.11090000000
103.70327859129137,1.339933765652611,301,665A,,1,641665,Jurong West Street 64,A,160,MOE-registered Kindergarten,http://preschool.gov.sg/klink/klink/pview/kgt/kgtChildCareView.action?usraction=view&schoolCategory=FAQCAT-002&viewId=813,0.00000000000,0.00000000000,PCF Pioneer Blk 665A-665B,,B87996B3EB57BF72,2012/12/10,13527.93420000000,35788.96840000000
103.89674656814826,1.386468566357289,302,206A,,1,541206,Compassvale Lane,A,67,MOE-registered Kindergarten,http://preschool.gov.sg/klink/klink/pview/kgt/kgtChildCareView.action?usraction=view&schoolCategory=FAQCAT-002&viewId=816,0.00000000000,0.00000000000,PCF Punggol Central Blk 206A-206D,,0215A1E070FCF302,2012/12/10,35058.71960000000,40934.25990000000
103.9012115841907,1.382454627699664,303,103,,1,540103,Rivervale Walk,A,86,MOE-registered Kindergarten,http://preschool.gov.sg/klink/klink/pview/kgt/kgtChildCareView.action?usraction=view&schoolCategory=FAQCAT-002&viewId=822,0.00000000000,0.00000000000,PCF Punggol East Blk 103,,1D4F198F51560D51,2012/12/10,35555.63140000000,40490.43240000000
103.90998736669594,1.397494007758028,304,174D,,1,824174,Edgedale Plains,A,193,MOE-registered Kindergarten,http://preschool.gov.sg/klink/klink/pview/kgt/kgtChildCareView.action?usraction=view&schoolCategory=FAQCAT-002&viewId=830,0.00000000000,0.00000000000,PCF Punggol North Blk 174D-176D,,4276952FB37206A9,2012/12/10,36532.21140000000,42153.44200000000
103.89450939189473,1.382315604991262,305,277B,,1,542277,Compassvale Link,A,264,MOE-registered Kindergarten,http://preschool.gov.sg/klink/klink/pview/kgt/kgtChildCareView.action?usraction=view&schoolCategory=FAQCAT-002&viewId=831,0.00000000000,0.00000000000,PCF Punggol South Blk 277B,,B27D9E200A337C57,2012/12/10,34809.76240000000,40475.03970000000
103.90576368817001,1.403778373462334,306,303A,,1,821303,Punggol Central,A,782,MOE-registered Kindergarten,http://preschool.gov.sg/klink/klink/pview/kgt/kgtChildCareView.action?usraction=view&schoolCategory=FAQCAT-002&viewId=821,0.00000000000,0.00000000000,PCF Punggol West Blk 303A,,003BF3071F89EB3A,2012/12/10,36062.15070000000,42848.32100000000
103.92526368145727,1.307392339221546,307,9,Mandarin Gardens Condominium,,448910,Siglap Road,,,MOE-registered Kindergarten,http://preschool.gov.sg/klink/klink/pview/kgt/kgtChildCareView.action?usraction=view&schoolCategory=FAQCAT-002&viewId=1120,0.00000000000,0.00000000000,Mandarin Gardens Kindergarten,,62278145045A441B,2012/12/10,38232.63970000000,32190.50760000000
103.80832562404532,1.308930326291935,308,49B,,,258851,Holland Road,,,MOE-registered Kindergarten,http://preschool.gov.sg/klink/klink/pview/kgt/kgtChildCareView.action?usraction=view&schoolCategory=FAQCAT-002&viewId=1122,0.00000000000,0.00000000000,Maris Stella Kindergarten,,263DF41F9D2F7243,2012/12/10,25218.51800000000,32360.39690000000
103.75000549312331,1.382629028404651,309,1,,,688847,Teck Whye Crescent,,,MOE-registered Kindergarten,http://preschool.gov.sg/klink/klink/pview/kgt/kgtChildCareView.action?usraction=view&schoolCategory=FAQCAT-002&viewId=949,0.00000000000,0.00000000000,Al - Khair Mosque Kindergarten,,1E8F2FC02B9DD975,2013/02/25,18728.30860000000,40509.77150000000
103.76174353405061,1.385879521531264,310,620,,1,670620,Bukit Panjang Ring Road,A,828,MOE-registered Kindergarten,http://preschool.gov.sg/klink/klink/pview/kgt/kgtChildCareView.action?usraction=view&schoolCategory=FAQCAT-002&viewId=934,0.00000000000,0.00000000000,PCF Zhenghua Blk 620-615-619,,D79AFB8AA271AC62,2012/12/10,20034.61550000000,40869.15220000000
103.93296843705372,1.345204578194991,311,21,Temasek Polytechnic,,529757,Tampines Avenue 1,,,MOE-registered Kindergarten,http://preschool.gov.sg/klink/klink/pview/kgt/kgtChildCareView.action?usraction=view&schoolCategory=FAQCAT-002&viewId=1489,0.00000000000,0.00000000000,Preschool Learning Academy @ Temasek Polytechnic,,99B513D0881CFD17,2012/12/10,39089.94030000000,36371.63010000000
103.8075226265744,1.295067347853244,312,2,,,149454,Dundee Road,,,MOE-registered Kindergarten,http://preschool.gov.sg/klink/klink/pview/kgt/kgtChildCareView.action?usraction=view&schoolCategory=FAQCAT-002&viewId=1161,0.00000000000,0.00000000000,Queenstown Good Shepherd Kindergarten,,F0FF6A2619CCE50C,2012/12/10,25129.13620000000,30827.50090000000
103.79929050261933,1.306235241716362,313,709,,,149601,Commonwealth Drive,,,MOE-registered Kindergarten,http://preschool.gov.sg/klink/klink/pview/kgt/kgtChildCareView.action?usraction=view&schoolCategory=FAQCAT-002&viewId=1162,0.00000000000,0.00000000000,Queenstown Lutheran Church Kindergarten,,23E88B2CB55943DF,2012/12/10,24212.98940000000,32062.40010000000
103.88051191443344,1.343789472434551,314,179,,,539784,Bartley Road,,,MOE-registered Kindergarten,http://preschool.gov.sg/klink/klink/pview/kgt/kgtChildCareView.action?usraction=view&schoolCategory=FAQCAT-002&viewId=1167,0.00000000000,0.00000000000,Ramakrishna Mission Sarada Kindergarten,,D261AE3C4C619830,2012/12/10,33252.10350000000,36214.97930000000
103.94144113832499,1.318406165731243,315,75,Lucky Court,,467625,Lucky Heights,,,MOE-registered Kindergarten,http://preschool.gov.sg/klink/klink/pview/kgt/kgtChildCareView.action?usraction=view&schoolCategory=FAQCAT-002&viewId=1169,0.00000000000,0.00000000000,Ripples Montessori Kindergarten,,7FC92DA76D7120D2,2012/12/10,40032.99040000000,33408.43380000000
103.85762353195618,1.291039802503904,316,6,Marina Square,3,39594,Raffles Boulevard,D,115,MOE-registered Kindergarten,http://preschool.gov.sg/klink/klink/pview/kgt/kgtChildCareView.action?usraction=view&schoolCategory=FAQCAT-002&viewId=1171,0.00000000000,0.00000000000,Rosemary Hall Montessori Kindergarten,,B42332D1D4AC8FD7,2012/12/10,30704.93280000000,30382.15400000000
103.88643973529712,1.392214078962393,317,31,,,545056,Anchorvale Road,,,MOE-registered Kindergarten,http://preschool.gov.sg/klink/klink/pview/kgt/kgtChildCareView.action?usraction=view&schoolCategory=FAQCAT-002&viewId=1177,0.00000000000,0.00000000000,Sengkang Methodist Children Centre,,5D1B8AD1F517A2A8,2012/12/10,33911.68700000000,41569.54160000000
103.9053182553446,1.306465869329538,318,252,,2,423731,Tembeling Road,,7,MOE-registered Kindergarten,http://preschool.gov.sg/klink/klink/pview/kgt/kgtChildCareView.action?usraction=view&schoolCategory=FAQCAT-002&viewId=3883,0.00000000000,0.00000000000,Seeds D0000000e+000,,F12B0C8C2153D1D2,2012/12/10,36012.89980000000,32087.99080000000
103.95817933709178,1.378489753959445,319,4,,,509025,Loyang Besar Close,,,MOE-registered Kindergarten,http://preschool.gov.sg/klink/klink/pview/kgt/kgtChildCareView.action?usraction=view&schoolCategory=FAQCAT-002&viewId=1179,0.00000000000,0.00000000000,Shalom Kindergarten,,25FE5F52346FF92E,2012/12/10,41895.45140000000,40052.27300000000
103.93679676851949,1.383115926102539,320,716,,1,510716,Pasir Ris Street 72,A,9,MOE-registered Kindergarten,http://preschool.gov.sg/klink/klink/pview/kgt/kgtChildCareView.action?usraction=view&schoolCategory=FAQCAT-002&viewId=1184,0.00000000000,0.00000000000,Smart Junior Kindergarten,,1518C25DDCB46C99,2012/12/10,39515.81200000000,40563.69840000000
103.94336018444395,1.344641307812535,321,7,,,528888,Tampines Street 92,,,MOE-registered Kindergarten,http://preschool.gov.sg/klink/klink/pview/kgt/kgtChildCareView.action?usraction=view&schoolCategory=FAQCAT-002&viewId=1185,0.00000000000,0.00000000000,Soka Kindergarten,,D6518017BE760CE5,2012/12/10,40246.43240000000,36309.39610000000
103.74574314903865,1.385123429448202,322,309,Choa Chu Kang Centre,4,680309,Choa Chu Kang Avenue 4,D,7,MOE-registered Kindergarten,http://preschool.gov.sg/klink/klink/pview/kgt/kgtChildCareView.action?usraction=view&schoolCategory=FAQCAT-002&viewId=955,0.00000000000,0.00000000000,Metamorphosis Kindergarten,,BF250C211916BB26,2012/12/10,18253.97350000000,40785.60710000000
103.89067045031722,1.299790299054926,323,11,,,439476,Broadrick Road,,,MOE-registered Kindergarten,http://preschool.gov.sg/klink/klink/pview/kgt/kgtChildCareView.action?usraction=view&schoolCategory=FAQCAT-002&viewId=1126,0.00000000000,0.00000000000,MFC Kindergarten (Broadrick Road),,1B3C6F32FF56E11C,2012/12/10,34382.75040000000,31349.79830000000
103.84129335602728,1.318028072973856,324,43,,,307970,Newton Road,,,MOE-registered Kindergarten,http://preschool.gov.sg/klink/klink/pview/kgt/kgtChildCareView.action?usraction=view&schoolCategory=FAQCAT-002&viewId=1127,0.00000000000,0.00000000000,MFC Kindergarten (Newton),,482FBCEA63FB58F2,2012/12/10,28887.51480000000,33366.36650000000
103.94198910013969,1.378570261436239,325,625,,2,510625,Elias Road,A,330,MOE-registered Kindergarten,http://preschool.gov.sg/klink/klink/pview/kgt/kgtChildCareView.action?usraction=view&schoolCategory=FAQCAT-002&viewId=1130,0.00000000000,0.00000000000,Monte Kidz World (Pasir Ris),,D954CB3FCE0A9DA4,2012/12/10,40093.67640000000,40061.08680000000
103.79071864706663,1.332168772552925,326,886,,,278685,Old Holland Road,,,MOE-registered Kindergarten,http://preschool.gov.sg/klink/klink/pview/kgt/kgtChildCareView.action?usraction=view&schoolCategory=FAQCAT-002&viewId=1131,0.00000000000,0.00000000000,Montessori Children's House Kindergarten,,33853273C813AA47,2012/12/10,23259.07000000000,34930.01210000000
103.95428187839107,1.377599396546075,327,1,Pasir Ris NTUC Resort,1,519599,Pasir Ris Close,,4,MOE-registered Kindergarten,http://preschool.gov.sg/klink/klink/pview/kgt/kgtChildCareView.action?usraction=view&schoolCategory=FAQCAT-002&viewId=1132,0.00000000000,0.00000000000,MRC Kindergarten (Downtown East),,F2238B02FA071AEF,2012/12/10,41461.71700000000,39953.79920000000
103.80095202406945,1.298130577602666,328,590,,,148952,Stirling Road,,,MOE-registered Kindergarten,http://preschool.gov.sg/klink/klink/pview/kgt/kgtChildCareView.action?usraction=view&schoolCategory=FAQCAT-002&viewId=1136,0.00000000000,0.00000000000,Mujahidin Mosque Kindergarten,,390261579AB00016,2012/12/10,24397.88990000000,31166.22550000000
103.80679357809547,1.31811850563865,329,82,,,266774,Queen's Road,A,,MOE-registered Kindergarten,http://preschool.gov.sg/klink/klink/pview/kgt/kgtChildCareView.action?usraction=view&schoolCategory=FAQCAT-002&viewId=1137,0.00000000000,0.00000000000,My Montessori My World Kindergarten,,CA543FE9A87A1849,2012/12/10,25048.02640000000,33376.38040000000
103.80832028105495,1.273653914937053,330,78B,,2,102078,Telok Blangah Street 32,A,17,MOE-registered Kindergarten,http://preschool.gov.sg/klink/klink/pview/kgt/kgtChildCareView.action?usraction=view&schoolCategory=FAQCAT-002&viewId=1139,0.00000000000,0.00000000000,Nanyang Children Skool,,38A4F86092909647,2012/12/10,25217.88500000000,28459.71300000000
103.89768488616573,1.374158614405353,331,98,,,538791,Hougang Avenue 8,,,MOE-registered Kindergarten,http://preschool.gov.sg/klink/klink/pview/kgt/kgtChildCareView.action?usraction=view&schoolCategory=FAQCAT-002&viewId=1141,0.00000000000,0.00000000000,Nativity Church Kindergarten,,8D16719E45050C2F,2012/12/10,35163.17920000000,39573.08990000000
103.86390754594309,1.389107767598425,332,357,,,805939,Yio Chu Kang Road,,,MOE-registered Kindergarten,http://preschool.gov.sg/klink/klink/pview/kgt/kgtChildCareView.action?usraction=view&schoolCategory=FAQCAT-002&viewId=1147,0.00000000000,0.00000000000,P & J Kindergarten,,60A7FDDF48EAB71D,2012/12/10,31404.15440000000,41226.01690000000
103.96142996536896,1.343620315781968,333,30,,,488306,Jalan Pergam,,,MOE-registered Kindergarten,http://preschool.gov.sg/klink/klink/pview/kgt/kgtChildCareView.action?usraction=view&schoolCategory=FAQCAT-002&viewId=1148,0.00000000000,0.00000000000,Paper Scissors Stone Montessori Kindergarten,,3C3003CDA5DEEB00,2012/12/10,42257.41130000000,36196.59780000000
103.8756356346984,1.352663655028891,334,5,,,549954,Boundary Road,,,MOE-registered Kindergarten,http://preschool.gov.sg/klink/klink/pview/kgt/kgtChildCareView.action?usraction=view&schoolCategory=FAQCAT-002&viewId=1151,0.00000000000,0.00000000000,Paya Lebar Methodist Church Covenant Kindergarten,,074DF5CF27125075,2012/12/10,32709.40960000000,37196.23140000000
103.88039006073275,1.316662118757763,335,52,,1,380052,Sims Place,A,138,MOE-registered Kindergarten,http://preschool.gov.sg/klink/klink/pview/kgt/kgtChildCareView.action?usraction=view&schoolCategory=FAQCAT-002&viewId=754,0.00000000000,0.00000000000,PCF Kolam Ayer Blk 52,,5AE94CC13AB429C0,2012/12/10,33238.59970000000,33215.37430000000
103.88516879013912,1.31901275198097,336,108,,1,380108,Aljunied Cres,A,36,MOE-registered Kindergarten,http://preschool.gov.sg/klink/klink/pview/kgt/kgtChildCareView.action?usraction=view&schoolCategory=FAQCAT-002&viewId=759,0.00000000000,0.00000000000,PCF Macpherson Blk 108-107,,6980755B76088FFF,2012/12/10,33770.42070000000,33475.30590000000
103.91265960278834,1.305104747436415,337,46,,1,440046,Marine Crescent,A,42,MOE-registered Kindergarten,http://preschool.gov.sg/klink/klink/pview/kgt/kgtChildCareView.action?usraction=view&schoolCategory=FAQCAT-002&viewId=762,0.00000000000,0.00000000000,PCF Marine Parade Blk 46-47,,CC8663F065B68815,2012/12/10,36829.92930000000,31937.50940000000
103.77442748633685,1.431512146608896,338,302,,1,730302,Woodlands Street 31,A,303,MOE-registered Kindergarten,http://preschool.gov.sg/klink/klink/pview/kgt/kgtChildCareView.action?usraction=view&schoolCategory=FAQCAT-002&viewId=765,0.00000000000,0.00000000000,PCF Marsiling Blk 302,,E6247BAE2FDC4E70,2012/12/10,21446.30480000000,45914.94110000000
103.78045773146883,1.430046773570768,339,334,,1,730334,Woodlands Street 32,A,13,MOE-registered Kindergarten,http://preschool.gov.sg/klink/klink/pview/kgt/kgtChildCareView.action?usraction=view&schoolCategory=FAQCAT-002&viewId=767,0.00000000000,0.00000000000,PCF Marsiling Blk 334,,C2AFA7530E2195B1,2012/12/10,22117.37710000000,45752.89110000000
103.85221391187252,1.313920876119685,340,10,,1,210010,Gloucester Road,A,33,MOE-registered Kindergarten,http://preschool.gov.sg/klink/klink/pview/kgt/kgtChildCareView.action?usraction=view&schoolCategory=FAQCAT-002&viewId=769,0.00000000000,0.00000000000,PCF Moulmein Blk 10,,741F3EA8D1975A6C,2012/12/10,30102.86950000000,32912.22030000000
103.69341984619061,1.346168230950045,341,825,,1,640825,Jurong West Street 81,A,414,MOE-registered Kindergarten,http://preschool.gov.sg/klink/klink/pview/kgt/kgtChildCareView.action?usraction=view&schoolCategory=FAQCAT-002&viewId=777,0.00000000000,0.00000000000,PCF Nanyang Blk 825,,CE14E4BE2CE4EE17,2012/12/10,12430.79820000000,36478.40620000000
103.84512144609862,1.429591970757333,342,367,,1,760367,Yishun Ring Road,A,1534,MOE-registered Kindergarten,http://preschool.gov.sg/klink/klink/pview/kgt/kgtChildCareView.action?usraction=view&schoolCategory=FAQCAT-002&viewId=787,0.00000000000,0.00000000000,PCF Nee Soon Central Blk 367,,D7FEF9098E648B35,2012/12/10,29313.48300000000,45702.53690000000
103.80087092541301,1.445392351077672,343,786B,,1,732786,Woodlands Drive 60,A,97,MOE-registered Kindergarten,http://preschool.gov.sg/klink/klink/pview/kgt/kgtChildCareView.action?usraction=view&schoolCategory=FAQCAT-002&viewId=849,0.00000000000,0.00000000000,PCF Sembawang Blk 786B,,D0DDA57F401848E2,2012/12/10,24389.08520000000,47449.68600000000
103.80237659838829,1.443333034179435,344,789,,1,730789,Woodlands Avenue 6,A,663,MOE-registered Kindergarten,http://preschool.gov.sg/klink/klink/pview/kgt/kgtChildCareView.action?usraction=view&schoolCategory=FAQCAT-002&viewId=850,0.00000000000,0.00000000000,PCF Sembawang Blk 789-797-788,,19B6290694F9FFE4,2012/12/10,24556.63990000000,47221.97470000000
103.8723997583223,1.366530620000473,345,125,,1,550125,Serangoon North Avenue 1,A,133,MOE-registered Kindergarten,http://preschool.gov.sg/klink/klink/pview/kgt/kgtChildCareView.action?usraction=view&schoolCategory=FAQCAT-002&viewId=854,0.00000000000,0.00000000000,PCF Serangoon Blk 125,,5D49D7DF53A5DF62,2012/12/10,32349.26830000000,38729.56400000000
103.87555752884342,1.377492734258462,346,7030,NorthStar @ AMK,1,569880,Ang Mo Kio Avenue 5,,45,MOE-registered Kindergarten,http://preschool.gov.sg/klink/klink/pview/kgt/kgtChildCareView.action?usraction=view&schoolCategory=FAQCAT-002&viewId=3499,0.00000000000,0.00000000000,The Little Language League,,795641B216D40236,2012/12/10,32700.66910000000,39941.70510000000
103.84646245723859,1.334057654654896,347,480,,,319641,Lorong 2 Toa Payoh,,,MOE-registered Kindergarten,http://preschool.gov.sg/klink/klink/pview/kgt/kgtChildCareView.action?usraction=view&schoolCategory=FAQCAT-002&viewId=1207,0.00000000000,0.00000000000,Toa Payoh Methodist Church Kindergarten,,1809F5B99D1D2D23,2012/12/10,29462.77590000000,35138.83790000000
103.90334719830669,1.304361505424113,348,46,EastGate,1,428766,East Coast Road,,3,MOE-registered Kindergarten,http://preschool.gov.sg/klink/klink/pview/kgt/kgtChildCareView.action?usraction=view&schoolCategory=FAQCAT-002&viewId=1649,0.00000000000,0.00000000000,Two By Two Schoolhouse,,2E52F38D057E5559,2012/12/10,35793.54570000000,31855.29470000000
103.86954079815811,1.363798054667023,349,34,,,555940,Serangoon Garden Way,,,MOE-registered Kindergarten,http://preschool.gov.sg/klink/klink/pview/kgt/kgtChildCareView.action?usraction=view&schoolCategory=FAQCAT-002&viewId=1210,0.00000000000,0.00000000000,Trinity Methodist Church Kindergarten,,5E8A473183961F0D,2012/12/10,32031.10470000000,38427.40580000000
103.92288132048085,1.312715436873763,350,54,,,459839,Burnfoot Terrace,,,MOE-registered Kindergarten,http://preschool.gov.sg/klink/klink/pview/kgt/kgtChildCareView.action?usraction=view&schoolCategory=FAQCAT-002&viewId=1231,0.00000000000,0.00000000000,Zoo-Phonics Kindergarten,,CF4193AB143E8738,2012/12/10,37967.48370000000,32779.09950000000
103.81967522888124,1.453968194925258,351,511,,2,750511,Canberra Road,A,1,MOE-registered Kindergarten,http://preschool.gov.sg/klink/klink/pview/kgt/kgtChildCareView.action?usraction=view&schoolCategory=FAQCAT-002&viewId=1234,0.00000000000,0.00000000000,Zulfa Kindergarten @ Sembawang Mart,,B8757D599A18BE2D,2012/12/10,26481.71500000000,48397.93860000000
103.72149391775709,1.329580044640817,352,161,,1,610161,Yung Ping Road,A,35,MOE-registered Kindergarten,http://preschool.gov.sg/klink/klink/pview/kgt/kgtChildCareView.action?usraction=view&schoolCategory=FAQCAT-002&viewId=858,0.00000000000,0.00000000000,PCF Taman Jurong Blk 161,,1E0C634B841EA5D4,2012/12/10,15555.05680000000,34644.00470000000
103.93533628987437,1.3569723430454,353,725,,1,520725,Tampines Street 71,A,179,MOE-registered Kindergarten,http://preschool.gov.sg/klink/klink/pview/kgt/kgtChildCareView.action?usraction=view&schoolCategory=FAQCAT-002&viewId=861,0.00000000000,0.00000000000,PCF Tampines Central Blk 725,,88CBFD799FB28579,2012/12/10,39353.40210000000,37672.86240000000
103.9509755883077,1.353766514584786,354,262,,1,520262,Tampines Street 21,A,272,MOE-registered Kindergarten,http://preschool.gov.sg/klink/klink/pview/kgt/kgtChildCareView.action?usraction=view&schoolCategory=FAQCAT-002&viewId=869,0.00000000000,0.00000000000,PCF Tampines East Blk 262,,ECFA9EBAC5172B75,2012/12/10,41093.89630000000,37318.45650000000
103.95852977905248,1.354960044012121,355,385,,1,520385,Tampines Street 32,A,53,MOE-registered Kindergarten,http://preschool.gov.sg/klink/klink/pview/kgt/kgtChildCareView.action?usraction=view&schoolCategory=FAQCAT-002&viewId=871,0.00000000000,0.00000000000,PCF Tampines East Blk 385,,79EFAB25197D0B9C,2012/12/10,41934.58690000000,37450.47330000000
103.95268710139204,1.361435303342168,356,483,,1,520483,Tampines Street 43,A,202,MOE-registered Kindergarten,http://preschool.gov.sg/klink/klink/pview/kgt/kgtChildCareView.action?usraction=view&schoolCategory=FAQCAT-002&viewId=874,0.00000000000,0.00000000000,PCF Tampines North Blk 483,,7D5D500FF0D5CB5E,2012/12/10,41284.32680000000,38166.44320000000
103.94381621317723,1.347575100519925,357,140,,1,520140,Tampines Street 12,A,426,MOE-registered Kindergarten,http://preschool.gov.sg/klink/klink/pview/kgt/kgtChildCareView.action?usraction=view&schoolCategory=FAQCAT-002&viewId=876,0.00000000000,0.00000000000,PCF Tampines West Blk 140-938,,755F02888A4D29A0,2012/12/10,40297.16880000000,36633.80280000000
103.84590409631991,1.367421759656007,358,301,,1,560301,Ang Mo Kio Street 31,A,1814,MOE-registered Kindergarten,http://preschool.gov.sg/klink/klink/pview/kgt/kgtChildCareView.action?usraction=view&schoolCategory=FAQCAT-002&viewId=884,0.00000000000,0.00000000000,PCF Teck Ghee Blk 301,,9BF37A10766E7597,2012/12/10,29400.61710000000,38828.07000000000
103.85365837950506,1.364442532265638,359,415,,1,560415,Ang Mo Kio Avenue 10,A,967,MOE-registered Kindergarten,http://preschool.gov.sg/klink/klink/pview/kgt/kgtChildCareView.action?usraction=view&schoolCategory=FAQCAT-002&viewId=887,0.00000000000,0.00000000000,PCF Teck Ghee Blk 415,,FA782101A1D12F32,2012/12/10,30263.57860000000,38498.64810000000
103.8375048205139,1.351566247934827,360,313,,1,570313,Shunfu Road,A,287,MOE-registered Kindergarten,http://preschool.gov.sg/klink/klink/pview/kgt/kgtChildCareView.action?usraction=view&schoolCategory=FAQCAT-002&viewId=893,0.00000000000,0.00000000000,PCF Thomson-Toa Payoh Blk 313,,4B5CF2292E2B50D1,2012/12/10,28465.88150000000,37074.84510000000
103.77571194585293,1.344636185728532,361,2B,,,589240,Hindhede Road,,,MOE-registered Kindergarten,http://preschool.gov.sg/klink/klink/pview/kgt/kgtChildCareView.action?usraction=view&schoolCategory=FAQCAT-002&viewId=957,0.00000000000,0.00000000000,Arise Kindergarten,,2845BC5ECF8647AF,2013/02/25,21589.01190000000,36308.62940000000
103.71957563411306,1.335371345524547,362,550,,,618617,Yung An Road,,,MOE-registered Kindergarten,http://preschool.gov.sg/klink/klink/pview/kgt/kgtChildCareView.action?usraction=view&schoolCategory=FAQCAT-002&viewId=959,0.00000000000,0.00000000000,Assyakirin Mosque Kindergarten,,0B75CDAC87E92E1D,2013/02/25,15341.60070000000,35284.38810000000
103.90560790910689,1.415583904622086,363,200,,,829646,Ponggol Seventeenth Avenue,,,MOE-registered Kindergarten,http://preschool.gov.sg/klink/klink/pview/kgt/kgtChildCareView.action?usraction=view&schoolCategory=FAQCAT-002&viewId=975,0.00000000000,0.00000000000,Bridges Montessori Kindergarten,,A3AE3CBDA268913E,2013/02/25,36044.77410000000,44153.71740000000
103.79682033058417,1.324083370351441,364,68,,,267214,Namly Place,,,MOE-registered Kindergarten,http://preschool.gov.sg/klink/klink/pview/kgt/kgtChildCareView.action?usraction=view&schoolCategory=FAQCAT-002&viewId=977,0.00000000000,0.00000000000,Buttercups Montessori Kindergarten,,5E38DCCC88E3732B,2013/02/25,23938.11080000000,34035.95860000000
103.87415131801221,1.332353555752784,365,48,,,347592,Wan Tho Avenue,,,MOE-registered Kindergarten,http://preschool.gov.sg/klink/klink/pview/kgt/kgtChildCareView.action?usraction=view&schoolCategory=FAQCAT-002&viewId=979,0.00000000000,0.00000000000,Calvary Baptist Kindergarten,,333A32230D6F777B,2013/02/25,32544.25930000000,34950.44100000000
103.87141451264011,1.402522103686861,366,1,,,797640,Piccadilly Circus,,,MOE-registered Kindergarten,http://preschool.gov.sg/klink/klink/pview/kgt/kgtChildCareView.action?usraction=view&schoolCategory=FAQCAT-002&viewId=991,0.00000000000,0.00000000000,Chatsworth Kindergarten,,79F3702BFE0EA400,2013/02/25,32239.55820000000,42709.31870000000
103.94753036858579,1.331797124262868,367,350,Simpang Bedok Post Office,,469538,Bedok Road,,,MOE-registered Kindergarten,http://preschool.gov.sg/klink/klink/pview/kgt/kgtChildCareView.action?usraction=view&schoolCategory=FAQCAT-002&viewId=3345,0.00000000000,0.00000000000,Chatsworth Kindergarten (Bedok),,7902D3F308DE2A7D,2013/02/25,40710.59520000000,34889.17040000000
103.90477028022781,1.312335664313644,368,91,,,427032,Koon Seng Road,,,MOE-registered Kindergarten,http://preschool.gov.sg/klink/klink/pview/kgt/kgtChildCareView.action?usraction=view&schoolCategory=FAQCAT-002&viewId=3011,0.00000000000,0.00000000000,Children000000e+000,,BA1EB6E43A2294D6,2013/02/25,35951.89670000000,32737.04130000000
103.83594004011789,1.285753215136961,369,256,,,169053,Outram Road,,,MOE-registered Kindergarten,http://preschool.gov.sg/klink/klink/pview/kgt/kgtChildCareView.action?usraction=view&schoolCategory=FAQCAT-002&viewId=994,0.00000000000,0.00000000000,Chinese Kindergarten,,0AAEF41CAB15FBC4,2013/02/25,28291.74670000000,29797.57770000000
103.74413116132756,1.394435898959458,370,10,,,689284,Choa Chu Kang Street 52,,,MOE-registered Kindergarten,http://preschool.gov.sg/klink/klink/pview/kgt/kgtChildCareView.action?usraction=view&schoolCategory=FAQCAT-002&viewId=995,0.00000000000,0.00000000000,Choa Chu Kang Bible Centre Kindergarten,,2AF3F2331E2D1AAB,2013/02/25,18074.61850000000,41815.34070000000
103.8722961443317,1.350769352239383,371,23,nex,4,556083,Serangoon Central,,77,MOE-registered Kindergarten,http://preschool.gov.sg/klink/klink/pview/kgt/kgtChildCareView.action?usraction=view&schoolCategory=FAQCAT-002&viewId=3251,0.00000000000,0.00000000000,CS Montessori Kindergarten @ Serangoon,,F296E3D3D2ED4A0E,2013/02/25,32337.76530000000,36986.76280000000
103.90532921345405,1.397204517432772,372,105D,,1,824105,Edgefield Plains,A,59,MOE-registered Kindergarten,http://preschool.gov.sg/klink/klink/pview/kgt/kgtChildCareView.action?usraction=view&schoolCategory=FAQCAT-002&viewId=828,0.00000000000,0.00000000000,PCF Punggol North Blk 105D,,85E320474D16052D,2013/02/25,36013.82180000000,42121.41520000000
103.90045337515424,1.403603965450248,373,271A,,1,821271,Punggol Walk,A,509,MOE-registered Kindergarten,http://preschool.gov.sg/klink/klink/pview/kgt/kgtChildCareView.action?usraction=view&schoolCategory=FAQCAT-002&viewId=4658,0.00000000000,0.00000000000,PCF Punggol West Blk 271A,,D0C6DD5817BB8A96,2013/02/25,35471.18570000000,42829.01820000000
103.91674583905353,1.302453395021156,374,1020,Raintree Cove,2,449878,East Coast Parkway,,1-Feb,MOE-registered Kindergarten,http://preschool.gov.sg/klink/klink/pview/kgt/kgtChildCareView.action?usraction=view&schoolCategory=FAQCAT-002&viewId=1487,0.00000000000,0.00000000000,Wee Care @ The Polliwogs Kindergarten,,0D6FEB9BCD5B230E,2013/02/25,37284.70000000000,31644.35090000000
103.80167416294351,1.332391741545514,375,39,,,288712,Linden Drive,,,MOE-registered Kindergarten,http://preschool.gov.sg/klink/klink/pview/kgt/kgtChildCareView.action?usraction=view&schoolCategory=FAQCAT-002&viewId=1217,0.00000000000,0.00000000000,White Lodge Kindergarten,,0AEDB2C5594BB926,2013/02/25,24478.30550000000,34954.64840000000
103.76848466175272,1.359935334330443,376,1,Fuyong Estate,,678541,Jalan Siap,,,MOE-registered Kindergarten,http://preschool.gov.sg/klink/klink/pview/kgt/kgtChildCareView.action?usraction=view&schoolCategory=FAQCAT-002&viewId=1219,0.00000000000,0.00000000000,White Lodge Kindergarten (Jalan Siap),,6C9D6A75670B0274,2013/02/25,20784.73900000000,38000.35240000000
103.78626135928955,1.280132101230505,377,9,,,118141,South Buona Vista Road,,,MOE-registered Kindergarten,http://preschool.gov.sg/klink/klink/pview/kgt/kgtChildCareView.action?usraction=view&schoolCategory=FAQCAT-002&viewId=1220,0.00000000000,0.00000000000,White Lodge Kindergarten (South Buona Vista),,4D37C4C3659823C6,2013/02/25,22762.91230000000,29176.07190000000
103.87636211448425,1.367981339910446,378,242,,,545671,Yio Chu Kang Road,,,MOE-registered Kindergarten,http://preschool.gov.sg/klink/klink/pview/kgt/kgtChildCareView.action?usraction=view&schoolCategory=FAQCAT-002&viewId=1223,0.00000000000,0.00000000000,Yio Chu Kang Chapel Kindergarten,,B48244695A5A25BB,2013/02/25,32790.22840000000,38889.98470000000
103.8353932547719,1.285264738310188,379,254,,,169051,Outram Road,,,MOE-registered Kindergarten,http://preschool.gov.sg/klink/klink/pview/kgt/kgtChildCareView.action?usraction=view&schoolCategory=FAQCAT-002&viewId=1225,0.00000000000,0.00000000000,YWCA Kindergarten (Outram),,39A6D365A925F021,2013/02/25,28230.89410000000,29743.56440000000
103.80699538460276,1.287140846543968,380,3,,1,150003,Jalan Bukit Merah,A,5118,MOE-registered Kindergarten,http://preschool.gov.sg/klink/klink/pview/kgt/kgtChildCareView.action?usraction=view&schoolCategory=FAQCAT-002&viewId=836,0.00000000000,0.00000000000,PCF Queenstown Blk 3,,F4A095F2E755D98F,2013/02/25,25070.44960000000,29951.02970000000
103.79822758403678,1.299962001500266,381,46-2,,1,140462,Commonwealth Drive,A,380,MOE-registered Kindergarten,http://preschool.gov.sg/klink/klink/pview/kgt/kgtChildCareView.action?usraction=view&schoolCategory=FAQCAT-002&viewId=837,0.00000000000,0.00000000000,PCF Queenstown Blk 46-2-46-3,,79894AD9F04A308B,2013/02/25,24094.68670000000,31368.73900000000
103.79327152828272,1.445301474297389,382,755,,1,730755,Woodlands Avenue 4,A,299,MOE-registered Kindergarten,http://preschool.gov.sg/klink/klink/pview/kgt/kgtChildCareView.action?usraction=view&schoolCategory=FAQCAT-002&viewId=848,0.00000000000,0.00000000000,PCF Sembawang Blk 755,,93C629EEB790FCE2,2013/02/25,23543.39120000000,47439.65080000000
103.93764484054526,1.359239174208785,383,713,,1,520713,Tampines Street 71,A,196,MOE-registered Kindergarten,http://preschool.gov.sg/klink/klink/pview/kgt/kgtChildCareView.action?usraction=view&schoolCategory=FAQCAT-002&viewId=860,0.00000000000,0.00000000000,PCF Tampines Central Blk 713-714,,D97E53A45CD40A10,2013/02/25,39610.30680000000,37923.52840000000
103.93789047380179,1.354293864065205,384,858,,1,520858,Tampines Avenue 5,A,529,MOE-registered Kindergarten,http://preschool.gov.sg/klink/klink/pview/kgt/kgtChildCareView.action?usraction=view&schoolCategory=FAQCAT-002&viewId=863,0.00000000000,0.00000000000,PCF Tampines Central Blk 858-860,,BE1C0C065AAB1EC1,2013/02/25,39637.66660000000,37376.70150000000
103.95265690792866,1.349099880956598,385,284,,1,520284,Tampines Street 22,A,149,MOE-registered Kindergarten,http://preschool.gov.sg/klink/klink/pview/kgt/kgtChildCareView.action?usraction=view&schoolCategory=FAQCAT-002&viewId=865,0.00000000000,0.00000000000,PCF Tampines Changkat Blk 284-285,,6402DA38C6597C7F,2013/02/25,41281.03380000000,36802.45190000000
103.96107512977883,1.354023673914772,386,358,,1,520358,Tampines Street 33,A,666,MOE-registered Kindergarten,http://preschool.gov.sg/klink/klink/pview/kgt/kgtChildCareView.action?usraction=view&schoolCategory=FAQCAT-002&viewId=870,0.00000000000,0.00000000000,PCF Tampines East Blk 358,,C51ADDD865DB7610,2013/02/25,42217.86140000000,37346.94870000000
103.74715818892616,1.390366576590675,387,707,,1,680707,Choa Chu Kang Street 53,A,118,MOE-registered Kindergarten,http://preschool.gov.sg/klink/klink/pview/kgt/kgtChildCareView.action?usraction=view&schoolCategory=FAQCAT-002&viewId=1043,0.00000000000,0.00000000000,Hanis Montessori Kindergarten (Choa Chu Kang),,AC1D68A5D9FEE1C7,2013/02/25,18411.47050000000,41365.36260000000
103.90261635738867,1.33274848177113,388,1,Enterprise One,1,415934,Kaki Bukit Road,,10,MOE-registered Kindergarten,http://preschool.gov.sg/klink/klink/pview/kgt/kgtChildCareView.action?usraction=view&schoolCategory=FAQCAT-002&viewId=1047,0.00000000000,0.00000000000,Hanis Montessori Kindergarten (Enterprise One),,CD06C2877E959AF2,2013/02/25,35712.12230000000,34994.18080000000
103.77485939593828,1.427293029575,389,424,,1,730424,Woodlands Street 41,A,340,MOE-registered Kindergarten,http://preschool.gov.sg/klink/klink/pview/kgt/kgtChildCareView.action?usraction=view&schoolCategory=FAQCAT-002&viewId=1238,0.00000000000,0.00000000000,Hanis Montessori Kindergarten (Woodlands),,042EBC83520D2F3E,2013/02/25,21494.35800000000,45448.41090000000
103.93949059433429,1.314103644955776,390,408-B,,,466484,Upper East Coast Road,,,MOE-registered Kindergarten,http://preschool.gov.sg/klink/klink/pview/kgt/kgtChildCareView.action?usraction=view&schoolCategory=FAQCAT-002&viewId=1053,0.00000000000,0.00000000000,Holy Grace Kindergarten,,6A6F962E961E466E,2013/02/25,39815.93370000000,32932.67300000000
103.81460176601276,1.454735159908517,391,55,,,757614,Sembawang Drive,,,MOE-registered Kindergarten,http://preschool.gov.sg/klink/klink/pview/kgt/kgtChildCareView.action?usraction=view&schoolCategory=FAQCAT-002&viewId=1055,0.00000000000,0.00000000000,Hope Community Kindergarten (Sembawang),,3874095424F7644E,2013/02/25,25917.12100000000,48482.74980000000
103.95215621322698,1.361424798428263,392,20,,,529151,Tampines Street 43,,,MOE-registered Kindergarten,http://preschool.gov.sg/klink/klink/pview/kgt/kgtChildCareView.action?usraction=view&schoolCategory=FAQCAT-002&viewId=1056,0.00000000000,0.00000000000,Hope Community Kindergarten (Tampines),,90561DC547748E50,2013/02/25,41225.24500000000,38165.27860000000
103.7580042742629,1.347374017871394,393,277,,2,650277,Bukit Batok East Avenue 3,A,373,MOE-registered Kindergarten,http://preschool.gov.sg/klink/klink/pview/kgt/kgtChildCareView.action?usraction=view&schoolCategory=FAQCAT-002&viewId=1063,0.00000000000,0.00000000000,Iman Kindergarten (Bt. Batok),,A272D0FD3FBB3DE9,2013/02/25,19618.35010000000,36611.41880000000
103.74183861735072,1.392683774518662,394,530,,1,680530,Choa Chu Kang Street 51,A,323,MOE-registered Kindergarten,http://preschool.gov.sg/klink/klink/pview/kgt/kgtChildCareView.action?usraction=view&schoolCategory=FAQCAT-002&viewId=1064,0.00000000000,0.00000000000,Iman Kindergarten (CCK),,FFC71414CB825CC4,2013/02/25,17819.48090000000,41621.60920000000
103.90736381757429,1.332193554474028,395,651,,1,410651,Jalan Tenaga,A,4,MOE-registered Kindergarten,http://preschool.gov.sg/klink/klink/pview/kgt/kgtChildCareView.action?usraction=view&schoolCategory=FAQCAT-002&viewId=1067,0.00000000000,0.00000000000,Iman Kindergarten (Tenagaville),,654EA9541D848CA5,2013/02/25,36240.46750000000,34932.83510000000
103.77300404798277,1.379047758298519,396,256,,2,670256,Bangkit Road,A,73,MOE-registered Kindergarten,http://preschool.gov.sg/klink/klink/pview/kgt/kgtChildCareView.action?usraction=view&schoolCategory=FAQCAT-002&viewId=1242,0.00000000000,0.00000000000,iSmart Montessori Kindergarten,,69A9C81BD4565E38,2013/02/25,21287.74760000000,40113.69520000000
103.87878661032475,1.310381851484708,397,31,,3,399006,Lorong 12 Geylang,,1,MOE-registered Kindergarten,http://preschool.gov.sg/klink/klink/pview/kgt/kgtChildCareView.action?usraction=view&schoolCategory=FAQCAT-002&viewId=1072,0.00000000000,0.00000000000,Jamiyah Kindergarten,,ADF9EEFBC57C48AD,2013/02/25,33060.16380000000,32520.93100000000
103.83218523308697,1.378381449302186,398,11,,,574756,Thomson Hills Drive,,,MOE-registered Kindergarten,http://preschool.gov.sg/klink/klink/pview/kgt/kgtChildCareView.action?usraction=view&schoolCategory=FAQCAT-002&viewId=941,0.00000000000,0.00000000000,Agape Montessori House Kindergarten,,BC47C078295F1C3A,2013/02/25,27873.87280000000,40039.93310000000
103.93190032731178,1.3504652658634,399,887,,1,520887,Tampines Street 81,A,1006,MOE-registered Kindergarten,http://preschool.gov.sg/klink/klink/pview/kgt/kgtChildCareView.action?usraction=view&schoolCategory=FAQCAT-002&viewId=878,0.00000000000,0.00000000000,PCF Tampines West Blk 887,,FC4A7509D1742DF0,2013/02/25,38971.04770000000,36953.32600000000
103.82278538212302,1.284886250466869,400,124A,,1,151124,Bukit Merah View,A,406,MOE-registered Kindergarten,http://preschool.gov.sg/klink/klink/pview/kgt/kgtChildCareView.action?usraction=view&schoolCategory=FAQCAT-002&viewId=879,0.00000000000,0.00000000000,PCF Tanglin-Cairnhill Blk 124A,,BFB860D3DE5C393E,2013/02/25,26827.74270000000,29701.71550000000
103.82926943940987,1.280410733519102,401,130,,1,160130,Kim Tian Road,A,157,MOE-registered Kindergarten,http://preschool.gov.sg/klink/klink/pview/kgt/kgtChildCareView.action?usraction=view&schoolCategory=FAQCAT-002&viewId=895,0.00000000000,0.00000000000,PCF Tanjong Pagar-Tiong Bahru Blk 130-127,,CAD900E9E946FF51,2013/02/25,27549.36350000000,29206.83390000000
103.85706401990433,1.365825088422656,402,466,,1,560466,Ang Mo Kio Avenue 10,A,1034,MOE-registered Kindergarten,http://preschool.gov.sg/klink/klink/pview/kgt/kgtChildCareView.action?usraction=view&schoolCategory=FAQCAT-002&viewId=888,0.00000000000,0.00000000000,PCF Teck Ghee Blk 466,,D05037B3A330228C,2013/02/25,30642.58440000000,38651.52750000000
103.78290079852397,1.303107449877161,403,2,,1,130002,Dover Road,A,342,MOE-registered Kindergarten,http://preschool.gov.sg/klink/klink/pview/kgt/kgtChildCareView.action?usraction=view&schoolCategory=FAQCAT-002&viewId=890,0.00000000000,0.00000000000,PCF Telok Blangah Blk 2,,2403E92085247C64,2013/02/25,22388.95940000000,31716.57550000000
103.84545286178601,1.332228699246025,404,157,,1,310157,Lorong 1 Toa Payoh,A,1243,MOE-registered Kindergarten,http://preschool.gov.sg/klink/klink/pview/kgt/kgtChildCareView.action?usraction=view&schoolCategory=FAQCAT-002&viewId=898,0.00000000000,0.00000000000,PCF Toa Payoh Central Blk 157,,1FCF6D819CA8D584,2013/02/25,29350.41940000000,34936.60080000000
103.85386070913322,1.335934949564414,405,45,,1,310045,Lorong 5 Toa Payoh,A,149,MOE-registered Kindergarten,http://preschool.gov.sg/klink/klink/pview/kgt/kgtChildCareView.action?usraction=view&schoolCategory=FAQCAT-002&viewId=902,0.00000000000,0.00000000000,PCF Toa Payoh East Blk 45,,DE1235C95EC5B353,2013/02/25,30286.12210000000,35346.42520000000
103.7636008567265,1.305610907655163,406,728,,1,120728,Clementi West Street 2,A,390,MOE-registered Kindergarten,http://preschool.gov.sg/klink/klink/pview/kgt/kgtChildCareView.action?usraction=view&schoolCategory=FAQCAT-002&viewId=631,0.00000000000,0.00000000000,PCF West Coast Blk 728,,111AA78045949A2A,2013/02/25,20241.05810000000,31993.44630000000
103.85645635537479,1.322822098503758,407,85,,1,320085,Whampoa Drive,A,248,MOE-registered Kindergarten,http://preschool.gov.sg/klink/klink/pview/kgt/kgtChildCareView.action?usraction=view&schoolCategory=FAQCAT-002&viewId=909,0.00000000000,0.00000000000,PCF Whampoa Blk 85,,47C7CC130B2BC03D,2013/02/25,30575.00370000000,33896.47580000000
103.74425287556853,1.393527730512425,408,543,,1,680543,Choa Chu Kang Street 52,A,70,MOE-registered Kindergarten,http://preschool.gov.sg/klink/klink/pview/kgt/kgtChildCareView.action?usraction=view&schoolCategory=FAQCAT-002&viewId=918,0.00000000000,0.00000000000,PCF Yew Tee Blk 543-540,,120114009186CD9D,2013/02/25,18088.16000000000,41714.91930000000
103.73675709970541,1.341372064991593,409,223A,,1,601223,Jurong East Street 21,A,851,MOE-registered Kindergarten,http://preschool.gov.sg/klink/klink/pview/kgt/kgtChildCareView.action?usraction=view&schoolCategory=FAQCAT-002&viewId=930,0.00000000000,0.00000000000,PCF Yuhua Blk 223A,,4AF91E850777CB95,2013/02/25,17253.74610000000,35947.83610000000
103.73967663219035,1.34315413658699,410,251,,1,600251,Jurong East Street 24,A,110,MOE-registered Kindergarten,http://preschool.gov.sg/klink/klink/pview/kgt/kgtChildCareView.action?usraction=view&schoolCategory=FAQCAT-002&viewId=931,0.00000000000,0.00000000000,PCF Yuhua Blk 251-247,,E9641DA360499A6D,2013/02/25,17578.66650000000,36144.87610000000
103.77867279142883,1.287333450421904,411,307,,,118647,Pasir Panjang Road,,,MOE-registered Kindergarten,http://preschool.gov.sg/klink/klink/pview/kgt/kgtChildCareView.action?usraction=view&schoolCategory=FAQCAT-002&viewId=1152,0.00000000000,0.00000000000,Pearlbank Kindergarten,,FDFE193C0D45FBC3,2013/02/25,21918.38280000000,29972.37700000000
103.89875242500085,1.395399548992063,412,292B,,1,542292,Compassvale Street,A,206,MOE-registered Kindergarten,http://preschool.gov.sg/klink/klink/pview/kgt/kgtChildCareView.action?usraction=view&schoolCategory=FAQCAT-002&viewId=820,0.00000000000,0.00000000000,PCF Punggol Central Blk 292B,,5BF78200B6977948,2013/02/25,35281.91830000000,41921.80930000000
103.88474893046012,1.300591182377622,413,51,,,438178,Kampong Arang Road,,,MOE-registered Kindergarten,http://preschool.gov.sg/klink/klink/pview/kgt/kgtChildCareView.action?usraction=view&schoolCategory=FAQCAT-002&viewId=1175,0.00000000000,0.00000000000,Schoolhouse By The Bay,,8DB2113182B4ECFB,2013/02/25,33723.73620000000,31438.34170000000
103.738395319037,1.335680897262446,414,90,,,609648,Jurong East Street 13,,,MOE-registered Kindergarten,http://preschool.gov.sg/klink/klink/pview/kgt/kgtChildCareView.action?usraction=view&schoolCategory=FAQCAT-002&viewId=1178,0.00000000000,0.00000000000,Seventh-day Adventist Kindergarten,,FE501A4EDC48388F,2013/02/25,17436.03800000000,35318.52780000000
103.90177192833092,1.391536125855666,415,66,,,548593,Sengkang East Way,,,MOE-registered Kindergarten,http://preschool.gov.sg/klink/klink/pview/kgt/kgtChildCareView.action?usraction=view&schoolCategory=FAQCAT-002&viewId=1187,0.00000000000,0.00000000000,St. Anne's Church Kindergarten,,8A1755FBCCAC9B92,2013/02/25,35617.96160000000,41494.62080000000
103.92383710236325,1.324742988664289,416,29A,,1,461029,Chai Chee Avenue,A,74,MOE-registered Kindergarten,http://preschool.gov.sg/klink/klink/pview/kgt/kgtChildCareView.action?usraction=view&schoolCategory=FAQCAT-002&viewId=1648,0.00000000000,0.00000000000,Starland Kindergarten,,0CE8C26874561DA3,2013/02/25,38073.80480000000,34109.04990000000
103.79683126576604,1.324036519009133,417,66,,,267211,Namly Place,,,MOE-registered Kindergarten,http://preschool.gov.sg/klink/klink/pview/kgt/kgtChildCareView.action?usraction=view&schoolCategory=FAQCAT-002&viewId=1199,0.00000000000,0.00000000000,Sunshine Kindergarten (Watten),,C46585202603360E,2013/02/25,23939.32780000000,34030.77810000000
103.76753776305145,1.330637348450344,418,1,Bowland Block-Brookvale Park Condominium,1,599968,Brookvale Drive,D,Jul-14,MOE-registered Kindergarten,http://preschool.gov.sg/klink/klink/pview/kgt/kgtChildCareView.action?usraction=view&schoolCategory=FAQCAT-002&viewId=1204,0.00000000000,0.00000000000,The Little House (Montessori) Kindergarten,,DF00C62801206EDA,2013/02/25,20679.27290000000,34760.73160000000
103.71639179227098,1.351353682351029,419,47,,,649368,Jurong West Street 42,,,MOE-registered Kindergarten,http://preschool.gov.sg/klink/klink/pview/kgt/kgtChildCareView.action?usraction=view&schoolCategory=FAQCAT-002&viewId=1190,0.00000000000,0.00000000000,St. Francis Of Assisi Kindergarten (Jurong West),,78C367118A1978E5,2013/02/25,14987.35640000000,37051.65350000000
103.84456155575427,1.315057837345906,420,45,,,307584,Thomson Road,,,MOE-registered Kindergarten,http://preschool.gov.sg/klink/klink/pview/kgt/kgtChildCareView.action?usraction=view&schoolCategory=FAQCAT-002&viewId=1206,0.00000000000,0.00000000000,Thomson Road Baptist Kindergarten,,8411A02713D4F488,2013/02/25,29251.23500000000,33037.93440000000
103.6981905979557,1.345090521272982,421,724,,B1,640724,Jurong West Street 72,A,13,MOE-registered Kindergarten,http://preschool.gov.sg/klink/klink/pview/kgt/kgtChildCareView.action?usraction=view&schoolCategory=FAQCAT-002&viewId=1645,0.00000000000,0.00000000000,Tots Club Preschool,,1DE5C763B5AE9B58,2013/02/25,12961.72520000000,36359.20830000000
103.80599869177117,1.29374203137281,422,156B,,,148947,Stirling Road,,,MOE-registered Kindergarten,http://preschool.gov.sg/klink/klink/pview/kgt/kgtChildCareView.action?usraction=view&schoolCategory=FAQCAT-002&viewId=1211,0.00000000000,0.00000000000,True Way Presbyterian Kindergarten,,F598E22BFF2715D5,2013/02/25,24959.53400000000,30680.95600000000
103.95857983591249,1.358344745412822,423,497C,,1,522497,Tampines Street 45,A,54,MOE-registered Kindergarten,http://preschool.gov.sg/klink/klink/pview/kgt/kgtChildCareView.action?usraction=view&schoolCategory=FAQCAT-002&viewId=4257,0.00000000000,0.00000000000,Prodigy Preschool,,A700FAD269F1873A,2013/02/25,41940.13820000000,37824.73750000000
103.71100153204738,1.347949099530133,424,200,,,649964,Boon Lay Avenue,,,MOE-registered Kindergarten,http://preschool.gov.sg/klink/klink/pview/kgt/kgtChildCareView.action?usraction=view&schoolCategory=FAQCAT-002&viewId=1189,0.00000000000,0.00000000000,St. Francis Of Assisi Kindergarten (Boon Lay),,16634BF161C8AAAE,2012/12/10,14387.46100000000,36675.22080000000
103.86367991672147,1.358212897598331,425,63A,,,558758,Chartwell Drive,,,MOE-registered Kindergarten,http://preschool.gov.sg/klink/klink/pview/kgt/kgtChildCareView.action?usraction=view&schoolCategory=FAQCAT-002&viewId=1191,0.00000000000,0.00000000000,St. Francis Xavier Kindergarten,,6198D5FD7CD14D48,2012/12/10,31378.86560000000,37809.81850000000
103.76812487959985,1.367709776126654,426,600,,,679331,Upper Bukit Timah Road,,,MOE-registered Kindergarten,http://preschool.gov.sg/klink/klink/pview/kgt/kgtChildCareView.action?usraction=view&schoolCategory=FAQCAT-002&viewId=1194,0.00000000000,0.00000000000,St. Joseph's Church Kindergarten,,F80B637432587EB1,2012/12/10,20744.72280000000,38860.01230000000
103.72464662726856,1.326965533740177,427,21,The Agape,1,618593,Yung Ho Road,,4,MOE-registered Kindergarten,http://preschool.gov.sg/klink/klink/pview/kgt/kgtChildCareView.action?usraction=view&schoolCategory=FAQCAT-002&viewId=4309,0.00000000000,0.00000000000,Summer Montessori,,6699E904A1808554,2012/12/10,15905.90890000000,34354.88930000000
103.81465253278927,1.269404364351781,428,61,,,98716,Wishart Road,,,MOE-registered Kindergarten,http://preschool.gov.sg/klink/klink/pview/kgt/kgtChildCareView.action?usraction=view&schoolCategory=FAQCAT-002&viewId=1202,0.00000000000,0.00000000000,The Capstone Kindergarten,,314719C3BC5A8CA5,2012/12/10,25922.61170000000,27989.81370000000
103.91319463769733,1.325210873992322,429,107,,,419145,Jalan Kembangan,,,MOE-registered Kindergarten,http://preschool.gov.sg/klink/klink/pview/kgt/kgtChildCareView.action?usraction=view&schoolCategory=FAQCAT-002&viewId=937,0.00000000000,0.00000000000,Ace House,,AB8BB3FFB0938F69,2012/12/12,36889.40270000000,34160.74560000000
103.81369868126768,1.32259539188422,430,10,,2,258748,Jalan Serene,,5-Jun,MOE-registered Kindergarten,http://preschool.gov.sg/klink/klink/pview/kgt/kgtChildCareView.action?usraction=view&schoolCategory=FAQCAT-002&viewId=1253,0.00000000000,0.00000000000,Bibinogs Preschool,,A627097A7CA54F90,2012/12/12,25816.50090000000,33871.40440000000
103.89898214968265,1.415102597248101,431,600,,,829734,Ponggol Seventeenth Avenue,,,MOE-registered Kindergarten,http://preschool.gov.sg/klink/klink/pview/kgt/kgtChildCareView.action?usraction=view&schoolCategory=FAQCAT-002&viewId=1010,0.00000000000,0.00000000000,Dayspring Kindergarten,,4C1F68E71E5376D4,2013/02/25,35307.42250000000,44100.47490000000
103.82561814549163,1.44124254486864,432,10B,,,768443,Jalan Jeruju,,,MOE-registered Kindergarten,http://preschool.gov.sg/klink/klink/pview/kgt/kgtChildCareView.action?usraction=view&schoolCategory=FAQCAT-002&viewId=1015,0.00000000000,0.00000000000,Edelweiss Kindergarten Sembawang Presbyterian Church,,CE58F3DD9FB6B2D1,2013/02/25,27143.06100000000,46990.79690000000
103.7696551278341,1.441421819573587,433,5A,,1,731005,Woodlands Centre Road,A,180,MOE-registered Kindergarten,http://preschool.gov.sg/klink/klink/pview/kgt/kgtChildCareView.action?usraction=view&schoolCategory=FAQCAT-002&viewId=1017,0.00000000000,0.00000000000,Elias (Woodlands) Kindergarten,,E3B31582A14F49A9,2013/02/25,20915.24320000000,47010.71780000000
103.69750258551845,1.344350279786717,434,720,,B1,640720,Jurong West Avenue 5,A,94,MOE-registered Kindergarten,http://preschool.gov.sg/klink/klink/pview/kgt/kgtChildCareView.action?usraction=view&schoolCategory=FAQCAT-002&viewId=1020,0.00000000000,0.00000000000,Elite Learning Kindergarten,,07673D3225D0C241,2013/02/25,12885.15220000000,36277.36020000000
103.93120480898411,1.324654832574653,435,209,,3,460209,New Upper Changi Road,A,649,MOE-registered Kindergarten,http://preschool.gov.sg/klink/klink/pview/kgt/kgtChildCareView.action?usraction=view&schoolCategory=FAQCAT-002&viewId=4573,0.00000000000,0.00000000000,Jeet0000000000e+000,,F747FC6B802CF9A3,2013/02/25,38893.75800000000,34099.33320000000
103.84842869562733,1.336313957709072,436,85,,1,310085,Lorong 4 Toa Payoh,A,336,MOE-registered Kindergarten,http://preschool.gov.sg/klink/klink/pview/kgt/kgtChildCareView.action?usraction=view&schoolCategory=FAQCAT-002&viewId=1235,0.00000000000,0.00000000000,Jessin Kindergarten,,91E8E9C18E622BB9,2013/02/25,29681.59600000000,35388.32960000000
103.72381824091715,1.333151993221274,437,1,,,618720,Tao Ching Road,,,MOE-registered Kindergarten,http://preschool.gov.sg/klink/klink/pview/kgt/kgtChildCareView.action?usraction=view&schoolCategory=FAQCAT-002&viewId=1078,0.00000000000,0.00000000000,Jurong Calvary Kindergarten,,8E649806EBF3359E,2013/02/25,15813.74810000000,35038.96160000000
103.82930973622091,1.296402130364638,438,7,,,248963,Kay Poh Road,,,MOE-registered Kindergarten,http://preschool.gov.sg/klink/klink/pview/kgt/kgtChildCareView.action?usraction=view&schoolCategory=FAQCAT-002&viewId=1084,0.00000000000,0.00000000000,Kay Poh Road Baptist Kindergarten,,D0C75A3BCFAD3594,2013/02/25,27553.85100000000,30975.08000000000
103.77277406649233,1.430448580161686,439,401,,1,730401,Woodlands Street 41,A,30,MOE-registered Kindergarten,http://preschool.gov.sg/klink/klink/pview/kgt/kgtChildCareView.action?usraction=view&schoolCategory=FAQCAT-002&viewId=4574,0.00000000000,0.00000000000,Kids IQ Kindergarten,,54A26CA132AB33EA,2013/02/25,21262.30080000000,45797.34200000000
103.82876298520613,1.430618303959025,440,102,,3,760102,Yishun Avenue 5,A,115,MOE-registered Kindergarten,http://preschool.gov.sg/klink/klink/pview/kgt/kgtChildCareView.action?usraction=view&schoolCategory=FAQCAT-002&viewId=1087,0.00000000000,0.00000000000,Kidszone Kindergarten,,AC0F6CD4CB02CA71,2013/02/25,27493.03070000000,45816.02080000000
103.9206412444541,1.311078828175163,441,17,,,457453,Jalan Saudara Ku,,,MOE-registered Kindergarten,http://preschool.gov.sg/klink/klink/pview/kgt/kgtChildCareView.action?usraction=view&schoolCategory=FAQCAT-002&viewId=3510,0.00000000000,0.00000000000,Kids 'n' Kids School,,B689626DBADEA4F9,2013/02/25,37718.19060000000,32598.12270000000
103.94344083399409,1.383686996991308,442,102,,,519108,Pasir Ris Road,,,MOE-registered Kindergarten,http://preschool.gov.sg/klink/klink/pview/kgt/kgtChildCareView.action?usraction=view&schoolCategory=FAQCAT-002&viewId=1088,0.00000000000,0.00000000000,Kidz Meadow Kindergarten,,25AE05D029038CC8,2013/02/25,40255.21030000000,40626.87790000000
103.90563847537567,1.302453696916055,443,87,,3,440087,Marine Parade Central,A,201,MOE-registered Kindergarten,http://preschool.gov.sg/klink/klink/pview/kgt/kgtChildCareView.action?usraction=view&schoolCategory=FAQCAT-002&viewId=1097,0.00000000000,0.00000000000,Kinderland Preschool (Marine Parade),,26C1DACD6908AC91,2013/02/25,36048.55000000000,31644.34610000000
103.82876298520613,1.430618303959025,444,102,,4,760102,Yishun Avenue 5,A,137,MOE-registered Kindergarten,http://preschool.gov.sg/klink/klink/pview/kgt/kgtChildCareView.action?usraction=view&schoolCategory=FAQCAT-002&viewId=1108,0.00000000000,0.00000000000,Little Leader Kindergarten,,AC0F6CD430E90FFE,2013/02/25,27493.03070000000,45816.02080000000
103.83672894336669,1.435762302856382,445,291,,1,760291,Yishun Street 22,A,363,MOE-registered kindergarten,http://preschool.gov.sg/klink/klink/pview/kgt/kgtChildCareView.action?usraction=view&schoolCategory=FAQCAT-002&viewId=4251,0.00000000000,0.00000000000,First Step Montessori House,,406A03DAE27213BB,2013/02/25,28379.52170000000,46384.81800000000
103.93269866406695,1.311230709522845,446,25,,,456650,Nallur Road,,,MOE-registered Kindergarten,http://preschool.gov.sg/klink/klink/pview/kgt/kgtChildCareView.action?usraction=view&schoolCategory=FAQCAT-002&viewId=1033,0.00000000000,0.00000000000,Good Shepherd Convent Kindergarten,,F2268902DBD5206B,2013/02/25,39060.06850000000,32614.96700000000
103.74742553615323,1.364677698239565,447,1,,4,659125,Bukit Batok West Avenue 4,A,1,MOE-registered Kindergarten,http://preschool.gov.sg/klink/klink/pview/kgt/kgtChildCareView.action?usraction=view&schoolCategory=FAQCAT-002&viewId=1034,0.00000000000,0.00000000000,Grace House Kindergarten,,F2897C5EF38E83C5,2013/02/25,18441.12050000000,38524.81260000000
103.84334933020023,1.317470048998306,448,101,,1,307591,Thomson Road,A,20/27,MOE-registered Kindergarten,http://preschool.gov.sg/klink/klink/pview/kgt/kgtChildCareView.action?usraction=view&schoolCategory=FAQCAT-002&viewId=1041,0.00000000000,0.00000000000,GUG The Kindergarten,,63FB692A901D744D,2013/02/25,29116.32490000000,33304.66380000000
103.88082871819715,1.308009448428371,449,231,,1,397999,Mountbatten Road,,4,MOE-registered Kindergarten,http://preschool.gov.sg/klink/klink/pview/kgt/kgtChildCareView.action?usraction=view&schoolCategory=FAQCAT-002&viewId=1251,0.00000000000,0.00000000000,GUG The Kindergarten (Mountbatten),,836E5B2138C4DB7B,2013/02/25,33287.43620000000,32258.60710000000
103.93754363529014,1.333487826796155,450,103,,1,460103,Bedok North Avenue 4,A,2000,MOE-registered Kindergarten,http://preschool.gov.sg/klink/klink/pview/kgt/kgtChildCareView.action?usraction=view&schoolCategory=FAQCAT-002&viewId=703,0.00000000000,0.00000000000,PCF Fengshan Blk 103,,62C9ED5B9030B78C,2013/02/25,39599.16550000000,35076.07080000000
103.88006300825639,1.335407267475828,451,15,,1,360015,Joo Seng Road,A,95,MOE-registered Kindergarten,http://preschool.gov.sg/klink/klink/pview/kgt/kgtChildCareView.action?usraction=view&schoolCategory=FAQCAT-002&viewId=706,0.00000000000,0.00000000000,PCF Geylang Serai Blk 15,,743BCF0CDA483B7A,2013/02/25,33202.16280000000,35288.11660000000
103.90330226556975,1.329940001779248,452,311,,1,400311,Ubi Avenue 1,A,383,MOE-registered Kindergarten,http://preschool.gov.sg/klink/klink/pview/kgt/kgtChildCareView.action?usraction=view&schoolCategory=FAQCAT-002&viewId=742,0.00000000000,0.00000000000,PCF Geylang Serai Blk 311,,7DED717565806E71,2013/02/25,35788.46560000000,34683.63530000000
103.89606115135392,1.314438528847665,453,9,,1,430009,Haig Road,A,407,MOE-registered Kindergarten,http://preschool.gov.sg/klink/klink/pview/kgt/kgtChildCareView.action?usraction=view&schoolCategory=FAQCAT-002&viewId=708,0.00000000000,0.00000000000,PCF Geylang Serai Blk 9,,2646B499D5201D80,2013/02/25,34982.64690000000,32969.53940000000
103.87410401838201,1.37164354486183,454,518,,1,550518,Serangoon North Avenue 4,A,218,MOE-registered Kindergarten,http://preschool.gov.sg/klink/klink/pview/kgt/kgtChildCareView.action?usraction=view&schoolCategory=FAQCAT-002&viewId=720,0.00000000000,0.00000000000,PCF Jln Kayu Blk 518-520-522,,BD01F1C8255736A5,2013/02/25,32538.92250000000,39294.92850000000
103.90747408657991,1.312540293342325,455,15,,,425611,Lorong K Telok Kurau,,,MOE-registered Kindergarten,http://preschool.gov.sg/klink/klink/pview/kgt/kgtChildCareView.action?usraction=view&schoolCategory=FAQCAT-002&viewId=722,0.00000000000,0.00000000000,PCF Joo Chiat Blk 15,,6416735A7A2BCB95,2013/02/25,36252.80420000000,32759.67680000000
103.7345732494081,1.347295042091133,456,308,,1,600308,Jurong East Street 32,A,270,MOE-registered Kindergarten,http://preschool.gov.sg/klink/klink/pview/kgt/kgtChildCareView.action?usraction=view&schoolCategory=FAQCAT-002&viewId=723,0.00000000000,0.00000000000,PCF Jurong Central Blk 308,,FC655089C818E43C,2013/02/25,17010.73330000000,36602.77930000000
103.83577076171817,1.371278616736417,457,112,,1,560112,Ang Mo Kio Avenue 4,A,313,MOE-registered Kindergarten,http://preschool.gov.sg/klink/klink/pview/kgt/kgtChildCareView.action?usraction=view&schoolCategory=FAQCAT-002&viewId=750,0.00000000000,0.00000000000,PCF Kebun Baru Blk 112,,ABF0BD3D6BAE6B93,2013/02/25,28272.89800000000,39254.53810000000
103.68873822472041,1.342235985483372,458,934,,1,640934,Jurong West Street 91,A,329,MOE-registered Kindergarten,http://preschool.gov.sg/klink/klink/pview/kgt/kgtChildCareView.action?usraction=view&schoolCategory=FAQCAT-002&viewId=778,0.00000000000,0.00000000000,PCF Nanyang Blk 934,,87854BF6A802CFA2,2013/02/25,11909.75800000000,36043.62750000000
103.95572974277593,1.369956600757857,459,426-1/2,,1,510426,Pasir Ris Drive 6,A,73/61,MOE-registered Kindergarten,http://preschool.gov.sg/klink/klink/pview/kgt/kgtChildCareView.action?usraction=view&schoolCategory=FAQCAT-002&viewId=799,0.00000000000,0.00000000000,PCF Pasir Ris East Blk 426,,85C0F0D49067A3C8,2013/02/25,41622.88980000000,39108.70390000000
103.93655229540958,1.379181559230516,460,738,,1,510738,Pasir Ris Drive 10,A,21,MOE-registered Kindergarten,http://preschool.gov.sg/klink/klink/pview/kgt/kgtChildCareView.action?usraction=view&schoolCategory=FAQCAT-002&viewId=803,0.00000000000,0.00000000000,PCF Pasir Ris West Blk 738-737,,8961ABF7B82D3280,2013/02/25,39488.62400000000,40128.65420000000
103.83649386285229,1.366828578342666,461,235,,1,560235,Ang Mo Kio Avenue 3,A,1114,MOE-registered Kindergarten,http://preschool.gov.sg/klink/klink/pview/kgt/kgtChildCareView.action?usraction=view&schoolCategory=FAQCAT-002&viewId=751,0.00000000000,0.00000000000,PCF Kebun Baru Blk 235,,96E39F7EFCCFFC1B,2013/02/25,28353.37110000000,38762.47560000000
103.88792048513217,1.371651265158344,462,508,,1,530508,Hougang Avenue 10,A,93,MOE-registered Kindergarten,http://preschool.gov.sg/klink/klink/pview/kgt/kgtChildCareView.action?usraction=view&schoolCategory=FAQCAT-002&viewId=635,0.00000000000,0.00000000000,PCF Bedok Reservoir-Punggol Blk 508,,77B470F1FBD03CD8,2013/02/25,34076.52730000000,39295.81270000000
103.84310536920653,1.359727880637895,463,257,,1,570257,Bishan Street 22,A,347,MOE-registered Kindergarten,http://preschool.gov.sg/klink/klink/pview/kgt/kgtChildCareView.action?usraction=view&schoolCategory=FAQCAT-002&viewId=643,0.00000000000,0.00000000000,PCF Bishan North Blk 257,,889116E4BAB7C778,2013/02/25,29089.15570000000,37977.31860000000
103.70013356023712,1.343056072863625,464,631,,1,640631,Jurong West Street 65,A,260,MOE-registered Kindergarten,http://preschool.gov.sg/klink/klink/pview/kgt/kgtChildCareView.action?usraction=view&schoolCategory=FAQCAT-002&viewId=809,0.00000000000,0.00000000000,PCF Boon Lay Blk 631,,69BB076FE321ECF2,2013/02/25,13177.94390000000,36134.23680000000
103.93642543330517,1.323516644017586,465,30,,1,461030,New Upper Changi Road,A,812,MOE-registered Kindergarten,http://preschool.gov.sg/klink/klink/pview/kgt/kgtChildCareView.action?usraction=view&schoolCategory=FAQCAT-002&viewId=632,0.00000000000,0.00000000000,PCF Bedok Blk 30,,44A86E11EAC98DC8,2013/02/25,39474.76700000000,33973.50140000000
103.74386019365929,1.349285419355488,466,148,,1,650148,Bukit Batok West Avenue 6,A,319,MOE-registered Kindergarten,http://preschool.gov.sg/klink/klink/pview/kgt/kgtChildCareView.action?usraction=view&schoolCategory=FAQCAT-002&viewId=651,0.00000000000,0.00000000000,PCF Bukit Batok Blk 148,,FA1CF79B7A361353,2013/02/25,18044.27680000000,36822.82540000000
103.74285168308755,1.345559770299194,467,180,,1,650180,Bukit Batok West Avenue 8,A,181,MOE-registered Kindergarten,http://preschool.gov.sg/klink/klink/pview/kgt/kgtChildCareView.action?usraction=view&schoolCategory=FAQCAT-002&viewId=652,0.00000000000,0.00000000000,PCF Bukit Batok Blk 180,,3E144EA6A433B015,2013/02/25,17932.02530000000,36410.86580000000
103.75819131049646,1.34981231925659,468,254,,1,650254,Bukit Batok East Avenue 4,A,229,MOE-registered Kindergarten,http://preschool.gov.sg/klink/klink/pview/kgt/kgtChildCareView.action?usraction=view&schoolCategory=FAQCAT-002&viewId=655,0.00000000000,0.00000000000,PCF Bukit Batok East Blk 254,,8D752E9B1D1B6838,2013/02/25,19639.17340000000,36881.03330000000
103.83842093685737,1.318882863418284,469,45,,,309166,Gentle Road,,,MOE-registered Kindergarten,http://preschool.gov.sg/klink/klink/pview/kgt/kgtChildCareView.action?usraction=view&schoolCategory=FAQCAT-002&viewId=1112,0.00000000000,0.00000000000,Little Woods Montessori Preschool,,B5BF72306DDDBF12,2013/02/25,28567.84240000000,33460.88390000000
103.91924573570616,1.315656254755753,470,20,Bowmont Centre,1,456192,Siglap Drive,D,6,MOE-registered Kindergarten,http://preschool.gov.sg/klink/klink/pview/kgt/kgtChildCareView.action?usraction=view&schoolCategory=FAQCAT-002&viewId=1113,0.00000000000,0.00000000000,LittleSparks Montessori Kindergarten,,201FA79E6EB9537B,2013/02/25,37562.86610000000,33104.26620000000
103.8698284007301,1.347154144020747,471,64,,,357971,Wolskel Road,,,MOE-registered Kindergarten,http://preschool.gov.sg/klink/klink/pview/kgt/kgtChildCareView.action?usraction=view&schoolCategory=FAQCAT-002&viewId=1115,0.00000000000,0.00000000000,Lumiere Montessori House,,F85072D7A0C171BA,2013/02/25,32063.13920000000,36587.00720000000
103.79447129320333,1.444536738372074,472,749,,1,730749,Woodlands Circle,A,604,MOE-registered Kindergarten,http://preschool.gov.sg/klink/klink/pview/kgt/kgtChildCareView.action?usraction=view&schoolCategory=FAQCAT-002&viewId=1111,0.00000000000,0.00000000000,Little Treasures Kindergarten,,70D6654BC8F9BB4B,2013/02/25,23676.90470000000,47355.08770000000
103.88111444606798,1.32685733858568,473,1,,,387621,Sallim Road,,,MOE-registered Kindergarten,http://preschool.gov.sg/klink/klink/pview/kgt/kgtChildCareView.action?usraction=view&schoolCategory=FAQCAT-002&viewId=1116,0.00000000000,0.00000000000,Magdalene's Kindergarten,,8574B816497A4DDD,2013/02/25,33319.19510000000,34342.71130000000
103.8390364161101,1.339281979194775,474,790,,,298142,Thomson Road,,,MOE-registered Kindergarten,http://preschool.gov.sg/klink/klink/pview/kgt/kgtChildCareView.action?usraction=view&schoolCategory=FAQCAT-002&viewId=1123,0.00000000000,0.00000000000,Marymount Kindergarten,,31CEA912E977E50C,2013/02/25,28636.33390000000,35716.51380000000
103.75361400229208,1.379597663933017,475,31,,,688798,Teck Whye Lane,,,MOE-registered Kindergarten,http://preschool.gov.sg/klink/klink/pview/kgt/kgtChildCareView.action?usraction=view&schoolCategory=FAQCAT-002&viewId=1125,0.00000000000,0.00000000000,Methodist Church Of The Incarnation (MCI),,B9E90BDC936E8F62,2013/02/25,19129.87890000000,40174.56450000000
103.86215911253041,1.367339962673105,476,3,,,555108,Tavistock Avenue (Serangoon Garden Way),,,MOE-registered Kindergarten,http://preschool.gov.sg/klink/klink/pview/kgt/kgtChildCareView.action?usraction=view&schoolCategory=FAQCAT-002&viewId=1228,0.00000000000,0.00000000000,Zion Kindergarten,,26D5A4CEF04CA81E,2013/02/25,31209.60560000000,38819.04080000000
103.69750668343306,1.343039980767178,477,717,,B1,640717,Jurong West Street 71,A,107,MOE-registered Kindergarten,http://preschool.gov.sg/klink/klink/pview/kgt/kgtChildCareView.action?usraction=view&schoolCategory=FAQCAT-002&viewId=1232,0.00000000000,0.00000000000,Zulfa Kindergarten,,FB080100332421B6,2013/02/25,12885.60020000000,36132.47360000000
103.83356276441975,1.416425452526254,478,838,,1,760838,Yishun Street 81,A,322,MOE-registered Kindergarten,http://preschool.gov.sg/klink/klink/pview/kgt/kgtChildCareView.action?usraction=view&schoolCategory=FAQCAT-002&viewId=1173,0.00000000000,0.00000000000,Saraswathy Darma Muneeswaran Kindergarten,,9502A8E5FACF84B8,2013/02/25,28027.17430000000,44246.64620000000
103.69584624611223,1.340372509058533,479,642,,1,640642,Jurong West Street 61,A,60,MOE-registered Kindergarten,http://preschool.gov.sg/klink/klink/pview/kgt/kgtChildCareView.action?usraction=view&schoolCategory=FAQCAT-002&viewId=810,0.00000000000,0.00000000000,PCF Pioneer Blk 642,,B7421C62DBEC8B6B,2013/02/25,12700.79440000000,35837.52760000000
103.70552348544277,1.3358475851534,480,661B,,1,642661,Jurong West Street 64,A,426,MOE-registered Kindergarten,http://preschool.gov.sg/klink/klink/pview/kgt/kgtChildCareView.action?usraction=view&schoolCategory=FAQCAT-002&viewId=811,0.00000000000,0.00000000000,PCF Pioneer Blk 661B-662C,,9FA7AF02D83B3C09,2013/02/25,13777.74390000000,35337.12510000000
103.88649470953634,1.352415906620034,481,125,,1,530125,Hougang Avenue 1,A,1470,MOE-registered Kindergarten,http://preschool.gov.sg/klink/klink/pview/kgt/kgtChildCareView.action?usraction=view&schoolCategory=FAQCAT-002&viewId=805,0.00000000000,0.00000000000,PCF Paya Lebar Blk 125,,861C5C77AD185E11,2013/02/25,33917.90270000000,37168.86040000000
103.92929226194653,1.311426080848282,482,12,,,457037,Kee Sun Avenue,,,MOE-registered Kindergarten,http://preschool.gov.sg/klink/klink/pview/kgt/kgtChildCareView.action?usraction=view&schoolCategory=FAQCAT-002&viewId=1128,0.00000000000,0.00000000000,Modern Montessori Kindergarten,,C1D968B551E595E4,2013/02/25,38680.96670000000,32636.55540000000
103.88784708863599,1.379317834882375,483,21,,2,538719,Hougang Street 51,A,14,MOE-registered Kindergarten,http://preschool.gov.sg/klink/klink/pview/kgt/kgtChildCareView.action?usraction=view&schoolCategory=FAQCAT-002&viewId=1129,0.00000000000,0.00000000000,Monte Kidz World (Hougang),,C2980A50FBA0DCBA,2013/02/25,34068.33980000000,40143.54320000000
103.8407938800065,1.314083890560547,484,16,,,307995,Newton Road,,,MOE-registered Kindergarten,http://preschool.gov.sg/klink/klink/pview/kgt/kgtChildCareView.action?usraction=view&schoolCategory=FAQCAT-002&viewId=1143,0.00000000000,0.00000000000,Newton Kindergarten,,1CB3BDAAD51BCC50,2013/02/25,28831.92930000000,32930.23890000000
103.79640346370147,1.429944748753155,485,581,,1,730581,Woodlands Drive 16,A,486,MOE-registered Kindergarten,http://preschool.gov.sg/klink/klink/pview/kgt/kgtChildCareView.action?usraction=view&schoolCategory=FAQCAT-002&viewId=621,0.00000000000,0.00000000000,PCF Admiralty Blk 581,,14BF5F2D253FC5E5,2013/02/25,23891.89910000000,45741.57490000000
103.73996639696901,1.320492742618253,486,48,,1,600048,Teban Gardens Road,A,248,MOE-registered Kindergarten,http://preschool.gov.sg/klink/klink/pview/kgt/kgtChildCareView.action?usraction=view&schoolCategory=FAQCAT-002&viewId=628,0.00000000000,0.00000000000,PCF Ayer Rajah Blk 48-41,,E7977235AA5133C9,2013/02/25,17610.81920000000,33639.09070000000
103.75044208535141,1.35456680113203,487,535,,1,650535,Bukit Batok Street 52,A,631,MOE-registered Kindergarten,http://preschool.gov.sg/klink/klink/pview/kgt/kgtChildCareView.action?usraction=view&schoolCategory=FAQCAT-002&viewId=658,0.00000000000,0.00000000000,PCF Bukit Gombak Blk 535,,2D858B6C0B2358B1,2013/02/25,18776.78850000000,37406.78830000000
103.7683792046337,1.37811790750168,488,111,,1,670111,Gangsa Road,A,75,MOE-registered Kindergarten,http://preschool.gov.sg/klink/klink/pview/kgt/kgtChildCareView.action?usraction=view&schoolCategory=FAQCAT-002&viewId=660,0.00000000000,0.00000000000,PCF Bukit Panjang Blk 111-110,,3DE0E247CD573D9B,2013/02/25,20773.05740000000,40010.89040000000
103.77385803128659,1.379594949822146,489,254,,1,670254,Bangkit Road,A,204,MOE-registered Kindergarten,http://preschool.gov.sg/klink/klink/pview/kgt/kgtChildCareView.action?usraction=view&schoolCategory=FAQCAT-002&viewId=662,0.00000000000,0.00000000000,PCF Bukit Panjang Blk 254,,9DC040ADB971D2FC,2013/02/25,21382.78670000000,40174.19840000000
103.76827818185036,1.382905376926549,490,412,,1,670412,Saujana Road,A,66,MOE-registered Kindergarten,http://preschool.gov.sg/klink/klink/pview/kgt/kgtChildCareView.action?usraction=view&schoolCategory=FAQCAT-002&viewId=663,0.00000000000,0.00000000000,PCF Bukit Panjang Blk 412,,7CFEE07C98B91766,2013/02/25,20761.82930000000,40540.26520000000
103.76967813819802,1.385015595690704,491,422,,1,670422,Fajar Road,A,511,MOE-registered Kindergarten,http://preschool.gov.sg/klink/klink/pview/kgt/kgtChildCareView.action?usraction=view&schoolCategory=FAQCAT-002&viewId=664,0.00000000000,0.00000000000,PCF Bukit Panjang Blk 422-420,,FD6E76383CFCC2F9,2013/02/25,20917.63300000000,40773.59840000000
103.79578998426787,1.307875678100429,492,4,,1,271004,Holland Close,A,19,MOE-registered Kindergarten,http://preschool.gov.sg/klink/klink/pview/kgt/kgtChildCareView.action?usraction=view&schoolCategory=FAQCAT-002&viewId=671,0.00000000000,0.00000000000,PCF Buona Vista Blk 4-32,,4B67E07190A68D7F,2013/02/25,23823.41660000000,32243.79670000000
103.81781351489396,1.446819266134977,493,330,,1,750330,Sembawang Close,A,383,MOE-registered Kindergarten,http://preschool.gov.sg/klink/klink/pview/kgt/kgtChildCareView.action?usraction=view&schoolCategory=FAQCAT-002&viewId=673,0.00000000000,0.00000000000,PCF Canberra Blk 330-319-327-328,,CE778A107000BCB5,2013/02/25,26274.53070000000,47607.44720000000
103.81611825276011,1.455452416487809,494,487,,1,750487,Admiralty Link,A,131,MOE-registered Kindergarten,http://preschool.gov.sg/klink/klink/pview/kgt/kgtChildCareView.action?usraction=view&schoolCategory=FAQCAT-002&viewId=675,0.00000000000,0.00000000000,PCF Canberra Blk 487-488,,B362738363158842,2013/02/25,26085.88210000000,48562.05910000000
103.76350003070806,1.381593486351837,495,545,,1,670545,Bukit Panjang Ring Road,A,871,MOE-registered Kindergarten,http://preschool.gov.sg/klink/klink/pview/kgt/kgtChildCareView.action?usraction=view&schoolCategory=FAQCAT-002&viewId=676,0.00000000000,0.00000000000,PCF Cashew Blk 545-544,,E5EF0C25BD5B1E39,2013/02/25,20230.07720000000,40395.21800000000
103.83112857606605,1.434986156720523,496,122,,1,760122,Yishun Street 11,A,479,MOE-registered Kindergarten,http://preschool.gov.sg/klink/klink/pview/kgt/kgtChildCareView.action?usraction=view&schoolCategory=FAQCAT-002&viewId=685,0.00000000000,0.00000000000,PCF Chong Pang Blk 122,,70C96A4C3F0DF39B,2013/02/25,27756.28600000000,46298.99560000000
103.7506708720606,1.363532362287758,497,338,,1,650338,Bukit Batok Street 34,A,338,MOE-registered Kindergarten,http://preschool.gov.sg/klink/klink/pview/kgt/kgtChildCareView.action?usraction=view&schoolCategory=FAQCAT-002&viewId=711,0.00000000000,0.00000000000,PCF Hong Kah North Blk 338,,97C0E599312AB62C,2013/02/25,18802.28390000000,38398.15450000000
103.8214346966859,1.446697943348276,498,309,,1,750309,Canberra Road,A,109,MOE-registered kindergarten,http://preschool.gov.sg/klink/klink/pview/kgt/kgtChildCareView.action?usraction=view&schoolCategory=FAQCAT-002&viewId=1495,0.00000000000,0.00000000000,PCF Chong Pang Block 309,,BEC9F0CEC11899C6,2013/02/25,26677.51110000000,47594.02950000000
103.75532355793034,1.380411679635057,499,10,,1,680010,Teck Whye Avenue,A,59,MOE-registered Kindergarten,http://preschool.gov.sg/klink/klink/pview/kgt/kgtChildCareView.action?usraction=view&schoolCategory=FAQCAT-002&viewId=690,0.00000000000,0.00000000000,PCF Chua Chu Kang Blk 10-8,,F1025859883E9002,2013/02/25,19320.13420000000,40264.56800000000
103.74846714947928,1.395096209162485,500,786,,1,680786,Choa Chu Kang Drive,A,237,MOE-registered Kindergarten,http://preschool.gov.sg/klink/klink/pview/kgt/kgtChildCareView.action?usraction=view&schoolCategory=FAQCAT-002&viewId=924,0.00000000000,0.00000000000,PCF Chua Chu Kang Blk 786-787-788-792,,BF9DB7B901AD521A,2013/02/25,18557.15970000000,41888.33660000000
103.76589962036931,1.311099113418344,501,462A,,1,120462,Clementi Avenue 3,A,1,MOE-registered Kindergarten,http://preschool.gov.sg/klink/klink/pview/kgt/kgtChildCareView.action?usraction=view&schoolCategory=FAQCAT-002&viewId=697,0.00000000000,0.00000000000,PCF Clementi Blk 462A,,F9232C38A3BC12E9,2013/02/25,20496.90570000000,32600.29730000000
103.91061849147086,1.331986823073544,502,122,,1,470122,Bedok Reservoir Road,A,1021,MOE-registered Kindergarten,http://preschool.gov.sg/klink/klink/pview/kgt/kgtChildCareView.action?usraction=view&schoolCategory=FAQCAT-002&viewId=698,0.00000000000,0.00000000000,PCF Eunos Blk 122,,7EEFCC8DE9B7CB46,2013/02/25,36602.67980000000,34909.98680000000
