longitude,latitude,OBJECTID,HOUSE_NUMB,HYPERLINK,BUILDING_N,LEVEL_NO,STREETNAME,POSTALCODE,DESCRIPTIO,NAME_OF_SC,UNIT_NO,INC_CRC,FMEL_UPD_D,X_ADDR,Y_ADDR
103.85041857966186,1.293149492302731,1,47,http://www.scciob.edu.sg,SINGAPORE CHINESE CHAMBER OF COMMERCE & INDUSTRY B,08,HILL STREET,179365,Private Education Institutions,SINGAPORE CHINESE CHAMBER INSTITUTE OF BUSINESS,01,D2756FF61AC75B40,2014/01/27,29903.08170000000,30615.42610000000
103.85008360710103,1.291307085459822,2,109,http://www.seimpi-music.com.sg/site/seimpi-academy1,FUNAN DIGITALIFE MALL,05,NORTH BRIDGE ROAD,179097,Private Education Institutions,SEIMPI ACADEMY,37,D1733987E6D2080E,2014/01/27,29865.80360000000,30411.70190000000
103.94249907096747,1.352774325646343,3,2,http://www.sensecollege.edu.sg,NTUC INCOME TAMPINES POINT,07,TAMPINES CENTRAL 6,529483,Private Education Institutions,SENSE COLLEGE,01,F5EB6341B71DBCFF,2014/01/27,40150.55930000000,37208.70090000000
103.78817654623758,1.332799468627201,4,913,http://www.seraphcorp.net,,03,BUKIT TIMAH ROAD,589623,Private Education Institutions,SERAPHCORP INSTITUTE,07,C03D4078D1D0E0FD,2014/01/27,22976.16170000000,34999.75630000000
103.87402059352962,1.350858934537079,5,587,http://klcinstitute.edu.sg,CRESTAR BUILDING (TRAINING ROOM 1),,UPPER SERANGOON ROAD,534564,Private Education Institutions,KLC INSTITUTE,,091DAEBC3569DDB0,2014/01/27,32529.67710000000,36996.67140000000
103.85160785891061,1.302880939066166,6,1,http://www.lasalle.edu.sg/,LASALLE COLLEGE OF THE ARTS,,MCNALLY STREET,187940,Private Education Institutions,LASALLE COLLEGE OF THE ARTS,,5082F99B8A4D1146,2014/01/27,30035.43040000000,31691.48020000000
103.8435864404443,1.27311737813901,7,80,http://www.lithanhall.com,FUJI XEROX TOWERS,12,ANSON ROAD,079907,Private Education Institutions,LITHAN HALL ACADEMY,00,67FFB14A4E5872C0,2014/01/27,29142.73280000000,28400.37420000000
103.84847054556026,1.273720504774816,8,12,http://www.hypnosis-singapore.com/,BEST WAY BUILDING,01,PRINCE EDWARD ROAD,079212,Private Education Institutions,LONDON COLLEGE OF CLINICAL HYPNOSIS ASIA,03,044526258E543413,2014/01/27,29686.29510000000,28467.06760000000
103.84624540938916,1.275095194207701,9,3,http://www.lsbf.edu.sg,SPRINGLEAF TOWER,06,ANSON ROAD,079909,Private Education Institutions,LONDON SCHOOL OF BUSINESS & FINANCE,01,BC55B9706062A4A5,2014/01/27,29438.65410000000,28619.07230000000
103.82958804591851,1.306654846589062,10,390,,PALAIS RENAISSANCE,05,ORCHARD ROAD,238871,Private Education Institutions,LUFTHANSA TECHNICAL TRAINING GMBH,04,510D32D141181C39,2014/01/27,27584.82620000000,32108.77250000000
103.86767053504688,1.371388485543195,11,3000,http://www.lfs.edu.sg,,,ANG MO KIO AVENUE 3,569928,Private Education Institutions,LYCEE FRANCAIS DE SINGAPOUR,,BF1B969E3CCCC68A,2014/01/27,31822.95450000000,39266.71400000000
103.84951131624342,1.302122035916567,12,8,http://www.kaplan.com.sg,WILIKIE EDGE,02,WILKIE ROAD,228095,Private Education Institutions,KAPLAN LEARNING INSTITUTE,01,9EC1C15807604AB2,2014/01/27,29802.10480000000,31607.56310000000
103.85008360710103,1.291307085459822,13,109,http://www.kimage.com.sg,FUNAN DIGITALIFE MALL,05,NORTH BRIDGE ROAD,179097,Private Education Institutions,KIMAGE HAIRDRESSING SCHOOL,01,D17339874BCE6F0A,2014/01/27,29865.80360000000,30411.70190000000
103.90406034731751,1.304333085611652,14,50,http://www.inspire.edu.sg,ROXY SQUARE,02,EAST COAST ROAD,428769,Private Education Institutions,INSPIRE EDUCATION CENTRE,144,FB6C459E7AA34ECB,2014/01/27,35872.91280000000,31852.15440000000
103.82171269254849,1.282170069906881,15,2985,http://www.smf.edu.sg/,,,JALAN BUKIT MERAH,159457,Private Education Institutions,SMF INSTITUTE OF HIGHER LEARNING,,5FE3CC95FACBD953,2014/01/27,26708.35980000000,29401.37480000000
103.84945871339816,1.282143581816646,16,62,http://www.barclyne.edu.sg,TPI BUILDING,03,CECIL STREET,049710,Private Education Institutions,BARCLYNE COLLEGE INTERNATIONAL,00,48E2A5D00F0C8FA1,2014/01/27,29796.26470000000,29398.44850000000
103.93111152988195,1.324645452606608,17,209,http://www.bcscollege.edu.sg/en/,,04,NEW UPPER CHANGI ROAD,460209,Private Education Institutions,BCS INTERNATIONAL COLLEGE,"649,651",0F6279D128C4F5D5,2014/01/27,38883.37700000000,34098.29560000000
103.85043437256989,1.302798924187594,18,1A,beacon.edu.sg,,02,SHORT STREET,188210,Private Education Institutions,BEACON INTERNATIONAL COLLEGE,00,2C62F57B56F96B94,2014/01/27,29904.83220000000,31682.41050000000
103.85522003941271,1.297201357566545,19,51,http://www.aca.edu.sg,,01,MIDDLE ROAD,188959,Private Education Institutions,ACADEMIES AUSTRALASIA COLLEGE,00,F8D82E95140FCFBE,2014/01/27,30437.43870000000,31063.46460000000
103.85449518882714,1.301452994061323,20,149,http://www.acm.edu.sg,FU LU SHOU COMPLEX,04,ROCHOR ROAD,188425,Private Education Institutions,ACADEMY FOR CORPORATE MANAGEMENT,06,67D433447DF8E8E6,2014/01/27,30356.76530000000,31533.58790000000
103.85538812309274,1.297022656335237,21,43,http://www.ahd.com.sg,BOON SING BUILDING,03,MIDDLE ROAD,188952,Private Education Institutions,ACADEMY OF HUMAN DEVELOPMENT,00,D8C6799F9E999F53,2014/01/27,30456.14520000000,31043.70490000000
103.8419631524513,1.30991698659704,22,BLOCK C,http://www.learndifferent.com.sg,,01,10 WINSTEDT ROAD,227977,Private Education Institutions,THE WINSTEDT SCHOOL,16,61140F958DAF182C,2014/01/27,28962.05970000000,32469.48450000000
103.84194791259841,1.347906780673938,23,38C,http://www.tmc.edu.sg,,,JALAN PEMIMPIN,577180,Private Education Institutions,TMC ACADEMY,,8E012651BDAC6F60,2014/01/27,28960.34900000000,36670.20110000000
103.84413837674556,1.298132155734372,24,190,http://www.tmisbiz.edu.sg,SINGAPORE SHOPPING CENTRE,06,CLEMENCEAU AVENUE,239924,Private Education Institutions,TMIS BUSINESS SCHOOL,11,F1559C36B06E59C8,2014/01/27,29204.14730000000,31166.37940000000
103.85692753910622,1.296156694124331,25,100,http://www.guilford.com.sg/,SHAW TOWER,02,BEACH ROAD,189702,Private Education Institutions,GUILFORD TRAINING CENTRE,19,CC8104D98068C755,2014/01/27,30627.46940000000,30947.95280000000
103.88077011478066,1.30843228965568,26,231,http://www.hanbridge.edu.sg,BLOCK F,01,MOUNTBATTEN ROAD,397999,Private Education Institutions,HANBRIDGE SCHOOL,01,C4253D3A96BD9D44,2014/01/27,33280.91330000000,32305.36260000000
103.88347931483068,1.354445877829897,27,36,http://www.dps.edu.sg,DPS INTERNATIONAL SCHOOL SINGAPORE,,AROOZOO AVENUE,539842,Private Education Institutions,DPS INTERNATIONAL SCHOOL,,FCE5054897E5049A,2014/01/27,33582.31850000000,37393.31710000000
103.84334933559155,1.31747005442448,28,101,,UNITED SQUARE,18,THOMSON ROAD,307591,Private Education Institutions,DULWICH COLLEGE (SINGAPORE),05,8F0EEAF7EED20337,2014/01/27,29116.32550000000,33304.66450000000
103.8456109922126,1.32817916556997,29,9,http://www.easb.edu.sg,,,AH HOOD ROAD,329975,Private Education Institutions,EAST ASIA INSTITUTE OF MANAGEMENT,,08BC1D886F91AABA,2014/01/27,29368.01990000000,34488.82420000000
103.84954059686515,1.301232506172409,30,1,http://www.eastwestacademy.net,PEACE CENTRE,03,SOPHIA ROAD,228149,Private Education Institutions,EASTWEST ACADEMY,18,CBF2AA68715E4B64,2014/01/27,29805.36410000000,31509.20350000000
103.87246395892998,1.315586818950896,31,1205,http://www.edesacademy.com,GEYLANG WEST COMMUNITY CENTRE,01,UPPER BOON KENG ROAD,387311,Private Education Institutions,EDES ACADEMY,06,5439489C0FFE1AEE,2014/01/27,32356.50310000000,33096.45790000000
103.84777191654055,1.285545612797879,32,1,http://www.edhec-risk.com,,07,GEORGE STREET,049145,Private Education Institutions,EDHEC RISK INSTITUTE - ASIA,02,A2197DFA83142ACF,2014/01/27,29608.53580000000,29774.62640000000
103.84092049438894,1.28294223009276,33,18,http://www.nexusacademics.com,,02,PEARL'S HILL TERRACE,168975,Private Education Institutions,NEXUS ACADEMICS TRAINING CENTRE,01,E03C9DEB59A04135,2014/01/27,28846.03060000000,29486.75450000000
103.77571279854897,1.319259263973447,34,201,http://www.nexus.edu.sg,,,ULU PANDAN ROAD,596468,Private Education Institutions,NEXUS INTERNATIONAL SCHOOL,,819D53F020D005B0,2014/01/27,21589.04110000000,33502.57800000000
103.84341710643017,1.295233439799555,35,97,http://www.NAA.edu.sg,TEOCHEW BUILDING,04,TANK ROAD,238066,Private Education Institutions,NGEE ANN-ADELAIDE EDUCATION CENTRE,00,6D61D7DA97A08714,2014/01/27,29123.87760000000,30845.85410000000
103.84847054556026,1.273720504774816,36,12,http://www.novo.edu.sg,BESTWAY BUILDING,01,PRINCE EDWARD ROAD,079212,Private Education Institutions,NOVO INSTITUTE,03,0445262552E29E1D,2014/01/27,29686.29510000000,28467.06760000000
103.91955618329948,1.330739306091286,37,12,http://www.npsinternational.edu.sg,BLOCKS 1 & 2,,CHAI CHEE LANE,469022,Private Education Institutions,NPS INTERNATIONAL SCHOOL,,2B4A203979CB62CD,2014/01/27,37597.35800000000,34772.07560000000
103.85152157168197,1.296746961823506,38,73,http://www.lhubglobal.com,NTUC TRADE UNION HOUSE,02,BRAS BASAH ROAD,189556,Private Education Institutions,LEARNINGHUB GLOBAL INSTITUTE,01,9FF7D5B63E8EA4D0,2014/02/17,30025.83230000000,31013.21660000000
103.85152157168197,1.296746961823506,39,73,http://www.seedinstitute.edu.sg,NTUC TRADE UNION HOUSE,07,BRAS BASAH ROAD,189556,Private Education Institutions,SEED INSTITUTE,01,9FF7D5B613A3406B,2014/02/17,30025.83230000000,31013.21660000000
103.8682863826162,1.337486886550674,40,1,http://www.sais.edu.sg,,,WOODLEIGH LANE,357684,Private Education Institutions,STAMFORD AMERICAN INTERNATIONAL SCHOOL,,C58DF0B6B5CEE2A3,2014/01/27,31891.54490000000,35518.04850000000
103.84361314279488,1.296192223978888,41,120,http://www.src.edu.sg,IMPERIAL HOUSE,,OXLEY RISE,238709,Private Education Institutions,STAMFORD RAFFLES COLLEGE,,91386DEF3F8BBBB9,2014/01/27,29145.69420000000,30951.87160000000
103.84624540938916,1.275095194207701,42,3,http://www.stansfield.edu.sg,SPRINGLEAF TOWER,LEVEL 6,ANSON ROAD,079909,Private Education Institutions,STANSFIELD COLLEGE,,BC55B97036509021,2014/01/27,29438.65410000000,28619.07230000000
103.85261549145092,1.299261808503165,43,135,http://www.stei.edu.sg,BYLANDS BUILDING,03,MIDDLE ROAD,188975,Private Education Institutions,STEI INSTITUTE,"01,02,03",826C21D7A86F6FAC,2014/01/27,30147.57390000000,31291.29620000000
103.84570322397971,1.275735683523371,44,10,http://www.sterling-campus.edu.sg,INTERNATIONAL PLAZA,25,ANSON ROAD,079903,Private Education Institutions,STERLING CAMPUS,04,B4545ED58712213E,2014/01/27,29378.31290000000,28689.89390000000
103.84951131624342,1.302122035916567,45,2,http://www.stoneforest.com.sg/services-nju.htm,WILKIE EDGE,03,WILKIE ROAD,228095,Private Education Institutions,STONE FOREST ACADEMY,02,9EC1C158D382CBA4,2014/01/27,29802.10480000000,31607.56310000000
103.94371642591177,1.34842582374978,46,144,,HDB SHOPHOUSE,01,TAMPINES STREET 12,521144,Private Education Institutions,SUCCESS.NAT INTERNATIONAL INSTITUTE,398,A2D6E21DC01F51E2,2014/01/27,40286.05920000000,36727.87100000000
103.79043098865665,1.34298223306343,47,38,http://www.swiss-school.edu.sg,SWISS SCHOOL,,SWISS CLUB,288140,Private Education Institutions,SWISS SCHOOL IN SINGAPORE,,96A765299A5F6D57,2014/01/27,23227.07740000000,36125.71010000000
103.84982040403123,1.291945937738795,48,5,http://www.tamaris.com.sg,EXCELSIOR SHOPPING CENTRE,03,COLEMAN STREET,179805,Private Education Institutions,TAMARIS HAIRDRESSING & BEAUTY SCHOOL (1987),13,92305DEA221B86D1,2014/01/27,29836.51090000000,30482.34280000000
103.7921104182648,1.296878557919663,49,95,http://www.tts.edu.sg,,,PORTSDOWN ROAD,139299,Private Education Institutions,TANGLIN TRUST SCHOOL,,C28610092F09FA82,2014/01/27,23413.89530000000,31027.79790000000
103.84966233202786,1.323024577684456,50,70,http://www.tec.edu.sg,,,MARTABAN ROAD,328667,Private Education Institutions,TEC INTERNATIONAL COLLEGE,,0EAF98DA70DD0302,2014/01/27,29818.89640000000,33918.85880000000
103.85548013363318,1.296981888572186,51,37 & 39,http://www.teg.edu.sg,UWEEI BUILDING,01,MIDDLE ROAD,188946,Private Education Institutions,TEG INTERNATIONAL COLLEGE,00,E09A782FA921AB4A,2014/01/27,30466.38520000000,31039.19710000000
103.82734213015458,1.286101047133481,52,298,http://www.taftc.org,CENTRAL PLAZA,14,TIONG BAHRU ROAD,168730,Private Education Institutions,TEXTILE AND FASHION INDUSTRY TRAINING CENTRE,06,386C9B260E8C1244,2014/01/27,27334.87110000000,29836.03970000000
103.84900181187169,1.28022347147525,53,133,http://www.academyforteachers.edu.sg,KECK SENG TOWER,10,CECIL STREET,069535,Private Education Institutions,THE ACADEMY FOR ENGLISH LANGUAGE TEACHERS,01A,DD58D3AB2872068D,2014/01/27,29745.41660000000,29186.13240000000
103.89476336499813,1.318572283279079,54,10,http://www.victoriaeduhub.com.sg,SINGAPORE POST CENTRE,14,EUNOS ROAD 8,408600,Private Education Institutions,VICTORIA EDUHUB,09,E32FB4FE60AFDD3B,2014/01/27,34838.20450000000,33426.62530000000
103.85197106410062,1.322704477745545,55,279,http://victorylifechristianschool.com/,BALESTIER POINT,B1,BALESTIER ROAD,329727,Private Education Institutions,VICTORY LIFE CHRISTIAN SCHOOL,00,125898B7E458B338,2014/01/27,30075.83550000000,33883.46570000000
103.76619183750512,1.296096448951541,56,57,http://www.waseda-shibuya.edu.sg/top-page.php,,,WEST COAST ROAD,127366,Private Education Institutions,WASEDA SHIBUYA SENIOR HIGH SCHOOL IN SINGAPORE,,E26B0A57F1C8380D,2014/01/27,20529.38260000000,30941.37800000000
103.8419631524513,1.30991698659704,57,BLK A,http://www.wavelink.com.sg/wmi/aboutus.html,,03,"10, WINSTEDT ROAD",227977,Private Education Institutions,WAVELINK MARITIME INSTITUTE,09,61140F9580DF16A8,2014/01/27,28962.05970000000,32469.48450000000
103.85128662751939,1.28223843021568,58,1,http://www.amitysingapore.sg,FINLAYSON GREEN,10,FINLAYSON GREEN,049246,Private Education Institutions,AMITY GLOBAL BUSINESS SCHOOL,00,3544209B6FB458C3,2014/01/27,29999.69640000000,29408.93770000000
103.84458906467752,1.298054718424458,59,9,http://www.acc.edu.sg,PARKMALL,13,PENANG ROAD,238459,Private Education Institutions,ACC SCHOOL OF COUNSELLING AND PSYCHOLOGY,22,3864DFC0DF4091AD,2014/01/27,29254.30480000000,31157.81700000000
103.84954059686515,1.301232506172409,60,1,http://www.addison.edu.sg,PEACE CENTRE,06,SOPHIA ROAD,228149,Private Education Institutions,ADDISON INSTITUTE,24,CBF2AA68E7C6E596,2014/01/27,29805.36410000000,31509.20350000000
103.85494556410912,1.297227793618051,61,420,,NORTH BRIDGE CENTRE,06,NORTH BRIDGE ROAD,188727,Private Education Institutions,ADONIS FIRST ACADEMY OF COSMETOLOGY,32,5A943D503179347E,2014/01/27,30406.89200000000,31066.38740000000
103.8457429100512,1.274507875862481,62,51,http://www.advancescs.com,ANSON CENTRE,09,ANSON ROAD,079904,Private Education Institutions,ADVANCE SUPPLY CHAIN TRAINING CENTRE,51A,B86EE6A58F5916DE,2014/01/27,29382.73020000000,28554.12940000000
103.84103768672561,1.321832573080529,63,299,http://www.alsauc.edu.sg,SAN YU ADVENTIST SCHOOL,,THOMSON ROAD,307652,Private Education Institutions,ADVENT LINKS-SAUC EDUCATION CENTRE,,ACBF269D48F2C8F8,2014/01/27,28859.05990000000,33787.04840000000
103.84841833737288,1.288985025271848,64,20,http://www.sae.edu,THE RIVERWALK GALLERIA,01,UPPER CIRCULAR ROAD,058416,Private Education Institutions,SAE INSTITUTE,"42,49",881145E5B61EEE3D,2014/01/27,29680.47480000000,30154.93940000000
103.77074752290237,1.349805669135194,65,270,http://www.saintclare.com.sg,,01,UPPER BUKIT TIMAH ROAD,588211,Private Education Institutions,SAINT CLARE SCHOOL FOR SPECIAL EDUCATION,"11,12",9871C93DA8694E40,2014/01/27,21036.54040000000,36880.25850000000
103.84103768672561,1.321832573080529,66,299,http://www.syas.edu.sg,,,THOMSON ROAD,307652,Private Education Institutions,SAN YU ADVENTIST SCHOOL,,ACBF269D3F6FDACA,2014/01/27,28859.05990000000,33787.04840000000
103.83969237503212,1.300723512498282,67,181,http://www.soma.com.sg,ORCHARD CENTRAL,06,ORCHARD ROAD,238896,Private Education Institutions,SCHOOL OF MUSIC AND THE ARTS,25,12201CCDA2735C22,2014/01/27,28709.34600000000,31452.91660000000
103.84847054556026,1.273720504774816,68,12,http://www.sdh.edu.sg,BESTWAY BUILDING,01,PRINCE EDWARD ROAD,079212,Private Education Institutions,SDH INSTITUTE,03,0445262551CAB221,2014/01/27,29686.29510000000,28467.06760000000
103.8406596135551,1.281708099215677,69,100,http://www.mdisingapore.com,PEARL CENTRE,03,EU TONG SEN STREET,059812,Private Education Institutions,MIRROR D' INTERNATIONAL COLLEGE,19,B333BAA8BC9F7B84,2014/01/27,28816.99710000000,29350.29060000000
103.84787802824056,1.287049373821573,70,72,http://www.mmi-academy.com/,MMI BUILDING,,SOUTH BRIDGE ROAD,058702,Private Education Institutions,MMI ACADEMY,,942958B6BEB373A4,2014/01/27,29620.34430000000,29940.90460000000
103.85146469730152,1.29987902251322,71,80,http://www.nafa.edu.sg,,,BENCOOLEN STREET,189655,Private Education Institutions,NANYANG ACADEMY OF FINE ARTS,,A702D9B996A44696,2014/01/27,30019.50030000000,31359.54370000000
103.81436179840976,1.286689071822113,72,141,http://www.reca.edu.sg,EMPLOYMENT AND EMPLOYABILITY INSTITUTE,C303,REDHILL ROAD,158828,Private Education Institutions,REAL ESTATE AND CONSTRUCTION ACADEMY,,82BB75614EB3B695,2014/01/27,25890.26920000000,29901.06760000000
103.89476336499813,1.318572283279079,73,10,http://www.regent.edu.sg,SINGAPORE POST CENTRE,02,EUNOS ROAD 8,408600,Private Education Institutions,REGENT BUSINESS SCHOOL,03,E32FB4FE004E9182,2014/01/27,34838.20450000000,33426.62530000000
103.84963196784146,1.283280776151585,74,3,http://www.rutgers.edu.sg,SAMSUNG HUB,08,CHURCH STREET,049483,Private Education Institutions,RUTGERS BUSINESS SCHOOL ASIA PACIFIC,00,46DCC16EDAAF7687,2014/01/27,29815.54560000000,29524.19380000000
103.80135040348082,1.280058713672569,75,10,http://www.spjain.org,S P JAIN SCHOOL OF GLOBAL MANAGEMENT,,HYDERABAD ROAD,119579,Private Education Institutions,S P JAIN SCHOOL OF GLOBAL MANAGEMENT,,9DE30BC24AFEC1A8,2014/01/27,24442.20080000000,29167.93110000000
103.83725723032771,1.300222310380864,76,111,http://www.saage.edu.sg,TRIPLEONE SOMERSET,06,SOMERSET ROAD,238164,Private Education Institutions,SAA GLOBAL EDUCATION CENTRE,"01,02",AEFDC85F792AFA2B,2014/01/27,28438.33650000000,31397.49570000000
103.81852658653581,1.282638214126546,77,167,http://www.hmi-ihs.com,CONNECTION ONE TOWER 5,05,JALAN BUKIT MERAH,150167,Private Education Institutions,HMI INSTITUTE OF HEALTH SCIENCES,10,D737B62834739CE7,2014/01/27,26353.77260000000,29453.14150000000
103.78990900556794,1.345705102564717,78,65,http://www.hollandseschool.org,,,BUKIT TINGGI ROAD,289757,Private Education Institutions,HOLLANDSE SCHOOL,,D6A9409E920AE168,2014/01/27,23168.99180000000,36426.79210000000
103.82106822944591,1.283422482046138,79,BLK 119,http://www.tsaofoundation.org,,01,BUKIT MERAH VIEW,152119,Private Education Institutions,HUA MEI TRAINING ACADEMY OF TSAO FOUNDATION,77,C0E363E84CAA1DE7,2014/01/27,26636.63700000000,29539.86040000000
103.84188870140562,1.273645084954982,80,15,http://www.hcs.com.sg,TOWER FIFTEEN,23,HOE CHIANG ROAD,089316,Private Education Institutions,HUMAN CAPITAL SINGAPORE,01,6615FE464051E949,2014/01/27,28953.78740000000,28458.72470000000
103.80339881861441,1.27389286949756,81,991B,http://www.hyperisland.com/singapore,,03,ALEXANDRA ROAD,119970,Private Education Institutions,HYPER ISLAND INSTITUTE OF HIGHER EDUCATION,08,E4AD24B1D0B93369,2014/01/27,24670.16500000000,28486.14120000000
103.84267707234886,1.288566646766419,82,7,http://www.icastec.com.sg/,CENTRAL MALL,01,MAGAZINE ROAD,059572,Private Education Institutions,ICAS TRAINING AND EDUCATION COLLEGE (ICASTEC),"01,02",1AE50D6E962FBFEC,2014/01/27,29041.52090000000,30108.67420000000
103.74168357768328,1.33136346541647,83,8,http://www.icnacademy.com/,JTC SUMMIT,03,JURONG TOWN HALL ROAD,609434,Private Education Institutions,ICN ACADEMY,01,7385F81F97CB6A3E,2014/01/27,17801.96930000000,34841.11390000000
103.87854027900674,1.340968754572287,84,27,http://www.idy.edu.sg,THE HILL LODGE @ MOUNT VERNON,,MOUNT VERNON ROAD,368052,Private Education Institutions,IDY ACADEMY,,82FB4816BE230573,2014/01/27,33032.68760000000,35903.07450000000
103.84954059686515,1.301232506172409,85,1,http://www.image.edu.sg,PEACE CENTRE,06,SOPHIA ROAD,228149,Private Education Institutions,IMAGE SCHOOL OF TECHNOLOGY,28,CBF2AA68006FA366,2014/01/27,29805.36410000000,31509.20350000000
103.84386838882,1.285792100379776,86,101,http://www.imelda-trainingschool.com.sg,PEOPLE'S PARK CENTRE,02,UPPER CROSS STREET,058357,Private Education Institutions,IMELDA UNISEX HAIRSTYLING & BEAUTY TRAINING SCHOOL,40,C3945AD318F49614,2014/01/27,29174.10570000000,29801.87960000000
103.85041857966186,1.293149492302731,87,47,http://impartlearningcentre.com/,SINGAPORE CHINESE CHAMBER OF COMMERCE AND INDUSTRY,07,HILL STREET,179365,Private Education Institutions,IMPART LEARNING CENTRE,08A,D2756FF69BC068A0,2014/01/27,29903.08170000000,30615.42610000000
103.85524787058598,1.300917995264434,88,158B,http://www.1wholisticplace.com.sg,,,ROCHOR ROAD,188433,Private Education Institutions,1@WHOLISTIC LEARNING PLACE,,E362668FE2393768,2014/01/27,30440.53250000000,31474.43120000000
103.84655600876037,1.288862922918573,89,6,http://www.3dsense.net,THE CENTRAL,03,EU TONG SEN STREET,059817,Private Education Institutions,3DSENSE MEDIA SCHOOL,38,295BA66B346E61A0,2014/01/27,29473.21360000000,30141.43670000000
103.85196701185851,1.298787528344262,90,261,http://www.amwilmusicdrama.com/,NIL,03,WATERLOO STREET,180261,Private Education Institutions,A & M WILKINSON SCHOOL OF MUSIC & DRAMA,04,E5C11B1176BF9443,2014/01/27,30075.40420000000,31238.85220000000
103.81699240646805,1.283692638117956,91,163,http://www.absna.com,,04,BUKIT MERAH CENTRAL,150163,Private Education Institutions,ABSNA SCHOOL,3575,9F49A522DB23945F,2014/01/27,26183.03180000000,29569.73540000000
103.76629347983456,1.307051557456677,92,27A,http://www.ics.edu.sg,,,JUBILEE ROAD,128575,Private Education Institutions,INTERNATIONAL COMMUNITY SCHOOL (SINGAPORE),,CC4B8399D443EA90,2014/01/27,20540.72670000000,32152.73790000000
103.84751481551484,1.30702559503813,93,75,http://www.ieec.edu.sg,BOON SIEW BUILDING,05,BUKIT TIMAH ROAD,229833,Private Education Institutions,INTERNATIONAL EXECUTIVE EDUCATION CENTER,04,5BE704D22C16EBB8,2014/01/27,29579.90940000000,32149.77200000000
103.84954059686515,1.301232506172409,94,1,http://www.ims.edu.sg,PEACE CENTRE,06,SOPHIA ROAD,228149,Private Education Institutions,INTERNATIONAL MANAGEMENT SCHOOL,25,CBF2AA68C420222F,2014/01/27,29805.36410000000,31509.20350000000
103.84847054556026,1.273720504774816,95,12,http://www.isa.edu.sg,BESTWAY BUILDING,01,PRINCE EDWARD ROAD,079212,Private Education Institutions,INTERNATIONAL SPORTS ACADEMY (S),02,044526256960648D,2014/01/27,29686.29510000000,28467.06760000000
103.80572770242054,1.280675082253638,96,21,http://www.iss.edu.sg,,,PRESTON ROAD,109355,Private Education Institutions,ISS INTERNATIONAL SCHOOL,,EDA37FCBFBA62738,2014/01/27,24929.35960000000,29236.08030000000
103.8471089987612,1.288188738576052,97,"43, 45, 47",http://www.itc2u.com,,02,NEW BRIDGE ROAD,059399,Private Education Institutions,ITC SCHOOL OF LAWS,01,629D75AAF47183BB,2014/01/27,29534.75710000000,30066.88920000000
103.82890681936385,1.375215048314435,98,600,http://www.jcu.edu.sg,,,UPPER THOMSON ROAD,574421,Private Education Institutions,JAMES COOK AUSTRALIA INSTITUTE OF HIGHER LEARNING,,633C5089408E240A,2014/01/27,27509.02570000000,39689.80900000000
103.90305675907059,1.316822183308334,99,190,http://jbs.edu.sg,MDIS BUILDING,02,CHANGI ROAD,419974,Private Education Institutions,JBS INTERNATIONAL COLLEGE,02,0658F84FE7DAF5AB,2014/01/27,35761.18410000000,33233.13250000000
103.73870827133094,1.333862463597273,100,134,http://www.jegroup.edu.sg,,04,JURONG GATEWAY ROAD,600134,Private Education Institutions,JE EDUCATIONAL COLLEGE,307L,557BFFEE6498A6FC,2014/01/27,17470.85860000000,35117.45310000000
103.85692753910622,1.296156694124331,101,100,http://www.jdmis.edu.sg,SHAW TOWERS GALLERY,02,BEACH ROAD,189702,Private Education Institutions,JEWELLERY DESIGN & MANAGEMENT INTERNATIONAL SCHOOL,"50,57",CC8104D93CE11EFD,2014/01/27,30627.46940000000,30947.95280000000
103.84002509230581,1.302897206651689,102,51,http://www.kaplan.com.sg,STARHUB CENTRE,03,CUPPAGE ROAD,229469,Private Education Institutions,KAPLAN HIGHER EDUCATION ACADEMY,01,FB03F31E77B8D06C,2014/01/27,28746.37390000000,31693.27270000000
103.84951131624342,1.302122035916567,103,8,http://www.kaplan.com.sg,WILIKIE EDGE,02,WILKIE ROAD,228095,Private Education Institutions,KAPLAN HIGHER EDUCATION INSTITUTE,01,9EC1C15822EC0646,2014/01/27,29802.10480000000,31607.56310000000
103.75314785518701,1.380018425815157,104,140,http://k4ktrainingcentre.weebly.com/,,02,TECK WHYE LANE,680140,Private Education Institutions,KITS4KIDS TRAINING CENTRE,355,F9E1824E0633643E,2014/01/27,19078.00420000000,40221.09200000000
103.85527857169406,1.297123673028196,105,45,http://www.informatics.edu.sg,FOO ANN BUILDING,,MIDDLE ROAD,188954,Private Education Institutions,INFORMATICS ACADEMY,,2412CB05A04C7988,2014/01/27,30443.95290000000,31054.87470000000
103.85281084892686,1.299076733269655,106,133,http://www.informaticsglobalcampus.com,BOC PLAZA,04,MIDDLE ROAD,188974,Private Education Institutions,INFORMATICS GLOBAL CAMPUS,01,6C780C475D01B53A,2014/01/27,30169.31560000000,31270.83180000000
103.84002509230581,1.302897206651689,107,51,http://www.inlingua.edu.sg,,10,CUPPAGE ROAD,229469,Private Education Institutions,INLINGUA SCHOOL OF LANGUAGES,12,FB03F31EB5064405,2014/01/27,28746.37390000000,31693.27270000000
103.78648281088022,1.299746972487064,108,1,http://www.insead.edu/home/,INSEAD,,AYER RAJAH AVENUE,138676,Private Education Institutions,INSEAD,,F32A349F2B3C4045,2014/01/27,22787.59800000000,31344.98340000000
103.84055406598711,1.278233511336501,109,150,http://www.inspiration.sg,,,NEIL ROAD,088879,Private Education Institutions,INSPIRATION DESIGN INTERNATIONAL SCHOOL,,C00D4D4CD27383B0,2014/01/27,28805.25160000000,28966.08870000000
103.85152157168197,1.296746961823506,110,73,http://www.ntuclearninghub.com,NTUC TRADE UNION HOUSE,02,BRAS BASAH ROAD,189556,Private Education Institutions,NTUC LEARNINGHUB,01,9FF7D5B6350A2D0E,2014/01/27,30025.83230000000,31013.21660000000
103.85789792960426,1.308159198851635,111,77,http://www.nurseslearninghub.sg,,,MAUDE ROAD,208353,Private Education Institutions,NURSES LEARNING HUB,,E34000A94299B5FC,2014/01/27,30735.45240000000,32275.12910000000
103.85104428483992,1.291156846727065,112,1,http://www.nyu-online.com,THE ADELPHI,04,COLEMAN STREET,179803,Private Education Institutions,NYU LANGUAGE SCHOOL,37,967EA57259A85E9C,2014/01/27,29972.71880000000,30395.09000000000
103.8148888008124,1.295729034088898,113,3,http://www.tischasia.nyu.edu.sg/page/home.html,,,KAY SIANG ROAD,248923,Private Education Institutions,NYU TISCH SCHOOL OF THE ARTS ASIA,,85AFA8D989DB92C7,2014/01/27,25948.92750000000,30900.65960000000
103.86205978737881,1.308393972654994,114,809,,KITCHENER COMPLEX,07,FRENCH ROAD,200809,Private Education Institutions,OCEAN BUSINESS SCHOOL,172,916773561E3786E6,2014/01/27,31198.62820000000,32301.09410000000
103.85396349864757,1.298887331093513,115,108,http://www.omega.edu.sg,BRIGHT CHAMBER,03,MIDDLE ROAD,188967,Private Education Institutions,OMEGA INTERNATIONAL COLLEGE,01,44BBA6A20924E2F0,2014/01/27,30297.59540000000,31249.88960000000
103.96231638972782,1.341975997316335,116,696,http://www.owis.org,ONE WORLD INTERNATIONAL SCHOOL,,UPPER CHANGI ROAD EAST,486826,Private Education Institutions,ONE WORLD INTERNATIONAL SCHOOL,,FD18F0A4CD4FF500,2014/01/27,42356.07050000000,36014.78210000000
103.85242873620393,1.282287668184217,117,1,http://www.otcinstitute.org.sg,ONE MARINA BOULEVARD,10,MARINA BOULEVARD,018989,Private Education Institutions,ONG TENG CHEONG LABOUR LEADERSHIP INSTITUTE,01,5E6FB7498F3142BB,2014/01/27,30126.80370000000,29414.38310000000
103.86099006598137,1.30212981521792,118,12A,http://www.orita-sinclair.edu.sg,,,PAHANG STREET,198613,Private Education Institutions,"ORITA SINCLAIR SCHOOL OF DESIGN, NEW MEDIA AND THE ARTS",,7EB19289E3A4405E,2014/01/27,31079.58570000000,31608.43430000000
103.90703930541284,1.313569723869848,119,1,http://www.osac.edu.sg,SCDF TELOK KURAU CAMP,,"LORONG J,TELOK KURAU",425792,Private Education Institutions,OSAC INTERNATIONAL COLLEGE,,64A515F9A4EBD8F6,2014/01/27,36204.41380000000,32873.50460000000
103.73967755937197,1.333825623685755,120,135,http://www.apcot.com.sg,,04,JURONG GATEWAY ROAD,600135,Private Education Institutions,APCOT EDUCATIONAL CENTRE,339,D9B149AB79F76399,2014/01/27,17578.73020000000,35113.37540000000
103.89150051558818,1.314191300839127,121,511,http://www.aprotraining.sg,GRANDLINK SQUARE,02,GUILLEMARD ROAD,399849,Private Education Institutions,APRO TRAINING CENTRE,12,4C0C008ED6BD0E8B,2014/01/27,34475.09240000000,32942.18980000000
103.85438758256804,1.359220050101905,122,5,http://www.autism.org.sg,,,ANG MO KIO AVENUE 10,569739,Private Education Institutions,ARC LEARNING ACADEMY,,01CC4C35CFC31A2B,2014/01/27,30344.73520000000,37921.17320000000
103.84944198141244,1.300651031920082,123,35,http://www.ariumedu.com,PARKLANE SHOPPING MALL,09,SELEGIE ROAD,188307,Private Education Institutions,ARIUM SCHOOL OF ARTS AND SCIENCES,"27,28,29",DA6A4CF357EEC1F3,2014/01/27,29794.38960000000,31444.90690000000
103.84767466934851,1.288438426050952,124,19,http://www.ascend.edu.sg,,01,CARPENTER STREET,059908,Private Education Institutions,ASCEND EDUCATION CENTRE,01,1F0039880324F757,2014/01/27,29597.71120000000,30094.49880000000
103.78737434631711,1.299180416360468,125,1,http://www.ascensia.edu.sg,CONNEXIS,B2,FUSIONOPOLIS WAY,138632,Private Education Institutions,ASCENSIA ACADEMY,02,EE1D71B08F9D2D64,2014/01/27,22886.81680000000,31282.33460000000
103.83969237503212,1.300723512498282,126,181,http://www.mages.edu.sg,ORCHARD CENTRAL,06,ORCHARD ROAD,238896,Private Education Institutions,MAGES INSTITUTE OF EXCELLENCE,11,12201CCDDCB94DD4,2014/01/27,28709.34600000000,31452.91660000000
103.80067720486251,1.297247793846143,127,501,http://www.mdis.edu.sg/,MDIS CAMPUS,,STIRLING ROAD,148951,Private Education Institutions,MANAGEMENT DEVELOPMENT INSTITUTE OF SINGAPORE,,52DAB6CA1D5E7454,2014/01/27,24367.30370000000,31068.61210000000
103.81736700108753,1.292803430870168,128,38C,http://www.manassehmeyer.edu.sg,,,BELVEDERE CLOSE,159883,Private Education Institutions,MANASSEH MEYER SCHOOL,,90D3353A81F53E4B,2014/01/27,26224.72740000000,30577.15960000000
103.85001490478315,1.284981370322883,129,ONE,http://WWW.MBS.AC.UK/GLOBAL/,,07,PHILLIP STREET,048692,Private Education Institutions,MANCHESTER BUSINESS SCHOOL,00,1D5825827F89C880,2014/01/27,29858.16220000000,29712.23690000000
103.85459027189752,1.296708684038359,130,410,http://www.mis.edu.sg,,,NORTH BRIDGE ROAD,188726,Private Education Institutions,MARKETING INSTITUTE OF SINGAPORE TRAINING CENTRE,,8B5172872664E7E1,2014/01/27,30367.35170000000,31008.98670000000
103.85603615710751,1.298698259380337,131,520,http://www.mass.edu.sg,WISMA ALSAGOFF,03,NORTH BRIDGE ROAD,188742,Private Education Institutions,MASS EDUCATION INSTITUTE,01,C27D7C63DC967D4D,2014/01/27,30528.26400000000,31228.98500000000
103.84954059686515,1.301232506172409,132,1,http://www.mbwinstitute.com,PEACE CENTRE,07,SOPHIA ROAD,228149,Private Education Institutions,MBW INSTITUTE,16,CBF2AA681B9FA140,2014/01/27,29805.36410000000,31509.20350000000
103.80067720486251,1.297247793846143,133,501,http://www.mdiscollege.edu.sg/about-mdis-college.html,MDIS CAMPUS,,STIRLING ROAD,148951,Private Education Institutions,MDIS COLLEGE,,52DAB6CA40CECC2F,2014/01/27,24367.30370000000,31068.61210000000
103.84847054556026,1.273720504774816,134,12,http://www.trentglobal.edu.sg,BESTWAY BUILDNG,"PODIUM B, 06",PRINCE EDWARD ROAD,079212,Private Education Institutions,TRENT GLOBAL COLLEGE OF TECHNOLOGY AND MANAGEMENT,13,044526258D859E24,2014/01/27,29686.29510000000,28467.06760000000
103.85524787058598,1.300917995264434,135,160,http://www.uniapolis.sg,,03,ROCHOR ROAD,188435,Private Education Institutions,UNIAPOLIS SCHOOL OF BUSINESS,00,E362668F5C1130C6,2014/01/27,30440.53250000000,31474.43120000000
103.77699305177761,1.303229801944711,136,1207,http://www.uwcsea.edu.sg/,,,DOVER ROAD,139654,Private Education Institutions,UNITED WORLD COLLEGE OF SOUTH EAST ASIA,,6AE042C69705C3F8,2014/01/27,21731.48090000000,31730.11840000000
103.93138663378446,1.358288372808976,137,1,http://www.uwcsea.edu.sg/,INFANT BLOCK,,TAMPINES STREET 73,528704,Private Education Institutions,UNITED WORLD COLLEGE OF SOUTH EAST ASIA - EAST,,9D713474218DBEDD,2014/01/27,38913.84430000000,37818.36420000000
103.87380811169085,1.316734207067692,138,1208,http://www.unitedworld.edu.sg,,01,UPPER BOON KENG ROAD,387312,Private Education Institutions,UNITEDWORLD SCHOOL OF BUSINESS,19,3E9ABFFDCAAB8D4F,2014/01/27,32506.09220000000,33223.33250000000
103.85394229875259,1.297489762146781,139,100,http://www.unlv.edu.sg,NATIONAL LIBRARY BUILDING,11,VICTORIA STREET,188064,Private Education Institutions,UNLV SINGAPORE,02,08979924D9E22AE6,2014/01/27,30295.23730000000,31095.35370000000
103.82790289905964,1.429882510768447,140,701A,uptrendcollege.com,,03,YISHUN AVENUE 5,761701,Private Education Institutions,UPTREND COLLEGE,02,48153FC160E87F61,2014/01/27,27397.31580000000,45734.66070000000
103.81879858158359,1.282932204827429,141,168,http://www.portman.edu.sg,,04,JALAN BUKIT MERAH,150168,Private Education Institutions,PORTMAN INTERNATIONAL COLLEGE,"07A,B",D0AD8CA891A8CF68,2014/01/27,26384.04370000000,29485.64930000000
103.84986350672293,1.284358150869132,142,17,http://www.pta.com.sg,GRAND BUILDING,03,PHILLIP STREET,048695,Private Education Institutions,PROTHERAPIST ACADEMY,00,4B97BB0A87C6C20D,2014/01/27,29841.31320000000,29643.32450000000
103.82655046646006,1.286943732346987,143,355,http://www.psb-academy.edu.sg,,,JALAN BUKIT HO SWEE,169567,Private Education Institutions,PSB ACADEMY,,814DBC25745FD586,2014/01/27,27246.76590000000,29929.21970000000
103.84344604062751,1.288922526761547,144,51,http://www.raffles-college.edu.sg,RAFFLES EDUCATION SQUARE,,MERCHANT ROAD,058283,Private Education Institutions,RAFFLES COLLEGE OF HIGHER EDUCATION,,76F6B429FF3904A0,2014/01/27,29127.10040000000,30148.02590000000
103.83168208340358,1.301456783514208,145,25A,http://www.ofs.edu.sg,OVERSEAS FAMILY SCHOOL,BLK 25F,PATERSON ROAD,238515,Private Education Institutions,OVERSEAS FAMILY SCHOOL,,2B3B166C45B65E01,2014/01/27,27817.87280000000,31533.99710000000
103.89230885507426,1.319687134650835,146,11,http://www.capelleacademy.com,,05,EUNOS ROAD 8,408601,Private Education Institutions,CAPELLE ACADEMY,04,3FF235C94908BB02,2014/02/17,34565.03840000000,33549.89340000000
103.90104005042529,1.303820411016868,147,865,http://www.singapore-nei.com,KATONG SHOPPING CENTRE,06,MOUNTBATTEN ROAD,437844,Private Education Institutions,NANYANG EDUCATION INSTITUTE,"28,29",0381F98AAE047E05,2014/01/27,35536.78270000000,31795.45610000000
103.85695559120711,1.297757859889574,148,101,http://www.bflearninghub.com.sg/,THE 101,02,BEACH ROAD,189703,Private Education Institutions,BEAUTY FOREVER LEARNING HUB,04,F7C5A291A1FE7FB5,2014/01/27,30630.58980000000,31125.00140000000
103.85319687683409,1.301216889523478,149,192,http://www.bentley.edu.sg,SKYLINE BUILDING,07,WATERLOO STREET,187966,Private Education Institutions,BENTLEY INSTITUTE,02,BDA3C38E0686013F,2014/01/27,30212.27520000000,31507.47950000000
103.86257047090456,1.30871570618967,150,26,http://www.birmingham.edu.sg,BH BUILDING,05,HORNE ROAD,209062,Private Education Institutions,BIRMINGHAM ACADEMY,01,9101C893D1A8AA16,2014/01/27,31255.46210000000,32336.67030000000
103.81746537956356,1.283837506804447,151,162,http://www.bmc.edu.sg,,03,BUKIT MERAH CENTRAL,150162,Private Education Institutions,BMC INTERNATIONAL COLLEGE,3555,382E0FC518D9F084,2014/01/27,26235.66990000000,29585.75390000000
103.85603615710751,1.298698259380337,152,520,http://www.bostonbiz.edu.sg,WISMA ALSAGOFF,03,NORTH BRIDGE ROAD,188742,Private Education Institutions,BOSTON BUSINESS SCHOOL,01,C27D7C632FD387B0,2014/01/27,30528.26400000000,31228.98500000000
103.84897096636381,1.279548521521496,153,108,http://www.boxhill.sg,FINEXIS BUILDING,10,ROBINSON ROAD,068900,Private Education Institutions,BOX HILL INSTITUTE SINGAPORE,00,F660AB563F2C38E0,2014/01/27,29741.98410000000,29111.49990000000
103.84954059686515,1.301232506172409,154,1,http://www.bradfordrex.com.sg,PEACE CENTRE,02,SOPHIA ROAD,228149,Private Education Institutions,BRADFORD-REX COLLEGE OF HOSPITALITY & MANAGEMENT,07,CBF2AA685E0E8FCD,2014/01/27,29805.36410000000,31509.20350000000
103.86517213728766,1.30277120969404,155,5001,http://www.bristol.edu.sg,GOLDEN MILE COMPLEX,04,BEACH ROAD,199588,Private Education Institutions,BRISTOL BUSINESS SCHOOL,01,E6D65E7F9B89F0B7,2014/01/27,31545.01150000000,31679.36190000000
103.82146281841881,1.305069883984436,156,30,http://www.britishcouncil.org.sg,,,NAPIER ROAD,258509,Private Education Institutions,BRITISH COUNCIL (SINGAPORE),,E06A53E13A531B8B,2014/01/27,26680.56280000000,31933.51830000000
103.84586871340915,1.282335029862603,157,44A,http://www.britisheducationcentre.org/,,LEVEL 2,CLUB STREET,069421,Private Education Institutions,BRITISH EDUCATION CENTRE,,752B3AB9792EB053,2014/01/27,29396.72700000000,29419.61570000000
103.84063711649762,1.281585637416934,158,100A,http://www.cic.edu.sg,PEARLS CENTRE OFFICE PODIUM,08,"EU TONG SEN STREET,",059813,Private Education Institutions,CAMFORD INTERNATIONAL COLLEGE,01,A9C831C145618BC8,2014/01/27,28814.49340000000,29336.74950000000
103.84458906467752,1.298054718424458,159,9,http://www.canadian.edu.sg,PARK MALL,14,PENANG ROAD,238459,Private Education Institutions,CANADIAN EDUCATION COLLEGE,01,3864DFC09A3F45E5,2014/01/27,29254.30480000000,31157.81700000000
103.72705248081236,1.345256019257627,160,7,http://www.cis.edu.sg,,,JURONG WEST STREET 41,649414,Private Education Institutions,CANADIAN INTERNATIONAL SCHOOL,,1DAB45E3870E0A1A,2014/01/27,16173.74390000000,36377.34940000000
103.84801757850663,1.272946276950152,161,70,http://www.cae.edu.sg,PALMER HOUSE,02,PALMER ROAD,079427,Private Education Institutions,CENTER FOR AMERICAN EDUCATION,08,11B336986EB0DE9B,2014/01/27,29635.88390000000,28381.45720000000
103.80633436687889,1.449809155708784,162,3,http://www.cerealtechschoolofbakingtechnology.com/,,,WOODLANDS LINK,738720,Private Education Institutions,CEREALTECH SCHOOL OF BAKING TECHNOLOGY,,2A3E6C8AE12F22DF,2014/01/27,24997.08640000000,47938.06610000000
103.81436179840976,1.286689071822113,163,141,http://www.cgprotege.com,,01,REDHILL ROAD,158828,Private Education Institutions,CG PROTEGE ANIMATION SCHOOL,24,82BB7561E60C6B28,2014/01/27,25890.26920000000,29901.06760000000
103.80788858945938,1.274844281883742,164,450,http://www.citech.edu.sg,TELOK BLANGAH COMMUNITY CENTRE,02,TELOK BLANGAH STREET 31,108943,Private Education Institutions,CHARTERED INSTITUTE OF TECHNOLOGY,05,1168EF40B9066B20,2014/01/27,25169.84240000000,28591.33800000000
103.83849600040828,1.302372382067622,165,37,http://www.chatsworth.com.sg,,,EMERALD HILL ROAD,229313,Private Education Institutions,CHATSWORTH INTERNATIONAL SCHOOL,,74B197851A6B1428,2014/01/27,28576.20000000000,31635.23990000000
103.84424958634885,1.289176813640065,166,30,http://www.cma-academy.edu.sg,RIVERSIDE POINT,03,MERCHANT ROAD,058282,Private Education Institutions,CHATSWORTH MEDI@RT ACADEMY,22,DD9CE993CB028AE0,2014/01/27,29216.52810000000,30176.14390000000
103.82991916449527,1.320354725203217,167,60,http://WWW.CNIS.EDU.SG,,60,DUNEARN ROAD,309434,Private Education Institutions,CHINESE INTERNATIONAL SCHOOL,,E69F490DEEE1EC5A,2014/01/27,27621.67870000000,33623.63460000000
103.87929536250921,1.35451979540537,168,780,http://www.cmasg.com/en/,,02,UPPER SERANGOON ROAD,534649,Private Education Institutions,CHINESE MUSIC ACADEMY,06,75FBA80C597CFA19,2014/01/27,33116.69200000000,37401.48130000000
103.81367274221397,1.284078034106342,169,2,http://www.citycollege.edu.sg,SPRING SINGAPORE,20,BUKIT MERAH CENTRAL,159835,Private Education Institutions,CITY COLLEGE,00,4482B869C12F7AC0,2014/01/27,25813.58090000000,29612.35300000000
103.84847054556026,1.273720504774816,170,12,http://www.colemancollege.edu.sg,"PODIUM B, BESTWAY BUILDING",05,PRINCE EDWARD ROAD,079212,Private Education Institutions,COLEMAN COLLEGE,03,04452625528C2531,2014/01/27,29686.29510000000,28467.06760000000
103.84847054556026,1.273720504774816,171,12,http://www.csbs.edu.sg,"PODIUM B, BESTWAY BUILDING",05,PRINCE EDWARD ROAD,079212,Private Education Institutions,COLEMAN SCHOOL OF BEHAVIOURAL SCIENCES,02,04452625B024ED85,2014/01/27,29686.29510000000,28467.06760000000
103.87402059352962,1.350858934537079,172,587,http://www.klc.edu.sg,CRESTAR BUILDING,,UPPER SERANGOON ROAD,534564,Private Education Institutions,KLC INTERNATIONAL INSTITUTE,,091DAEBCC24FDD36,2014/02/24,32529.67710000000,36996.67140000000
103.84570322397971,1.275735683523371,173,10,http://www.asiaglobal.edu.sg/,INTERNATIONAL PLAZA,16,ANSON ROAD,079903,Private Education Institutions,M2 ACADEMY,01E,B4545ED5800784A4,2014/02/24,29378.31290000000,28689.89390000000
103.88994722172814,1.314873418221851,174,711,http://www.tcmhc.com.sg,ORIENTAL VENTURE BUILDING,04,GEYLANG ROAD,389626,Private Education Institutions,TCM AND HEALTHCARE COLLEGE,02,45D8736F79F52A21,2014/03/10,34302.22380000000,33017.61090000000
103.84377092372283,1.277465434815144,175,95,http://www.kimarie.com.sg/training-centre/about_us,,,TANJONG PAGAR ROAD,088516,Private Education Institutions,KIMARIE HAIR & BEAUTY TRAINING CENTRE,,19D50B3B803F7823,2014/01/27,29163.26240000000,28881.16000000000
103.89476336499813,1.318572283279079,176,10,http://www.gig.edu.sg,SINGAPORE POST CENTRE,B2,EUNOS ROAD 8,408600,Private Education Institutions,G I G EDUCATION CENTRE,14,E32FB4FE732E0F39,2014/01/27,34838.20450000000,33426.62530000000
103.84954059686515,1.301232506172409,177,1,http://www.gteceducation.com.sg,PEACE CENTRE,02,SOPHIA ROAD,228149,Private Education Institutions,G-TEC  COMPUTER EDUCATION CENTRE,03,CBF2AA68AAE37740,2014/01/27,29805.36410000000,31509.20350000000
103.8521274914884,1.28466507203785,178,50,http://www.gemseducation.com,SINGAPORE LAND TOWER,27,RAFFLES PLACE,048623,Private Education Institutions,GEMS WORLD ACADEMY (SINGAPORE),02,25B403BE71AF9B44,2014/01/27,30093.27570000000,29677.26400000000
103.84222712141327,1.300614669009654,179,100,http://www.aventis.edu.sg,CONCORDE HOTEL,04,ORCHARD ROAD,238840,Private Education Institutions,AVENTIS SCHOOL OF MANAGEMENT,100,05DDFB349AB370BD,2014/01/27,28991.44060000000,31440.88220000000
103.81571088367085,1.29818942224543,180,318,http://www.avondale.edu.sg,PHOENIX PARK,,TANGLIN ROAD,247979,Private Education Institutions,AVONDALE GRAMMAR SCHOOL,,A9C64FFF5834776E,2014/01/27,26040.41990000000,31172.71600000000
103.82541280105731,1.265509149863986,181,201,http://www.bitc.com.sg,ANNEXE BLOCK (BLOCK 1),11,KEPPEL ROAD,099419,Private Education Institutions,BAKING INDUSTRY TRAINING CENTRE,00,392AABC8294C881B,2014/01/27,27120.14590000000,27559.09490000000
103.8499130405408,1.284502536920517,182,15,http://www.icae.edu.sg,TAN EAN KIAM BUILDING,06,PHILLIP STREET,048694,Private Education Institutions,COLLEGE OF ALLIED EDUCATORS,00,CBDD3E69B13C7234,2014/01/27,29846.82580000000,29659.28990000000
103.84561554915176,1.284960078635893,183,536,http://www.counsel.org.sg,HONG LIM COMPLEX,05,UPPER CROSS ST,050536,Private Education Institutions,COUNSELLING AND CARE CENTRE,241,1666569FF2FFB395,2014/01/27,29368.55040000000,29709.87980000000
103.88261616080747,1.314887240538129,184,250,http://www.csmacademy.edu.sg,SPCS BUILDING,03,SIMS AVENUE,387513,Private Education Institutions,CSM ACADEMY INTERNATIONAL,01,CAA659BCD0C59F46,2014/01/27,33486.34700000000,33019.12200000000
103.85447527670215,1.327267770783474,185,90 AND 92,curtin.edu.sg,,,JALAN RAJAH,329162,Private Education Institutions,CURTIN EDUCATION CENTRE,,6EB7FD2D4FAFBB25,2014/01/27,30354.52520000000,34388.05350000000
103.78965958949956,1.300891645990376,186,10,https://singapore.digipen.edu,PIXEL BUILDING,01,CENTRAL EXCHANGE GREEN,138649,Private Education Institutions,DIGIPEN INSTITUTE OF TECHNOLOGY SINGAPORE,01,D2CEA996570DF448,2014/01/27,23141.14730000000,31471.54920000000
103.8824673085409,1.363028671523156,187,58,http://www.dimensions.edu.sg,,,LOWLAND ROAD,547453,Private Education Institutions,DIMENSIONS INTERNATIONAL COLLEGE,,DC6A37ADDEE9688F,2014/01/27,33469.67440000000,38342.35670000000
103.77912351779337,1.306266298459445,188,301,http://www.dovercourt.edu.sg,DOVER COURT PREPARATORY SCHOOL,,DOVER ROAD,139644,Private Education Institutions,DOVER COURT PREPARATORY SCHOOL,,07C8D98E4DF29754,2014/01/27,21968.58980000000,32065.87360000000
103.81852658653581,1.282638214126546,189,167,http://www.aec.edu.sg,,02,JALAN BUKIT MERAH,150167,Private Education Institutions,AEC COLLEGE,13,D737B628B7CB435C,2014/01/27,26353.77260000000,29453.14150000000
103.85334260709776,1.301632321871961,190,180,http://www.beautyacademy.com.sg,THE BENCOOLEN,02,BENCOOLEN STREET,189646,Private Education Institutions,AESTHETICS INTERNATIONAL ACADEMY,01,3BB8D7F01756D8D5,2014/01/27,30228.49330000000,31553.41600000000
103.86922081532953,1.411841770540008,191,70,http://www.attc.edu.sg,SELETAR AEROSPACE TRAINING COMPLEX,,SELETAR AEROSPACE VIEW,797564,Private Education Institutions,AIR TRANSPORT TRAINING COLLEGE,,E957B31987EE90C9,2014/01/27,31995.41380000000,43739.83660000000
103.8499130405408,1.284502536920517,192,15,,TAN EAN KIAM BUILDING,06,PHILLIP STREET,048694,Private Education Institutions,ALIVE COMMUNITY ACADEMY,00,CBDD3E69C34CCCB3,2014/01/27,29846.82580000000,29659.28990000000
103.83715327795581,1.314103433110079,193,1,http://www.alliancefrancaise.org.sg,,,SARKIES ROAD,258130,Private Education Institutions,ALLIANCE FRANCAISE DE SINGAPOUR,,D5DD0B5F1075C2BB,2014/01/27,28426.76520000000,32932.39890000000
103.80401904387234,1.286851324889931,194,BLK 123,http://www.allspice.edu.sg,,03,BUKIT MERAH LANE1,150123,Private Education Institutions,ALLSPICE INSTITUTE,108,78886C5124C10EFA,2014/01/27,24739.20760000000,29919.01960000000
103.87380811169085,1.316734207067692,195,1208,http://www.ace.edu.sg,,BLOCK B,UPPER BOON KENG ROAD,387312,Private Education Institutions,AMERICAN CENTER FOR EDUCATION,,3E9ABFFDCE74A63A,2014/01/27,32506.09220000000,33223.33250000000
103.84954059686515,1.301232506172409,196,1,http://www.eduquest.com.sg,PEACE CENTRE,07,SOPHIA ROAD,228149,Private Education Institutions,EDUQUEST INTERNATIONAL INSTITUTE,13,CBF2AA6816C293E5,2014/01/27,29805.36410000000,31509.20350000000
103.84792150307811,1.28828877124857,197,15,http://www.ef.sg,,,CARPENTER STREET,059904,Private Education Institutions,EF INTERNATIONAL LANGUAGE SCHOOLS,,4D00B6744CDE40BB,2014/01/27,29625.18190000000,30077.95080000000
103.86430226839769,1.377172876348946,198,5000,http://www.elitc.com,TECHPLACE II,02,ANG MO KIO AVE 5,569870,Private Education Institutions,ELECTRONICS INDUSTRIES TRAINING CENTRE,08,83BE31340B640F2C,2014/01/27,31448.09910000000,39906.31760000000
103.84658414568976,1.358110661536206,199,228,http://www.smartlab.com.sg,,B1,BISHAN STREET 23,570228,Private Education Institutions,SMARTLAB EDUCATION PRIVATE SCHOOL,71,57106D87833E7651,2014/03/17,29476.30410000000,37798.49660000000
103.86416194718807,1.41735408208372,200,600,http://www.staa.com.sg,,,WEST CAMP ROAD,797654,Private Education Institutions,ST AEROSPACE ACADEMY,,EC8A0615B743E256,2014/03/17,31432.42480000000,44349.35220000000
103.84386838882,1.285792100379776,201,#06-10,http://www.ymk.edu.sg,PEOPLE'S PARK CENTRE,,101 UPPER CROSS STREET,058357,Private Education Institutions,YMK EDUCATION CENTRE,,C3945AD33D62B5D8,2014/01/27,29174.10570000000,29801.87960000000
103.81367274221397,1.284078034106342,202,2,http://www.kibs.edu.sg,SPRING SINGAPORE BUILDING,14,BUKIT MERAH CENTRAL,159835,Private Education Institutions,KINGS INTERNATIONAL BUSINESS SCHOOL,03,4482B8690F85F597,2014/01/27,25813.58090000000,29612.35300000000
103.77024728740169,1.442883031111253,203,BLK 6A,http://www.kingston.edu.sg,6A,03,WOODLANDS CENTRE ROAD,731006,Private Education Institutions,KINGSTON INTERNATIONAL SCHOOL,280,B47784B5294AF907,2014/01/27,20981.14580000000,47172.28950000000
103.85709578298943,1.335998650788334,204,17A,http://k4kspecialschool.weebly.com/,,01,LOR 7 TOA PAYOH,311017,Private Education Institutions,KITS4KIDS SPECIAL SCHOOL,,F4788A8259CF6EDF,2014/01/27,30646.15160000000,35353.47220000000
103.87031857422936,1.321885573211613,205,70,http://www.rsi.edu.sg,,03,GEYLANG BAHRU,330070,Private Education Institutions,RAFFLES SKILLS LAB INTERNATIONAL TRAINING CENTRE,2719,61B876ECFDC1BD2E,2014/01/27,32117.73200000000,33792.93830000000
103.90305675907059,1.316822183308334,206,190,http://www.rainforestcollege.edu.sg,,02,CHANGI ROAD,419974,Private Education Institutions,RAINFOREST BUSINESS COLLEGE,02,0658F84FF0EAC089,2014/01/27,35761.18410000000,33233.13250000000
103.85619885191291,1.298881387242347,207,31,http://www.toniandguy.com.sg,,02,TAN QUEE LAN STREET,188117,Private Education Institutions,TONI & GUY ACADEMY,01,1D6877025685C210,2014/01/27,30546.37020000000,31249.23460000000
103.85488006524946,1.300893749720465,208,65A/66A,http://www.toniinternational.com,BUGIS VILLAGE,65A,QUEEN STREET,188544,Private Education Institutions,TONI INTERNATIONAL COLLEGE OF AESTHETICS & PHYSIOLOGY,,1D2C8E15CFB9FB5C,2014/01/27,30399.59920000000,31471.75000000000
103.84803343517787,1.37062704685623,209,710A,http://www.topimage.com.sg,,02,ANG MO KIO AVE 8,561710,Private Education Institutions,TOP IMAGE HAIR & BEAUTY ACADEMY,2627,9C07612ABF927218,2014/01/27,29637.58480000000,39182.49560000000
103.83366493513026,1.30724675882018,210,14,http://www.ebeautyasia.com,FAR EAST PLAZA,04,SCOTTS ROAD,228213,Private Education Institutions,TOP TO TOE COLLEGE OF BEAUTY THERAPY AND COSMETOLOGY,12,C9226844591B15DB,2014/01/27,28038.54610000000,32174.22270000000
103.84413837674556,1.298132155734372,211,190,http://www.tmis.edu.sg,SINGAPORE SHOPPING CENTRE,06,CLEMENCEAU AVENUE,239924,Private Education Institutions,TOURISM MANAGEMENT INSTITUTE OF SINGAPORE,"21,26",F1559C36D50D54CB,2014/01/27,29204.14730000000,31166.37940000000
103.8449772189489,1.279102187248895,212,38,http://www.trainingvision.com.sg,AIR VIEW BUILDING,04,MAXWELL ROAD,069116,Private Education Institutions,TRAINING VISION INSTITUTE,01,19A8575F9C58BCDA,2014/01/27,29297.51260000000,29062.14420000000
103.84222712141327,1.300614669009654,213,100,http://academy.edu.sg,CONCORDE HOTEL (FORMERLY KNOWN AS LE MERIDIEN HOTE,04,ORCHARD ROAD,238840,Private Education Institutions,ASIA PACIFIC INTERNATIONAL ACADEMY,100,05DDFB3495B731F1,2014/02/04,28991.44060000000,31440.88220000000
103.84600681788581,1.274263560374534,214,2,http://www.chimei.edu.sg,,01,MISTRI ROAD,079624,Private Education Institutions,CHIMEI ACADEMY,04,14764CA054EE0E98,2014/02/04,29412.10130000000,28527.11430000000
103.85896774295907,1.295577462918816,215,9,http://www.scicollege.org.sg,SUNTEC TOWER 2,14,TEMASEK BOULEVARD,038989,Private Education Institutions,SINGAPORE COLLEGE OF INSURANCE,01,4BDAB441505F07B7,2014/01/27,30854.52680000000,30883.90660000000
103.85127687355282,1.332316158047092,216,640,http://www.singaporetcm.edu.sg,CHUNG HWA FREE CLINIC,,LORONG 4 TOA PAYOH,319522,Private Education Institutions,SINGAPORE COLLEGE OF TRADITIONAL CHINESE MEDICINE,,F6AE483C0F9AEAEE,2014/01/27,29998.57130000000,34946.27540000000
103.77621911050902,1.329160946549228,217,461,http://www.simge.edu.sg,SIM HEADQUARTERS,,CLEMENTI ROAD,599491,Private Education Institutions,SINGAPORE INSTITUTE OF MANAGEMENT,,F2BD487418AB396E,2014/01/27,21645.41390000000,34597.45460000000
103.88127081572499,1.307465186221343,218,229,http://www.simm.org.sg,MOUNTBATTEN SQUARE,03,MOUNTBATTEN ROAD,398007,Private Education Institutions,SINGAPORE INSTITUTE OF MATERIALS MANAGEMENT,28,2A25B99B619E574E,2014/01/27,33336.63870000000,32198.42630000000
103.84847054556026,1.273720504774816,219,12,http://www.siso.org.sg,BESTWAY BUILDING,,PRINCE EDWARD ROAD,079212,Private Education Institutions,SINGAPORE INSTITUTION OF SAFETY OFFICERS,,0445262520659F98,2014/01/27,29686.29510000000,28467.06760000000
103.79060713036563,1.346051961255695,220,71,http://sgkis.org/,SINGAPORE KOREAN INTERNATIONAL SCHOOL,,BUKIT TINGGI,289759,Private Education Institutions,SINGAPORE KOREAN INTERNATIONAL SCHOOL,,B4B52090B9EAAD46,2014/01/27,23246.68600000000,36465.14470000000
103.84424958634885,1.289176813640065,221,30,http://www.mediaacademy.sg,RIVERSIDE POINT,04,MERCHANT RD,058282,Private Education Institutions,SINGAPORE MEDIA ACADEMY,09,DD9CE993951243FD,2014/01/27,29216.52810000000,30176.14390000000
103.77024728740169,1.442883031111253,222,6A,http://www.srmc.edu.sg,,02,WOODLANDS CENTRE ROAD,731006,Private Education Institutions,SINGAPORE RAFFLES MUSIC COLLEGE,280,B47784B58CDC9F49,2014/01/27,20981.14580000000,47172.28950000000
103.83725723032771,1.300222310380864,223,111,http://www.spainstitute.com.sg,TRIPLEONE SOMERSET,11,SOMERSET ROAD,238164,Private Education Institutions,SINGAPORE SPA INSTITUTE,02,AEFDC85F5DD3DE75,2014/01/27,28438.33650000000,31397.49570000000
103.7289211988261,1.350416859330947,224,200,http://www.singtrain.com,YOHA @ JURONG EDUCATION HUB,03,JURONG EAST AVE 1,609789,Private Education Institutions,SINGTRAIN ACADEMY,02,8D41BB86A9473EBD,2014/01/27,16381.73640000000,36948.00070000000
103.81669431929677,1.283054693577469,225,165,http://www.sipmm.edu.sg,,03,BUKIT MERAH CENTRAL,150165,Private Education Institutions,SIPMM ACADEMY,3681,0DF2AB2770D2E13D,2014/01/27,26149.85670000000,29499.19500000000
103.73967755937197,1.333825623685755,226,135,http://www.smartlearners.edu.sg,,04,JURONG EAST STREET 13,600135,Private Education Institutions,SMART LEARNERS EDUCATION CENTRE,,D9B149AB7466579B,2014/01/27,17578.73020000000,35113.37540000000
103.88077011478066,1.30843228965568,227,231,http://www.smartteam.edu.sg,BLOCK B,03,MOUNTBATTEN ROAD,397999,Private Education Institutions,SMARTTEAM SCHOOL OF MANAGEMENT,00,C4253D3AF74C67F0,2014/01/27,33280.91330000000,32305.36260000000
103.82023618004047,1.274271298701659,228,1,http://www.shelton.edu.sg,,01/2,TELOK BLANGAH RISE,098888,Private Education Institutions,SHELTON COLLEGE INTERNATIONAL,00,94283E4259C641DA,2014/03/03,26544.03170000000,28527.97030000000
103.86235932885107,1.302338743235798,229,371,http://www.tcmcollege.com.sg/,KEYPOINT BUILDING,02,BEACH ROAD,199597,Private Education Institutions,TCM COLLEGE (S),37,6581B7AE309421C5,2014/03/03,31231.97200000000,31631.53830000000
103.84892803290148,1.279477749803688,230,110,,,07,ROBINSON ROAD,068901,Private Education Institutions,INSTITUTE OF ARTS AND SCIENCES,00,68B335365B877BCF,2014/01/27,29737.20610000000,29103.67430000000
103.84954059686515,1.301232506172409,231,1,http://www.imbm.edu.sg,PEACE CENTRE,07,SOPHIA ROAD,228149,Private Education Institutions,INSTITUTE OF MARITIME AND BUSINESS MANAGEMENT,15,CBF2AA6813DF611C,2014/01/27,29805.36410000000,31509.20350000000
103.851437202355,1.305115561340432,232,2,http://www.insworld.edu.sg,THE VERGE,03,SERANGOON ROAD,218227,Private Education Institutions,INSWORLD INSTITUTE,18,1A1F7EDA6F57A97F,2014/01/27,30016.43620000000,31938.57320000000
103.76726006103614,1.323250405374198,233,41,http://www.iis.com.sg,CLEMENTI ARCADE,02,SUNSET WAY,597071,Private Education Institutions,INTEGRATED INTERNATIONAL SCHOOL,03,F51F93C837D9EAB4,2014/01/27,20648.34570000000,33943.92170000000
103.84864102623551,1.303321978763539,234,11,http://www.iti.edu.sg,,,UPPER WILKIE ROAD,228120,Private Education Institutions,INTERCULTURAL THEATRE INSTITUTE,,CD0A479260544E3C,2014/01/27,29705.24870000000,31740.24590000000
103.84808431982965,1.297672223668962,235,1,http://www.ymca.edu.sg,,LEVEL 2,"ORCHARD ROAD, YMCA",238824,Private Education Institutions,YMCA EDUCATION CENTRE,,1FF6E6778DA22C68,2014/01/27,29643.29600000000,31115.52480000000
103.86235932885107,1.302338743235798,236,371,http://www.retailacademy.com.sg,KEYPOINT,02,BEACH ROAD,199597,Private Education Institutions,THE RETAIL ACADEMY OF SINGAPORE,08B,6581B7AEC882754A,2014/01/27,31231.97200000000,31631.53830000000
103.82846871996084,1.307178056745453,237,402,http://www.theschoolofmakeup.com,DELFI ORCHARD,03,ORCHARD ROAD,238876,Private Education Institutions,THE SCHOOL OF MAKE-UP,04,542EC93C3292E180,2014/01/27,27460.25560000000,32166.62650000000
103.84222712141327,1.300614669009654,238,100,http://www.positivepsych.edu.sg,CONCORDE HOTEL & SHOPPING MALL,03,ORCHARD ROAD,238840,Private Education Institutions,THE SCHOOL OF POSITIVE PSYCHOLOGY,20,05DDFB340C7873F9,2014/01/27,28991.44060000000,31440.88220000000
103.84325290950682,1.298512650075568,239,101,http://www.chicagobooth.edu/,HOUSE OF TAN YEOK NEE,,PENANG ROAD,238466,Private Education Institutions,THE UNIVERSITY OF CHICAGO BOOTH SCHOOL OF BUSINESS,,B2255A34867C0459,2014/01/27,29105.60250000000,31208.45210000000
103.73967755937197,1.333825623685755,240,135,http://www.soaacademyonline.com,,03,JURONG GATEWAY ROAD,600135,Private Education Institutions,SOA ACADEMY,333,D9B149AB26DBD24D,2014/01/27,17578.73020000000,35113.37540000000
103.86274639356101,1.305123194294822,241,465,http://www.soha.com.sg,,02,CRAWFORD LANE,190465,Private Education Institutions,SOHA INSTITUTE,08,EA08C53528404542,2014/01/27,31275.04530000000,31939.42900000000
103.78648281088022,1.299746972487064,242,1,http://www.sorbonne-assas-ils.org,INSEAD,,AYER RAJAH AVENUE,138676,Private Education Institutions,SORBONNE-ASSAS INTERNATIONAL LAW SCHOOL - ASIA,,F32A349F85FDB144,2014/01/27,22787.59800000000,31344.98340000000
103.85229279849854,1.300414238445171,243,190,http://www.spatec.com.sg,FORTUNE CENTRE,04,MIDDLE ROAD,188979,Private Education Institutions,SPATEC ACADEMY,34,14FF26370C8A456A,2014/01/27,30111.66010000000,31418.72580000000
103.73967755937197,1.333825623685755,244,BLK 135,http://www.spring.edu.sg,,03,JURONG GATEWAY ROAD,600135,Private Education Institutions,SPRING COLLEGE INTERNATIONAL,329,D9B149ABE06BC5D6,2014/01/27,17578.73020000000,35113.37540000000
103.83633659839242,1.35117521967683,245,194,http://www.srneducation.org/,THOMSON COMMUNITY CLUB,04,UPPER THOMSON ROAD,574339,Private Education Institutions,SRN EDUCATION CENTRE,01,50871CD77F18D935,2014/01/27,28335.87160000000,37031.60700000000
103.84458906467752,1.298054718424458,246,9,http://www.sstc.edu.sg,PARK MALL,09,PENANG ROAD,238459,Private Education Institutions,SSTC SCHOOL FOR FURTHER EDUCATION,03,3864DFC04BEB0B91,2014/01/27,29254.30480000000,31157.81700000000
103.76783727690758,1.361479522386328,247,492,http://www.sfms.edu.sg,ST. FRANCIS METHODIST SCHOOL,,UPPER BUKIT TIMAH,678095,Private Education Institutions,ST FRANCIS METHODIST SCHOOL,,54A11BD5CDD8B52C,2014/01/27,20712.69730000000,38171.10300000000
103.88077011478066,1.30843228965568,248,231,,BLOCK B,01,MOUNTBATTEN ROAD,397999,Private Education Institutions,ST GERARD'S INTERNATIONAL SCHOOL,01,C4253D3A89E13404,2014/01/27,33280.91330000000,32305.36260000000
103.7400412322837,1.334722137493934,249,131,http://www.sthua.edu.sg,,04,JURONG EAST ST.13,600131,Private Education Institutions,ST.HUA PRIVATE SCHOOL,241,C08D4982AA1F1A17,2014/01/27,17619.20710000000,35212.50590000000
103.84079522544464,1.333723167635976,250,490,http://www.sji-international.com.sg/elementary,RAPHAEL AND GABRIEL BLOCKS,,THOMSON ROAD,298191,Private Education Institutions,ST.JOSEPH'S INSTITUTION INTERNATIONAL ELEMENTARY SCHOOL,,8A3ACB425D1C670D,2014/01/27,28832.07240000000,35101.84940000000
103.82693508967851,1.286463453188145,251,302,http://www.stalfordacademy.com,TIONG BAHRU PLAZA,06,TIONG BAHRU RD,168732,Private Education Institutions,STALFORD ACADEMY,03,04985CC29589A162,2014/01/27,27289.57110000000,29876.11290000000
103.81852658653581,1.282638214126546,252,167,http://www.parkwaycollege.edu.sg,CONNECTION ONE,03,JALAN BUKIT MERAH,150167,Private Education Institutions,PARKWAY COLLEGE OF NURSING AND ALLIED HEALTH,12,D737B6280A7B496C,2014/01/27,26353.77260000000,29453.14150000000
103.82876299239489,1.430618298532849,253,102,http://WWW.PENCILTUTOR.COM,,02,YISHUN AVE 5,760102,Private Education Institutions,PENCILTUTOR SCHOOL,135,887B39B869CCD7CA,2014/01/27,27493.03140000000,45816.02010000000
103.84063711649762,1.281585637416934,254,100A,http://www.pibca.com,PEARLS CENTRE OFFICE PODIUM,02,EU TONG SEN STREET,059813,Private Education Institutions,PERFECT IMAGE BEAUTY AND COSMETOLOGY ACADEMY,01,A9C831C1B27F6FCA,2014/01/27,28814.49340000000,29336.74950000000
103.70732738471401,1.268788097094513,255,81,http://www.cptc.edu.sg,,,JURONG ISLAND HIGHWAY,627837,Private Education Institutions,PETROFAC TRAINING INSTITUTE,,6C943EB325891F0F,2014/01/27,13978.12870000000,27922.00400000000
103.87380811169085,1.316734207067692,256,1208,http://www.shrm.edu.sg,,BLOCK A,UPPER BOON KENG ROAD,387312,Private Education Institutions,SHRM COLLEGE,,3E9ABFFD56372570,2014/01/27,32506.09220000000,33223.33250000000
103.85473608633302,1.302431217112659,257,1,http://www.sictabeautyschool.com.sg/,ROCHOR CENTER,03,ROCHOR ROAD,180001,Private Education Institutions,SICTA BEAUTY SCHOOL,574,00A22727F198C3F8,2014/01/27,30383.57410000000,31641.75510000000
103.85229279849854,1.300414238445171,258,190,http://www.sigma-solutions.com.sg/,FORTUNE CENTRE,11,MIDDLE ROAD,188979,Private Education Institutions,SIGMA-SOLUTIONS ACADEMY,06,14FF2637C424A611,2014/01/27,30111.66010000000,31418.72580000000
103.77621911050902,1.329160946549228,259,461,http://www.unisim.edu.sg,,,CLEMENTI ROAD,599491,Private Education Institutions,SIM UNIVERSITY,,F2BD4874526CB9E8,2014/01/27,21645.41390000000,34597.45460000000
103.77530909246602,1.425432294381903,260,40,http://www.sas.edu.sg,BLOCK 5,,WOODLANDS STREET 41,738547,Private Education Institutions,SINGAPORE AMERICAN SCHOOL,,3A90F7C09CC3A6CC,2014/01/27,21544.39740000000,45242.65880000000
103.76739821310429,1.29262446916538,261,9/11,http://www.genesisschool.com.sg,GENESIS SCHOOL FOR SPECIAL EDUCATION,9/11,WEST COAST ROAD,127296,Private Education Institutions,GENESIS SCHOOL FOR SPECIAL EDUCATION,,61FE83D9861BF239,2014/01/27,20663.63160000000,30557.46050000000
103.88736498188871,1.320055967823437,262,118,http://www.genetic.edu.sg,,02,ALJUNIED AVENUE 2,380118,Private Education Institutions,GENETIC COMPUTER SCHOOL,100,D29B207657835997,2014/01/27,34014.83280000000,33590.66450000000
103.79176115926538,1.345610623548547,263,72,http://www.gess.sg,,,BUKIT TINGGI RD,289760,Private Education Institutions,GERMAN EUROPEAN SCHOOL SINGAPORE,,DDA338BA92FE571E,2014/01/27,23375.11600000000,36416.34160000000
103.78965958949956,1.300891645990376,264,10,http://WWW.TUM-ASIA.EDU.SG,PIXEL BUILDING,03,CENTRAL EXCHANGE GREEN,138649,Private Education Institutions,GERMAN INSTITUTE OF SCIENCE AND TECHNOLOGY - TUM ASIA,01,D2CEA996A80440B9,2014/01/27,23141.14730000000,31471.54920000000
103.80145309028458,1.2917836883481,265,1,http://www.giissingapore.org,"B,C,D,E",NA,MEI CHIN ROAD,149253,Private Education Institutions,GLOBAL INDIAN INTERNATIONAL SCHOOL,,48052C0D8906BB37,2014/01/27,24453.64530000000,30464.41840000000
103.84847054556026,1.273720504774816,266,12,http://www.gstm.edu.sg,BESTWAY BUILDING,01,PRINCE EDWARD ROAD,079212,Private Education Institutions,GLOBAL SCHOOL OF TECHNOLOGY & MANAGEMENT,11,04452625EA7595CE,2014/01/27,29686.29510000000,28467.06760000000
103.84455014757067,1.282817380852009,267,26,,,,TEMPLE STREET,058571,Private Education Institutions,GOLDEN COMPASS SCHOOL,,ADB3FBE8D9F2425E,2014/01/27,29249.98120000000,29472.95080000000
103.851437202355,1.305115561340432,268,2,,THE VERGE,06,SERANGOON ROAD,218227,Private Education Institutions,GREENSAFE ACADEMY,00,1A1F7EDA415FA720,2014/01/27,30016.43620000000,31938.57320000000
103.84954059686515,1.301232506172409,269,1,http://www.juneliew.com.sg,PEACE CENTRE,07,SOPHIA ROAD,228149,Private Education Institutions,JUNE'S BEAUTY SCHOOL,"06,07",CBF2AA684DF00B20,2014/02/10,29805.36410000000,31509.20350000000
103.84706821288029,1.333013678233313,270,500,http://www.yplsch.com,HDB HUB,04,TOA PAYOH LORONG 6,310500,Private Education Institutions,THE YPLS SCHOOL OF LEARNING,"40,41",CCCAB74E46E10562,2014/02/10,29530.19080000000,35023.40060000000
103.8386394955711,1.310978153045765,271,2,http://www.ascott-ace.com/,,,ANTHONY ROAD,229956,Private Education Institutions,ASCOTT CENTRE FOR EXCELLENCE OF THE ASCOTT LIMITED,,9C685B95500B5526,2014/01/27,28592.16770000000,32586.82170000000
103.85026781957608,1.291805079052255,272,3,http://www.ashford.edu.sg,PENINSULA SHOPPING CENTRE,04,COLEMAN STREET,179804,Private Education Institutions,ASHFORD COLLEGE OF MANAGEMENT AND TECHNOLOGY,06,4C2BAC61FC70CF20,2014/01/27,29886.30440000000,30466.76760000000
103.84847054556026,1.273720504774816,273,12,http://www.apsportsbiz.com,BESTWAY BUILDING,04,PRINCE EDWARD ROAD,079212,Private Education Institutions,ASIA PACIFIC SCHOOL OF SPORTS AND BUSINESS,01,04452625FEACE961,2014/01/27,29686.29510000000,28467.06760000000
103.89230885507426,1.319687134650835,274,11,http://www.aic.edu.sg,LIFELONG LEARNING INSTITUTE,04,EUNOS ROAD 8,408601,Private Education Institutions,ASIAN INTERNATIONAL COLLEGE,01,3FF235C95B33BE8A,2014/01/27,34565.03840000000,33549.89340000000
103.84386838882,1.285792100379776,275,101,http://www.askedu.com.sg,PEOPLE'S PARK CENTRE,04,UPPER CROSS STREET,058357,Private Education Institutions,ASK SCHOOL OF MANAGEMENT,04,C3945AD3277B9ECA,2014/01/27,29174.10570000000,29801.87960000000
103.8894234536222,1.334899540430752,276,28,http://www.at-sunrice.com,SAKAE BUILDING,05,TAI SENG STREET,534106,Private Education Institutions,AT-SUNRICE GLOBALCHEF ACADEMY,00,E32A590855345E83,2014/01/27,34243.88330000000,35231.99660000000
103.85249645652932,1.30221157862167,277,175,http://www.atlanticihl.edu.sg/,,01,BENCOOLEN STREET,189649,Private Education Institutions,ATLANTIC INSTITUTE OF HIGHER LEARNING,18,9DD0C2CB10C98E06,2014/01/27,30134.32390000000,31617.46660000000
103.84145488288962,1.291869321828711,278,11,http://www.auston.edu.sg/,ROBERTSON WALK,02,UNITY STREET,237995,Private Education Institutions,AUSTON INSTITUTE OF MANAGEMENT,20,8298B94D458E87FA,2014/01/27,28905.50050000000,30473.86640000000
103.85911217880221,1.350033819526005,279,1,http://www.ais.com.sg,AUSTRALIAN INTERNATIONAL SCHOOL,,LORONG CHUAN,556818,Private Education Institutions,AUSTRALIAN INTERNATIONAL SCHOOL,,C6DFBCADBF4EE359,2014/01/27,30870.53880000000,36905.41180000000
103.72339285845494,1.329300373036935,280,3,http://www.yuvabharathi.sg,,,HU CHING ROAD,619651,Private Education Institutions,YUVABHARATHI INTERNATIONAL SCHOOL,,9213B7B352995C7F,2014/01/27,15766.38830000000,34613.07040000000
103.846037443968,1.326285045036427,281,529,http://WWW.ZESPRION.COM,,02,BALESTIER ROAD,329856,Private Education Institutions,ZESPRION LANGUAGE CENTRE,02,674CB09FC0F3980D,2014/01/27,29415.48080000000,34279.38230000000
103.90104005042529,1.303820411016868,282,865,http://www.zhicheng.edu.sg/,KATONG SHOPPING CENTRE,07,MOUNTBATTEN ROAD,437844,Private Education Institutions,ZHICHENG PRIVATE SCHOOL,03,0381F98A63E990D3,2014/01/27,35536.78270000000,31795.45610000000
103.80851176313156,1.284541022808658,283,5,http://www.cilt.org.sg,PETRO CENTRE,06,JALAN KILANG BARAT,159349,Private Education Institutions,THE CHARTERED INSTITUTE OF LOGISTICS AND TRANSPORT SINGAPORE,03,1814799DF44CA933,2014/01/27,25239.20710000000,29663.55290000000
103.76906500618102,1.300081453070864,284,95,http://www.sjs.edu.sg,THE JAPANESE SCHOOL,,CLEMENTI ROAD,129782,Private Education Institutions,THE JAPANESE SCHOOL SINGAPORE,,BCF026780E4A1A8D,2014/01/27,20849.15240000000,31382.01110000000
103.81367274221397,1.284078034106342,285,NO 2,http://www.sla.org.sg/the-logistics-academy,SPRING SINGAPORE BUILDING,04,BUKIT MERAH CENTRAL,159835,Private Education Institutions,THE LOGISTICS ACADEMY,02,4482B869AD58B99F,2014/01/27,25813.58090000000,29612.35300000000
103.84570322397971,1.275735683523371,286,10,http://www.the-pinkroom.com,INTERNATIONAL PLAZA,15,ANSON ROAD,079903,Private Education Institutions,THE PINK ROOM INTERNATIONAL NAIL ACADEMY,06,B4545ED597DF5F31,2014/01/27,29378.31290000000,28689.89390000000
103.85007155169403,1.278518937583909,287,3,,SHENTON HOUSE,03,SHENTON WAY,068805,Private Education Institutions,ENTREPRENEUR TRAINING TECH ACADEMY,01,B7396A5338043BA0,2014/01/27,29864.47110000000,28997.65460000000
103.84943704528035,1.299023930513924,288,30,http://www.erci.edu.sg,NTUC INCOME PRINSEP HOUSE,,PRINSEP STREET,188647,Private Education Institutions,ERC INSTITUTE,,BE07A80EE4AC8FE3,2014/01/27,29793.84140000000,31264.99040000000
103.77458676539129,1.309646040253994,289,1010,esisacademy.com,,03,DOVER ROAD,139658,Private Education Institutions,ESIS ACADEMY,17,B8FF9372555F30F7,2014/01/27,21463.69960000000,32439.59960000000
103.85394229875259,1.297489762146781,290,100,http://www.essec.edu/asia,NATIONAL LIBRARY BUILDING,13,VICTORIA STREET,188064,Private Education Institutions,ESSEC,02,08979924737CE67D,2014/01/27,30295.23730000000,31095.35370000000
103.88967736715931,1.305772176188583,291,51,http://www.etonhouse.com.sg,,,BROADRICK ROAD,439501,Private Education Institutions,ETONHOUSE INTERNATIONAL SCHOOL,,8877046429BEEDDA,2014/01/27,34272.21430000000,32011.24120000000
103.85125504472003,1.300956818803652,292,210,http://www.ecta.edu.sg,SINGAPORE POOLS BUILDING,07,MIDDLE ROAD,188994,Private Education Institutions,EXECUTIVE COUNSELLING AND TRAINING ACADEMY,02,1E442FFD59717ABF,2014/01/27,29996.16700000000,31478.72060000000
103.84847054556026,1.273720504774816,293,12,http://www.ceo.edu.sg,BESTWAY BUILDING,01,PRINCE EDWARD ROAD,079212,Private Education Institutions,EXERCEO BUSINESS SCHOOL,03,0445262588621AFE,2014/01/27,29686.29510000000,28467.06760000000
103.84954059686515,1.301232506172409,294,1,http://www.fastlearnerschool.com,PEACE CENTRE,06,SOPHIA ROAD,228149,Private Education Institutions,F-TIQ FAST LEARNERS SCHOOL,15,CBF2AA68D33FE947,2014/01/27,29805.36410000000,31509.20350000000
103.85603615710751,1.298698259380337,295,520,http://www.fltc.com.sg,WISMA ALSAGOFF,04,NORTH BRIDGE ROAD,188742,Private Education Institutions,FIRST LEARNING & TRAINING CENTRE,01,C27D7C63AAE94453,2014/01/27,30528.26400000000,31228.98500000000
103.84187216198418,1.280158389259791,296,5,http://www.firstmedia.edu.sg,FIRST MEDIA DESIGN ACADEMY,01,TECK LIM ROAD,088383,Private Education Institutions,FIRST MEDIA DESIGN SCHOOL,01,F3780735B4205475,2014/01/27,28951.94440000000,29178.93210000000
103.82457778748504,1.447656645638473,297,345,http://www.fis.edu.sg,,,OLD NELSON ROAD,758692,Private Education Institutions,FIS INSTITUTE,,CE477CB26DF5F76E,2014/01/27,27027.28800000000,47700.03630000000
103.8491196829234,1.282414301956722,298,8,http://www.ftmsglobal.edu.sg,PWC BUILDING,01,CROSS STREET,048424,Private Education Institutions,FTMSGLOBAL ACADEMY,00,4DEE9D56EF6EB41A,2014/01/27,29758.53320000000,29428.38310000000
103.87402059352962,1.350858934537079,299,587,,CRESTAR BUILDING (TRAINING ROOM 3),,UPPER SERANGOON ROAD,534564,Private Education Institutions,FUDAN-XINSIDA CHINESE INSTITUTE,,091DAEBCA9BD88CA,2014/01/27,32529.67710000000,36996.67140000000
103.84847054556026,1.273720504774816,300,12,http://www.sit.edu.sg,PODIUM B BESTWAY BUILDING,02,PRINCE EDWARD ROAD,079212,Private Education Institutions,FY INSTITUTE OF TECHNOLOGY (SINGAPORE),06,0445262598AB828B,2014/01/27,29686.29510000000,28467.06760000000
103.84676514001352,1.280836619243588,301,83,http://www.fzdschool.com,,,AMOY STREET,069902,Private Education Institutions,FZD SCHOOL OF DESIGN,,3173782E13771D05,2014/01/27,29496.49280000000,29253.92970000000
103.84655600876037,1.288862922918573,302,6,http://www.nanyang.edu.sg,,04,EU TONG SEN STREET,059817,Private Education Institutions,NANYANG INSTITUTE OF MANAGEMENT,01,295BA66B55F583C7,2014/01/27,29473.21360000000,30141.43670000000
103.73967755937197,1.333825623685755,303,135,http://www.nyschool.edu.sg,,03,JURONG GATEWAY ROAD,600135,Private Education Institutions,NANYANG LANGUAGE & BUSINESS SCHOOL,333,D9B149ABCE77CF26,2014/01/27,17578.73020000000,35113.37540000000
103.84954059686515,1.301232506172409,304,1,http://www.newasia.edu.sg/index-2.html,PEACE CENTRE,07,SOPHIA ROAD,228149,Private Education Institutions,NEW ASIA ACADEMY,06,CBF2AA6800C49D81,2014/01/27,29805.36410000000,31509.20350000000
103.89434910524528,1.309171740719623,305,188-4,http://www.newcambridge.com.sg,,,TANJONG KATONG ROAD,436990,Private Education Institutions,NEW CAMBRIDGE EDUCATION CENTRE,,C4AAD178BC1D02AE,2014/01/27,34792.12670000000,32387.16000000000
103.84954059686515,1.301232506172409,306,1,http://www.newtoncollege.edu.sg,PEACE CENTRE,06,SOPHIA ROAD,228149,Private Education Institutions,NEWTON INTERNATIONAL COLLEGE,15,CBF2AA68F3F37C09,2014/01/27,29805.36410000000,31509.20350000000
103.84334933559155,1.31747005442448,307,101,http://www.angliss.edu.sg,UNITED SQUARE,06,THOMSON ROAD,307591,Private Education Institutions,WILLIAM ANGLISS INSTITUTE,"01,06",8F0EEAF7A2C61D21,2014/01/27,29116.32550000000,33304.66450000000
103.84780994459327,1.306757399462915,308,73,http://www.dasacademy.edu.sg,REX HOUSE,05,BUKIT TIMAH ROAD,229832,Private Education Institutions,DAS ACADEMY,01,8A2B63D2C4648025,2014/03/10,29612.75470000000,32120.11650000000
103.85605639488378,1.303202203528785,309,50,http://www.elite.edu.sg,CHURCH OF OUR LADY OF LOURDES,ANNEXE BUILDING,OPHIR ROAD,188690,Private Education Institutions,ELITE INTERNATIONAL COLLEGE,,3673E9F417FBC5BE,2014/01/27,30530.51180000000,31727.00800000000
103.84864102623551,1.303321978763539,310,11,http://www.emilyhill.org,,,UPPER WILKIE ROAD,228120,Private Education Institutions,EMILY HILL INSTITUTE FOR CREATIVE ENTERPRISE,,CD0A479265DF36CB,2014/01/27,29705.24870000000,31740.24590000000
103.87692267921825,1.313691539476768,311,116,http://www.emmaustrainingcenter.com,PEK CHUAN BUILDING,03,LAVENDER STREET,388730,Private Education Institutions,EMMAUS TRAINING CENTER,05,09E01737C44B9FA5,2014/01/27,32852.71930000000,32886.89580000000
103.75005841722636,1.343713019823926,312,21,http://www.shatec.sg,,,BUKIT BATOK STREET 22,659589,Private Education Institutions,SHATEC INSTITUTES,,7C8C84803858B11E,2014/01/27,18734.04950000000,36206.63270000000
103.851437202355,1.305115561340432,313,2,http://www.shri.org.sg/_shriacad_hme.asp,THE VERGE,06,SERANGOON ROAD,218227,Private Education Institutions,SHRI ACADEMY,00,1A1F7EDA1D498A91,2014/01/27,30016.43620000000,31938.57320000000
103.9022135893606,1.316668513848574,314,150,http://www.wbs.edu.sg,GUTHRIE BUILDING,02,CHANGI ROAD,419973,Private Education Institutions,WINDSOR BUSINESS SCHOOL,03,A06270725F41FBFA,2014/01/27,35667.34790000000,33216.13790000000
